{
  "type": "FeatureCollection",
  "features": [
    {
      "type": "Feature",
      "geometry": { "type": "Point", "coordinates": [-58.232, -32.487] },
      "properties": { "Cliente": "GRUPO EL FRESNO S.R.L.", "Cuit": "33716673699", "Provincia": "ENTRE RIOS", "Localidad": "URUGUAY", "CRM": "SI", "RELEVADO": "SI" }
    },
    {
      "type": "Feature",
      "geometry": { "type": "Point", "coordinates": [-60.517, -31.744] },
      "properties": { "Cliente": "KRANEVITTER MARIO OMAR Y KRANEVITTER ALBERTO RAUL SOCIEDAD DE HECHO", "Cuit": "30711314217", "Provincia": "ENTRE RIOS", "Localidad": "PARANA", "CRM": "SI", "RELEVADO": "SI" }
    },
    {
      "type": "Feature",
      "geometry": { "type": "Point", "coordinates": [-55.745, -27.458] },
      "properties": { "Cliente": "GOTTE DARIO FABIAN", "Cuit": "20177311635", "Provincia": "MISIONES", "Localidad": "CANDELARIA", "CRM": "SI", "RELEVADO": "SI" }
    },
    {
      "type": "Feature",
      "geometry": { "type": "Point", "coordinates": [-60.638, -32.066] },
      "properties": { "Cliente": "FELLER SRL", "Cuit": "30597372147", "Provincia": "ENTRE RIOS", "Localidad": "DIAMANTE", "CRM": "SI", "RELEVADO": "SI" }
    },
    {
      "type": "Feature",
      "geometry": { "type": "Point", "coordinates": [-60.638, -32.066] },
      "properties": { "Cliente": "LA AGRICOLA REGIONAL COOPERATIVA LIMITADA, AGROPECUARIA, DE CONSUMO Y DE SERVICIOS PUBLICOS", "Cuit": "33504047089", "Provincia": "ENTRE RIOS", "Localidad": "DIAMANTE", "CRM": "SI", "RELEVADO": "SI" }
    },
    {
      "type": "Feature",
      "geometry": { "type": "Point", "coordinates": [-59.788, -32.393] },
      "properties": { "Cliente": "ROTHEX S.A.", "Cuit": "30710945914", "Provincia": "ENTRE RIOS", "Localidad": "NOGOYA", "CRM": "SI", "RELEVADO": "SI" }
    },
    {
      "type": "Feature",
      "geometry": { "type": "Point", "coordinates": [-59.689, -32.306] },
      "properties": { "Cliente": "ROTH S.R.L.", "Cuit": "30555181619", "Provincia": "ENTRE RIOS", "Localidad": "TALA", "CRM": "SI", "RELEVADO": "SI" }
    },
    {
      "type": "Feature",
      "geometry": { "type": "Point", "coordinates": [-60.103, -34.063] },
      "properties": { "Cliente": "JEICA S A", "Cuit": "30666814637", "Provincia": "BUENOS AIRES", "Localidad": "ARRECIFES", "CRM": "NO", "RELEVADO": "-" }
    },
    {
      "type": "Feature",
      "geometry": { "type": "Point", "coordinates": [-60.103, -34.063] },
      "properties": { "Cliente": "KRUGUER SA", "Cuit": "30655583110", "Provincia": "BUENOS AIRES", "Localidad": "ARRECIFES", "CRM": "NO", "RELEVADO": "-" }
    },
    {
      "type": "Feature",
      "geometry": { "type": "Point", "coordinates": [-59.508, -33.811] },
      "properties": { "Cliente": "AVICOLA BEROCH- PETTINARO SOCIEDAD DE RESPONSABILIDAD LIMITA", "Cuit": "30709302996", "Provincia": "BUENOS AIRES", "Localidad": "BARADERO", "CRM": "NO", "RELEVADO": "-" }
    },
    {
      "type": "Feature",
      "geometry": { "type": "Point", "coordinates": [-58.224, -35.168] },
      "properties": { "Cliente": "AVICOLA BRANDSEN S A", "Cuit": "30639436671", "Provincia": "BUENOS AIRES", "Localidad": "CORONEL BRANDSEN", "CRM": "NO", "RELEVADO": "-" }
    },
    {
      "type": "Feature",
      "geometry": { "type": "Point", "coordinates": [-58.224, -35.168] },
      "properties": { "Cliente": "OVOBRAND SA", "Cuit": "33710607279", "Provincia": "BUENOS AIRES", "Localidad": "CORONEL BRANDSEN", "CRM": "NO", "RELEVADO": "-" }
    },
    {
      "type": "Feature",
      "geometry": { "type": "Point", "coordinates": [-58.763, -35.051] },
      "properties": { "Cliente": "AVICOLA SANTA CLARA S.A.", "Cuit": "30716895188", "Provincia": "BUENOS AIRES", "Localidad": "CAÑUELAS", "CRM": "NO", "RELEVADO": "-" }
    },
    {
      "type": "Feature",
      "geometry": { "type": "Point", "coordinates": [-59.149, -34.296] },
      "properties": { "Cliente": "NUTRICAR AVES S.R.L.", "Cuit": "30715610953", "Provincia": "BUENOS AIRES", "Localidad": "EXALTACION DE LA CRUZ", "CRM": "NO", "RELEVADO": "-" }
    },
    {
      "type": "Feature",
      "geometry": { "type": "Point", "coordinates": [-59.149, -34.296] },
      "properties": { "Cliente": "TANACORSA SA", "Cuit": "30708292598", "Provincia": "BUENOS AIRES", "Localidad": "EXALTACION DE LA CRUZ", "CRM": "NO", "RELEVADO": "-" }
    },
    {
      "type": "Feature",
      "geometry": { "type": "Point", "coordinates": [-60.016, -34.895] },
      "properties": { "Cliente": "OLACLARA SOCIEDAD ANONIMA", "Cuit": "30709966622", "Provincia": "BUENOS AIRES", "Localidad": "CHIVILCOY", "CRM": "NO", "RELEVADO": "-" }
    },
    {
      "type": "Feature",
      "geometry": { "type": "Point", "coordinates": [-61.307, -34.303] },
      "properties": { "Cliente": "MERCOU S R L", "Cuit": "30633903952", "Provincia": "BUENOS AIRES", "Localidad": "GENERAL ARENALES", "CRM": "NO", "RELEVADO": "-" }
    },
    {
      "type": "Feature",
      "geometry": { "type": "Point", "coordinates": [-61.307, -34.303] },
      "properties": { "Cliente": "ZALEI AGROPECUARIA S.A.", "Cuit": "30710842724", "Provincia": "BUENOS AIRES", "Localidad": "GENERAL ARENALES", "CRM": "SI", "RELEVADO": "NO" }
    },
    {
      "type": "Feature",
      "geometry": { "type": "Point", "coordinates": [-58.494, -35.769] },
      "properties": { "Cliente": "AVICOLA LA SORPRESA S R L", "Cuit": "30591685224", "Provincia": "BUENOS AIRES", "Localidad": "GENERAL BELGRANO", "CRM": "NO", "RELEVADO": "-" }
    },
    {
      "type": "Feature",
      "geometry": { "type": "Point", "coordinates": [-58.947, -34.925] },
      "properties": { "Cliente": "COOPERATIVA DE TRABAJO AVICOLA CIUDAD DEL ARBOL LIMITADA", "Cuit": "33715132139", "Provincia": "BUENOS AIRES", "Localidad": "GENERAL LAS HERAS", "CRM": "NO", "RELEVADO": "-" }
    },
    {
      "type": "Feature",
      "geometry": { "type": "Point", "coordinates": [-58.947, -34.925] },
      "properties": { "Cliente": "CORPORACION AVICOLA S A", "Cuit": "30707945105", "Provincia": "BUENOS AIRES", "Localidad": "GENERAL LAS HERAS", "CRM": "NO", "RELEVADO": "-" }
    },
    {
      "type": "Feature",
      "geometry": { "type": "Point", "coordinates": [-58.947, -34.925] },
      "properties": { "Cliente": "LENTINO ENRIQUE FELIPE", "Cuit": "20123617488", "Provincia": "BUENOS AIRES", "Localidad": "GENERAL LAS HERAS", "CRM": "NO", "RELEVADO": "-" }
    },
    {
      "type": "Feature",
      "geometry": { "type": "Point", "coordinates": [-58.010, -35.573] },
      "properties": { "Cliente": "LEZAVI S.A.", "Cuit": "30711384622", "Provincia": "BUENOS AIRES", "Localidad": "CHASCOMUS", "CRM": "NO", "RELEVADO": "-" }
    },
    {
      "type": "Feature",
      "geometry": { "type": "Point", "coordinates": [-59.105, -34.570] },
      "properties": { "Cliente": "DE LAFUENTE ARIEL ANDRES", "Cuit": "23258369319", "Provincia": "BUENOS AIRES", "Localidad": "LUJAN", "CRM": "NO", "RELEVADO": "-" }
    },
    {
      "type": "Feature",
      "geometry": { "type": "Point", "coordinates": [-59.105, -34.570] },
      "properties": { "Cliente": "SALVATORE MARIANA", "Cuit": "27037541376", "Provincia": "BUENOS AIRES", "Localidad": "LUJAN", "CRM": "NO", "RELEVADO": "-" }
    },
    {
      "type": "Feature",
      "geometry": { "type": "Point", "coordinates": [-59.430, -34.651] },
      "properties": { "Cliente": "FALENA S.A.", "Cuit": "30711082774", "Provincia": "BUENOS AIRES", "Localidad": "MERCEDES", "CRM": "NO", "RELEVADO": "-" }
    },
    {
      "type": "Feature",
      "geometry": { "type": "Point", "coordinates": [-59.430, -34.651] },
      "properties": { "Cliente": "IRUANYAK S R L", "Cuit": "30708554266", "Provincia": "BUENOS AIRES", "Localidad": "MERCEDES", "CRM": "NO", "RELEVADO": "-" }
    },
    {
      "type": "Feature",
      "geometry": { "type": "Point", "coordinates": [-59.430, -34.651] },
      "properties": { "Cliente": "OVODEC S.A.", "Cuit": "33710217209", "Provincia": "BUENOS AIRES", "Localidad": "MERCEDES", "CRM": "NO", "RELEVADO": "-" }
    },
    {
      "type": "Feature",
      "geometry": { "type": "Point", "coordinates": [-59.430, -34.651] },
      "properties": { "Cliente": "PRODUCTORES AVICOLAS SAN MARTIN S.A.", "Cuit": "30709415790", "Provincia": "BUENOS AIRES", "Localidad": "MERCEDES", "CRM": "NO", "RELEVADO": "-" }
    },
    {
      "type": "Feature",
      "geometry": { "type": "Point", "coordinates": [-60.573, -33.891] },
      "properties": { "Cliente": "AVIALES DE JELICICH ESTEBAN Y COURETOT ALEJANDRO S. A.", "Cuit": "30666770400", "Provincia": "BUENOS AIRES", "Localidad": "PERGAMINO", "CRM": "NO", "RELEVADO": "-" }
    },
    {
      "type": "Feature",
      "geometry": { "type": "Point", "coordinates": [-60.573, -33.891] },
      "properties": { "Cliente": "AVICOLA LA NORMA S.A.", "Cuit": "30707574794", "Provincia": "BUENOS AIRES", "Localidad": "PERGAMINO", "CRM": "NO", "RELEVADO": "-" }
    },
    {
      "type": "Feature",
      "geometry": { "type": "Point", "coordinates": [-60.573, -33.891] },
      "properties": { "Cliente": "AVICOLA TELOS S A", "Cuit": "30561063180", "Provincia": "BUENOS AIRES", "Localidad": "PERGAMINO", "CRM": "NO", "RELEVADO": "-" }
    },
    {
      "type": "Feature",
      "geometry": { "type": "Point", "coordinates": [-59.781, -35.637] },
      "properties": { "Cliente": "CABAÑA BARHY SOCIEDAD DE RESPONSABILIDAD LIMITADA", "Cuit": "30647242746", "Provincia": "BUENOS AIRES", "Localidad": "SALADILLO", "CRM": "NO", "RELEVADO": "-" }
    },
    {
      "type": "Feature",
      "geometry": { "type": "Point", "coordinates": [-59.662, -33.679] },
      "properties": { "Cliente": "ESPINOSA CRISTIAN", "Cuit": "20164961193", "Provincia": "BUENOS AIRES", "Localidad": "SAN PEDRO", "CRM": "NO", "RELEVADO": "-" }
    },
    {
      "type": "Feature",
      "geometry": { "type": "Point", "coordinates": [-59.689, -34.770] },
      "properties": { "Cliente": "AVIBER S R L", "Cuit": "30650849805", "Provincia": "BUENOS AIRES", "Localidad": "SUIPACHA", "CRM": "NO", "RELEVADO": "-" }
    },
    {
      "type": "Feature",
      "geometry": { "type": "Point", "coordinates": [-59.689, -34.770] },
      "properties": { "Cliente": "CABA#A CAMILA S A", "Cuit": "30688716930", "Provincia": "BUENOS AIRES", "Localidad": "SUIPACHA", "CRM": "NO", "RELEVADO": "-" }
    },
    {
      "type": "Feature",
      "geometry": { "type": "Point", "coordinates": [-59.028, -34.099] },
      "properties": { "Cliente": "FERNANDES DE MOURA HNOS S.H.", "Cuit": "30568581969", "Provincia": "BUENOS AIRES", "Localidad": "ZARATE", "CRM": "NO", "RELEVADO": "-" }
    },
    {
      "type": "Feature",
      "geometry": { "type": "Point", "coordinates": [-59.858, -36.777] },
      "properties": { "Cliente": "PYG SA", "Cuit": "30664054635", "Provincia": "BUENOS AIRES", "Localidad": "AZUL", "CRM": "NO", "RELEVADO": "-" }
    },
    {
      "type": "Feature",
      "geometry": { "type": "Point", "coordinates": [-62.272, -38.719] },
      "properties": { "Cliente": "GRANJA SAN MIGUEL S.A.", "Cuit": "30560296408", "Provincia": "BUENOS AIRES", "Localidad": "BAHIA BLANCA", "CRM": "NO", "RELEVADO": "-" }
    },
    {
      "type": "Feature",
      "geometry": { "type": "Point", "coordinates": [-63.050, -37.160] },
      "properties": { "Cliente": "GRANJA AVICOLA DON ANDRES S.A.", "Cuit": "30714121614", "Provincia": "BUENOS AIRES", "Localidad": "ADOLFO ALSINA", "CRM": "NO", "RELEVADO": "-" }
    },
    {
      "type": "Feature",
      "geometry": { "type": "Point", "coordinates": [-57.839, -38.268] },
      "properties": { "Cliente": "FLORES SANTIAGO", "Cuit": "20337285695", "Provincia": "BUENOS AIRES", "Localidad": "GENERAL ALVARADO", "CRM": "NO", "RELEVADO": "-" }
    },
    {
      "type": "Feature",
      "geometry": { "type": "Point", "coordinates": [-60.099, -38.031] },
      "properties": { "Cliente": "ALDASORO MARIA LUZ", "Cuit": "27179405992", "Provincia": "BUENOS AIRES", "Localidad": "GONZALES CHAVES", "CRM": "NO", "RELEVADO": "-" }
    },
    {
      "type": "Feature",
      "geometry": { "type": "Point", "coordinates": [-60.099, -38.031] },
      "properties": { "Cliente": "AMBROSIUS CHRISTIAN FEDERICO", "Cuit": "23244171419", "Provincia": "BUENOS AIRES", "Localidad": "GONZALES CHAVES", "CRM": "NO", "RELEVADO": "-" }
    },
    {
      "type": "Feature",
      "geometry": { "type": "Point", "coordinates": [-60.099, -38.031] },
      "properties": { "Cliente": "CASOMAR AVICOLA S.R.L.", "Cuit": "30717133494", "Provincia": "BUENOS AIRES", "Localidad": "GONZALES CHAVES", "CRM": "NO", "RELEVADO": "-" }
    },
    {
      "type": "Feature",
      "geometry": { "type": "Point", "coordinates": [-60.099, -38.031] },
      "properties": { "Cliente": "JOSE LUIS COLONNA Y MARIO ANGEL COLONNA", "Cuit": "30667479076", "Provincia": "BUENOS AIRES", "Localidad": "GONZALES CHAVES", "CRM": "NO", "RELEVADO": "-" }
    },
    {
      "type": "Feature",
      "geometry": { "type": "Point", "coordinates": [-58.781, -38.156] },
      "properties": { "Cliente": "PARDINI JAVIER ANGEL", "Cuit": "20166752672", "Provincia": "BUENOS AIRES", "Localidad": "LOBERIA", "CRM": "NO", "RELEVADO": "-" }
    },
    {
      "type": "Feature",
      "geometry": { "type": "Point", "coordinates": [-58.781, -38.156] },
      "properties": { "Cliente": "RODRIGUEZ HUGO IGNACIO", "Cuit": "20316823484", "Provincia": "BUENOS AIRES", "Localidad": "LOBERIA", "CRM": "NO", "RELEVADO": "-" }
    },
    {
      "type": "Feature",
      "geometry": { "type": "Point", "coordinates": [-57.422, -37.742] },
      "properties": { "Cliente": "AVICOLA VIVORATA S.R.L", "Cuit": "30712634703", "Provincia": "BUENOS AIRES", "Localidad": "MAR CHIQUITA", "CRM": "NO", "RELEVADO": "-" }
    },
    {
      "type": "Feature",
      "geometry": { "type": "Point", "coordinates": [-57.422, -37.742] },
      "properties": { "Cliente": "ONETO OSVALDO RAUL", "Cuit": "20123229100", "Provincia": "BUENOS AIRES", "Localidad": "MAR CHIQUITA", "CRM": "NO", "RELEVADO": "-" }
    },
    {
      "type": "Feature",
      "geometry": { "type": "Point", "coordinates": [-57.422, -37.742] },
      "properties": { "Cliente": "SUCESION DE CAVIA EMILIO", "Cuit": "20053329943", "Provincia": "BUENOS AIRES", "Localidad": "MAR CHIQUITA", "CRM": "NO", "RELEVADO": "-" }
    },
    {
      "type": "Feature",
      "geometry": { "type": "Point", "coordinates": [-57.556, -38.000] },
      "properties": { "Cliente": "AGROAVIR MDP S.A.", "Cuit": "30716938596", "Provincia": "BUENOS AIRES", "Localidad": "GENERAL PUEYRREDON", "CRM": "NO", "RELEVADO": "-" }
    },
    {
      "type": "Feature",
      "geometry": { "type": "Point", "coordinates": [-57.556, -38.000] },
      "properties": { "Cliente": "AGROPECUARIA EL CANDIL SOCIEDAD ANONIMA", "Cuit": "30644808021", "Provincia": "BUENOS AIRES", "Localidad": "GENERAL PUEYRREDON", "CRM": "NO", "RELEVADO": "-" }
    },
    {
      "type": "Feature",
      "geometry": { "type": "Point", "coordinates": [-57.556, -38.000] },
      "properties": { "Cliente": "BUSTAMANTE JORGE JAVIER", "Cuit": "20370582921", "Provincia": "BUENOS AIRES", "Localidad": "GENERAL PUEYRREDON", "CRM": "NO", "RELEVADO": "-" }
    },
    {
      "type": "Feature",
      "geometry": { "type": "Point", "coordinates": [-57.556, -38.000] },
      "properties": { "Cliente": "GRANJA AL SALAM S.R.L.", "Cuit": "30707007814", "Provincia": "BUENOS AIRES", "Localidad": "GENERAL PUEYRREDON", "CRM": "NO", "RELEVADO": "-" }
    },
    {
      "type": "Feature",
      "geometry": { "type": "Point", "coordinates": [-57.556, -38.000] },
      "properties": { "Cliente": "LOVRINICH OMAR ERNESTO", "Cuit": "20105281715", "Provincia": "BUENOS AIRES", "Localidad": "GENERAL PUEYRREDON", "CRM": "NO", "RELEVADO": "-" }
    },
    {
      "type": "Feature",
      "geometry": { "type": "Point", "coordinates": [-57.556, -38.000] },
      "properties": { "Cliente": "NAVARRO FERNANDO RUBEN Y NAVARRO NORBERTO", "Cuit": "30591811106", "Provincia": "BUENOS AIRES", "Localidad": "GENERAL PUEYRREDON", "CRM": "NO", "RELEVADO": "-" }
    },
    {
      "type": "Feature",
      "geometry": { "type": "Point", "coordinates": [-57.556, -38.000] },
      "properties": { "Cliente": "SCORNAIENCHI MARIA FERNANDA", "Cuit": "27167297671", "Provincia": "BUENOS AIRES", "Localidad": "GENERAL PUEYRREDON", "CRM": "NO", "RELEVADO": "-" }
    },
    {
      "type": "Feature",
      "geometry": { "type": "Point", "coordinates": [-57.556, -38.000] },
      "properties": { "Cliente": "SUCESION DE FICICCHIA ALDO FRANCISCO", "Cuit": "20053038450", "Provincia": "BUENOS AIRES", "Localidad": "GENERAL PUEYRREDON", "CRM": "NO", "RELEVADO": "-" }
    },
    {
      "type": "Feature",
      "geometry": { "type": "Point", "coordinates": [-62.703, -39.268] },
      "properties": { "Cliente": "EL PEREGRINO S R L", "Cuit": "30681176108", "Provincia": "BUENOS AIRES", "Localidad": "VILLARINO", "CRM": "NO", "RELEVADO": "-" }
    },
    {
      "type": "Feature",
      "geometry": { "type": "Point", "coordinates": [-58.739, -38.555] },
      "properties": { "Cliente": "JENSEN JURADO S.R.L", "Cuit": "30708538783", "Provincia": "BUENOS AIRES", "Localidad": "NECOCHEA", "CRM": "NO", "RELEVADO": "-" }
    },
    {
      "type": "Feature",
      "geometry": { "type": "Point", "coordinates": [-58.739, -38.555] },
      "properties": { "Cliente": "LA ALIANZA AVICOLA", "Cuit": "30716819813", "Provincia": "BUENOS AIRES", "Localidad": "NECOCHEA", "CRM": "NO", "RELEVADO": "-" }
    },
    {
      "type": "Feature",
      "geometry": { "type": "Point", "coordinates": [-58.739, -38.555] },
      "properties": { "Cliente": "PRODUCTORA AVICOLA NECOCHENSE S.A.", "Cuit": "30715045784", "Provincia": "BUENOS AIRES", "Localidad": "NECOCHEA", "CRM": "NO", "RELEVADO": "-" }
    },
    {
      "type": "Feature",
      "geometry": { "type": "Point", "coordinates": [-60.323, -36.893] },
      "properties": { "Cliente": "SUCESORES DE RAUL OMAR IGUIÑIZ SOSIEDAD ANONIMA.", "Cuit": "30709202894", "Provincia": "BUENOS AIRES", "Localidad": "OLAVARRIA", "CRM": "NO", "RELEVADO": "-" }
    },
    {
      "type": "Feature",
      "geometry": { "type": "Point", "coordinates": [-59.613, -38.346] },
      "properties": { "Cliente": "VAN STRIEN CORNELIO", "Cuit": "20102166966", "Provincia": "BUENOS AIRES", "Localidad": "SAN CAYETANO", "CRM": "NO", "RELEVADO": "-" }
    },
    {
      "type": "Feature",
      "geometry": { "type": "Point", "coordinates": [-62.084, -31.423] },
      "properties": { "Cliente": "PAEMPO S.A.", "Cuit": "30714086657", "Provincia": "CORDOBA", "Localidad": "SAN JUSTO", "CRM": "SI", "RELEVADO": "SI" }
    },
    {
      "type": "Feature",
      "geometry": { "type": "Point", "coordinates": [-62.996, -32.806] },
      "properties": { "Cliente": "RIBBA JOSE MARIA", "Cuit": "20273572792", "Provincia": "CORDOBA", "Localidad": "UNION", "CRM": "NO", "RELEVADO": "-" }
    },
    {
      "type": "Feature",
      "geometry": { "type": "Point", "coordinates": [-63.650, -33.127] },
      "properties": { "Cliente": "PONEDORAS SUR S A", "Cuit": "30562754705", "Provincia": "CORDOBA", "Localidad": "JUAREZ CELMAN", "CRM": "NO", "RELEVADO": "-" }
    },
    {
      "type": "Feature",
      "geometry": { "type": "Point", "coordinates": [-64.114, -32.175] },
      "properties": { "Cliente": "GLOBOAVES ARGENTINA S A", "Cuit": "33696227719", "Provincia": "CORDOBA", "Localidad": "TERCERO ARRIBA", "CRM": "NO", "RELEVADO": "-" }
    },
    {
      "type": "Feature",
      "geometry": { "type": "Point", "coordinates": [-58.830, -27.469] },
      "properties": { "Cliente": "AVICOLA SANTA ANA SOCIEDAD ANONIMA", "Cuit": "30606304230", "Provincia": "CORRIENTES", "Localidad": "CAPITAL", "CRM": "NO", "RELEVADO": "-" }
    },
    {
      "type": "Feature",
      "geometry": { "type": "Point", "coordinates": [-68.778, -32.889] },
      "properties": { "Cliente": "AVICOLA SANTA ROSA DE JUAN JOSE MAROTO Y MARIO ALBERTO MAROT", "Cuit": "30714296198", "Provincia": "MENDOZA", "Localidad": "GUAYMALLEN", "CRM": "NO", "RELEVADO": "-" }
    },
    {
      "type": "Feature",
      "geometry": { "type": "Point", "coordinates": [-68.780, -32.977] },
      "properties": { "Cliente": "BRUGNOLI ORLANDO", "Cuit": "20112865382", "Provincia": "MENDOZA", "Localidad": "MAIPU", "CRM": "NO", "RELEVADO": "-" }
    },
    {
      "type": "Feature",
      "geometry": { "type": "Point", "coordinates": [-68.778, -32.889] },
      "properties": { "Cliente": "CLAUDIO JAVIER CATALA, RAUL GONZALO CATALA Y MARCELO GABRIEL", "Cuit": "30708469471", "Provincia": "MENDOZA", "Localidad": "GUAYMALLEN", "CRM": "NO", "RELEVADO": "-" }
    },
    {
      "type": "Feature",
      "geometry": { "type": "Point", "coordinates": [-68.828, -32.852] },
      "properties": { "Cliente": "CRUZ MARTINEZ LUIS FELIPE", "Cuit": "20925025039", "Provincia": "MENDOZA", "Localidad": "LAS HERAS", "CRM": "NO", "RELEVADO": "-" }
    },
    {
      "type": "Feature",
      "geometry": { "type": "Point", "coordinates": [-68.780, -32.977] },
      "properties": { "Cliente": "H3 SOCIEDAD ANONIMA", "Cuit": "30711973296", "Provincia": "MENDOZA", "Localidad": "MAIPU", "CRM": "NO", "RELEVADO": "-" }
    },
    {
      "type": "Feature",
      "geometry": { "type": "Point", "coordinates": [-68.472, -33.132] },
      "properties": { "Cliente": "F.E.D. SOCIEDAD ANONIMA", "Cuit": "30708144122", "Provincia": "MENDOZA", "Localidad": "JUNIN", "CRM": "NO", "RELEVADO": "-" }
    },
    {
      "type": "Feature",
      "geometry": { "type": "Point", "coordinates": [-68.586, -31.683] },
      "properties": { "Cliente": "ADRA SRL", "Cuit": "30715550128", "Provincia": "SAN JUAN", "Localidad": "POCITO", "CRM": "NO", "RELEVADO": "-" }
    },
    {
      "type": "Feature",
      "geometry": { "type": "Point", "coordinates": [-68.494, -31.539] },
      "properties": { "Cliente": "BUBICA MARIO", "Cuit": "23184984539", "Provincia": "SAN JUAN", "Localidad": "SANTA LUCIA", "CRM": "NO", "RELEVADO": "-" }
    },
    {
      "type": "Feature",
      "geometry": { "type": "Point", "coordinates": [-68.533, -31.483] },
      "properties": { "Cliente": "ESTABLECIMIENTO AVICOLA ALICIA S.R.L.", "Cuit": "30610710766", "Provincia": "SAN JUAN", "Localidad": "CHIMBAS", "CRM": "NO", "RELEVADO": "-" }
    },
    {
      "type": "Feature",
      "geometry": { "type": "Point", "coordinates": [-68.586, -31.683] },
      "properties": { "Cliente": "OLYGA S.A.", "Cuit": "30710831471", "Provincia": "SAN JUAN", "Localidad": "POCITO", "CRM": "NO", "RELEVADO": "-" }
    },
    {
      "type": "Feature",
      "geometry": { "type": "Point", "coordinates": [-68.466, -31.200] },
      "properties": { "Cliente": "PIE DE PALO S R L", "Cuit": "30648006426", "Provincia": "SAN JUAN", "Localidad": "ANGACO", "CRM": "NO", "RELEVADO": "-" }
    },
    {
      "type": "Feature",
      "geometry": { "type": "Point", "coordinates": [-58.139, -32.223] },
      "properties": { "Cliente": "C Y B S.A", "Cuit": "30709850411", "Provincia": "ENTRE RIOS", "Localidad": "COLON", "CRM": "SI", "RELEVADO": "SI" }
    },
    {
      "type": "Feature",
      "geometry": { "type": "Point", "coordinates": [-60.638, -32.066] },
      "properties": { "Cliente": "GRANJA DON PEPE S.R.L.", "Cuit": "30714530395", "Provincia": "ENTRE RIOS", "Localidad": "DIAMANTE", "CRM": "SI", "RELEVADO": "NO" }
    },
    {
      "type": "Feature",
      "geometry": { "type": "Point", "coordinates": [-59.645, -30.741] },
      "properties": { "Cliente": "COBB ARGENTINA S A", "Cuit": "30670824949", "Provincia": "ENTRE RIOS", "Localidad": "LA PAZ", "CRM": "SI", "RELEVADO": "SI" }
    },
    {
      "type": "Feature",
      "geometry": { "type": "Point", "coordinates": [-59.788, -32.393] },
      "properties": { "Cliente": "BERNHARDT ANIBAL MARCELINO", "Cuit": "20204459135", "Provincia": "ENTRE RIOS", "Localidad": "NOGOYA", "CRM": "SI", "RELEVADO": "NO" }
    },
    {
      "type": "Feature",
      "geometry": { "type": "Point", "coordinates": [-59.788, -32.393] },
      "properties": { "Cliente": "CABAÑA AVICOLA MODELO S.R.L.", "Cuit": "30711222703", "Provincia": "ENTRE RIOS", "Localidad": "NOGOYA", "CRM": "NO", "RELEVADO": "-" }
    },
    {
      "type": "Feature",
      "geometry": { "type": "Point", "coordinates": [-59.788, -32.393] },
      "properties": { "Cliente": "PROAVI S.R.L.", "Cuit": "30708607467", "Provincia": "ENTRE RIOS", "Localidad": "NOGOYA", "CRM": "SI", "RELEVADO": "SI" }
    },
    {
      "type": "Feature",
      "geometry": { "type": "Point", "coordinates": [-60.517, -31.744] },
      "properties": { "Cliente": "AVICOLA 38 S.R.L.", "Cuit": "30710531648", "Provincia": "ENTRE RIOS", "Localidad": "PARANA", "CRM": "SI", "RELEVADO": "NO" }
    },
    {
      "type": "Feature",
      "geometry": { "type": "Point", "coordinates": [-60.517, -31.744] },
      "properties": { "Cliente": "BASSI MARIANO FRANCISCO", "Cuit": "20248996200", "Provincia": "ENTRE RIOS", "Localidad": "PARANA", "CRM": "SI", "RELEVADO": "NO" }
    },
    {
      "type": "Feature",
      "geometry": { "type": "Point", "coordinates": [-60.517, -31.744] },
      "properties": { "Cliente": "FEIL ROSA LILIANA", "Cuit": "27162009686", "Provincia": "ENTRE RIOS", "Localidad": "PARANA", "CRM": "SI", "RELEVADO": "NO" }
    },
    {
      "type": "Feature",
      "geometry": { "type": "Point", "coordinates": [-60.517, -31.744] },
      "properties": { "Cliente": "FERRICHER SUSANA ADELA", "Cuit": "27060558340", "Provincia": "ENTRE RIOS", "Localidad": "PARANA", "CRM": "NO", "RELEVADO": "-" }
    },
    {
      "type": "Feature",
      "geometry": { "type": "Point", "coordinates": [-60.517, -31.744] },
      "properties": { "Cliente": "KEMERER DANIEL GERMAN, KEMERER CLAUDIO MARTIN Y KEMERER ELBIO HERNAN SOCIEDAD DE HECHO", "Cuit": "30709297208", "Provincia": "ENTRE RIOS", "Localidad": "PARANA", "CRM": "NO", "RELEVADO": "-" }
    },
    {
      "type": "Feature",
      "geometry": { "type": "Point", "coordinates": [-60.517, -31.744] },
      "properties": { "Cliente": "KRIGER HNOS. S.R.L.", "Cuit": "30709776939", "Provincia": "ENTRE RIOS", "Localidad": "PARANA", "CRM": "SI", "RELEVADO": "SI" }
    },
    {
      "type": "Feature",
      "geometry": { "type": "Point", "coordinates": [-60.517, -31.744] },
      "properties": { "Cliente": "REGNER DARIO RUBEN", "Cuit": "23230001529", "Provincia": "ENTRE RIOS", "Localidad": "PARANA", "CRM": "SI", "RELEVADO": "NO" }
    },
    {
      "type": "Feature",
      "geometry": { "type": "Point", "coordinates": [-60.517, -31.744] },
      "properties": { "Cliente": "TRES ROBLES S.R.L.", "Cuit": "30711724717", "Provincia": "ENTRE RIOS", "Localidad": "PARANA", "CRM": "SI", "RELEVADO": "NO" }
    },
    {
      "type": "Feature",
      "geometry": { "type": "Point", "coordinates": [-60.517, -31.744] },
      "properties": { "Cliente": "WAGNER JUAN CRUZ", "Cuit": "20311793110", "Provincia": "ENTRE RIOS", "Localidad": "PARANA", "CRM": "NO", "RELEVADO": "-" }
    },
    {
      "type": "Feature",
      "geometry": { "type": "Point", "coordinates": [-60.154, -32.618] },
      "properties": { "Cliente": "CURMONA MIGUEL", "Cuit": "20077051571", "Provincia": "ENTRE RIOS", "Localidad": "VICTORIA", "CRM": "SI", "RELEVADO": "SI" }
    },
    {
      "type": "Feature",
      "geometry": { "type": "Point", "coordinates": [-60.154, -32.618] },
      "properties": { "Cliente": "DON BERNARDO S.A.", "Cuit": "33690462619", "Provincia": "ENTRE RIOS", "Localidad": "VICTORIA", "CRM": "SI", "RELEVADO": "SI" }
    },
    {
      "type": "Feature",
      "geometry": { "type": "Point", "coordinates": [-60.154, -32.618] },
      "properties": { "Cliente": "MAIOCCO CEREALES S.A.", "Cuit": "30709243752", "Provincia": "ENTRE RIOS", "Localidad": "VICTORIA", "CRM": "SI", "RELEVADO": "SI" }
    },
    {
      "type": "Feature",
      "geometry": { "type": "Point", "coordinates": [-58.277, -34.806] },
      "properties": { "Cliente": "AVICOLA LA CAPILLA SA", "Cuit": "30707818898", "Provincia": "BUENOS AIRES", "Localidad": "FLORENCIO VARELA", "CRM": "NO", "RELEVADO": "-" }
    },
    {
      "type": "Feature",
      "geometry": { "type": "Point", "coordinates": [-58.952, -34.608] },
      "properties": { "Cliente": "SA AVICOLA ENTRE RIOS", "Cuit": "30584727493", "Provincia": "BUENOS AIRES", "Localidad": "GENERAL RODRIGUEZ", "CRM": "NO", "RELEVADO": "-" }
    },
    {
      "type": "Feature",
      "geometry": { "type": "Point", "coordinates": [-57.954, -34.921] },
      "properties": { "Cliente": "ARGENOVO SRL", "Cuit": "30709731609", "Provincia": "BUENOS AIRES", "Localidad": "LA PLATA", "CRM": "NO", "RELEVADO": "-" }
    },
    {
      "type": "Feature",
      "geometry": { "type": "Point", "coordinates": [-57.954, -34.921] },
      "properties": { "Cliente": "AVICOLA AMANECER SRL", "Cuit": "30708481137", "Provincia": "BUENOS AIRES", "Localidad": "LA PLATA", "CRM": "NO", "RELEVADO": "-" }
    },
    {
      "type": "Feature",
      "geometry": { "type": "Point", "coordinates": [-57.954, -34.921] },
      "properties": { "Cliente": "AVICOLA EL TRIANGULO SA", "Cuit": "33708756119", "Provincia": "BUENOS AIRES", "Localidad": "LA PLATA", "CRM": "NO", "RELEVADO": "-" }
    },
    {
      "type": "Feature",
      "geometry": { "type": "Point", "coordinates": [-57.954, -34.921] },
      "properties": { "Cliente": "AVICOLA LOS MANANTIALES SRL", "Cuit": "30709089346", "Provincia": "BUENOS AIRES", "Localidad": "LA PLATA", "CRM": "NO", "RELEVADO": "-" }
    },
    {
      "type": "Feature",
      "geometry": { "type": "Point", "coordinates": [-57.954, -34.921] },
      "properties": { "Cliente": "BENOVO S.A.", "Cuit": "30716892448", "Provincia": "BUENOS AIRES", "Localidad": "LA PLATA", "CRM": "NO", "RELEVADO": "-" }
    },
    {
      "type": "Feature",
      "geometry": { "type": "Point", "coordinates": [-57.954, -34.921] },
      "properties": { "Cliente": "GRANJA DEL SUR SRL", "Cuit": "30710097336", "Provincia": "BUENOS AIRES", "Localidad": "LA PLATA", "CRM": "NO", "RELEVADO": "-" }
    },
    {
      "type": "Feature",
      "geometry": { "type": "Point", "coordinates": [-57.954, -34.921] },
      "properties": { "Cliente": "VADALA MATIAS EZEQUIEL", "Cuit": "20338748621", "Provincia": "BUENOS AIRES", "Localidad": "LA PLATA", "CRM": "NO", "RELEVADO": "-" }
    },
    {
      "type": "Feature",
      "geometry": { "type": "Point", "coordinates": [-58.840, -34.780] },
      "properties": { "Cliente": "ALFONZO GRACIELA NOEMI", "Cuit": "27161061862", "Provincia": "BUENOS AIRES", "Localidad": "MARCOS PAZ", "CRM": "NO", "RELEVADO": "-" }
    },
    {
      "type": "Feature",
      "geometry": { "type": "Point", "coordinates": [-58.840, -34.780] },
      "properties": { "Cliente": "LA NUEVA COLONIA S. R. L.", "Cuit": "30717695840", "Provincia": "BUENOS AIRES", "Localidad": "MARCOS PAZ", "CRM": "NO", "RELEVADO": "-" }
    },
    {
      "type": "Feature",
      "geometry": { "type": "Point", "coordinates": [-58.840, -34.780] },
      "properties": { "Cliente": "LINARES DIEGO MARTIN", "Cuit": "20274413221", "Provincia": "BUENOS AIRES", "Localidad": "MARCOS PAZ", "CRM": "NO", "RELEVADO": "-" }
    },
    {
      "type": "Feature",
      "geometry": { "type": "Point", "coordinates": [-58.840, -34.780] },
      "properties": { "Cliente": "NEW TRADERS CORP S A", "Cuit": "30635898212", "Provincia": "BUENOS AIRES", "Localidad": "MARCOS PAZ", "CRM": "NO", "RELEVADO": "-" }
    },
    {
      "type": "Feature",
      "geometry": { "type": "Point", "coordinates": [-58.840, -34.780] },
      "properties": { "Cliente": "RUFFO ARIEL HUMBERTO", "Cuit": "23204705739", "Provincia": "BUENOS AIRES", "Localidad": "MARCOS PAZ", "CRM": "NO", "RELEVADO": "-" }
    },
    {
      "type": "Feature",
      "geometry": { "type": "Point", "coordinates": [-65.533, -25.100] },
      "properties": { "Cliente": "BAISSAC GUSTAVO DANIEL", "Cuit": "20175818341", "Provincia": "SALTA", "Localidad": "CHICOANA", "CRM": "NO", "RELEVADO": "-" }
    },
    {
      "type": "Feature",
      "geometry": { "type": "Point", "coordinates": [-64.603, -26.113] },
      "properties": { "Cliente": "TUCUMAN AVICOLA S R L", "Cuit": "30685733087", "Provincia": "SALTA", "Localidad": "CANDELARIA", "CRM": "NO", "RELEVADO": "-" }
    },
    {
      "type": "Feature",
      "geometry": { "type": "Point", "coordinates": [-65.487, -24.897] },
      "properties": { "Cliente": "AGROPECUARIA LA CAUTIVA S.R.L.", "Cuit": "30714566896", "Provincia": "SALTA", "Localidad": "CERRILLOS", "CRM": "NO", "RELEVADO": "-" }
    },
    {
      "type": "Feature",
      "geometry": { "type": "Point", "coordinates": [-65.581, -24.980] },
      "properties": { "Cliente": "ALEJANDRO MANUEL COLQUI Y LEONARDO ANIBAL COLQUI S.H.", "Cuit": "30714666785", "Provincia": "SALTA", "Localidad": "ROSARIO DE LERMA", "CRM": "NO", "RELEVADO": "-" }
    },
    {
      "type": "Feature",
      "geometry": { "type": "Point", "coordinates": [-65.487, -24.897] },
      "properties": { "Cliente": "ASTILLAS DE PLATA S.A.", "Cuit": "30707061533", "Provincia": "SALTA", "Localidad": "CERRILLOS", "CRM": "NO", "RELEVADO": "-" }
    },
    {
      "type": "Feature",
      "geometry": { "type": "Point", "coordinates": [-65.581, -24.980] },
      "properties": { "Cliente": "BARRIOS ORTEGA JOSE LUIS", "Cuit": "20302214469", "Provincia": "SALTA", "Localidad": "ROSARIO DE LERMA", "CRM": "NO", "RELEVADO": "-" }
    },
    {
      "type": "Feature",
      "geometry": { "type": "Point", "coordinates": [-65.487, -24.897] },
      "properties": { "Cliente": "FERMOSELLE SERGIO GERARDO", "Cuit": "20293371262", "Provincia": "SALTA", "Localidad": "CERRILLOS", "CRM": "NO", "RELEVADO": "-" }
    },
    {
      "type": "Feature",
      "geometry": { "type": "Point", "coordinates": [-65.581, -24.980] },
      "properties": { "Cliente": "GARCIA MARIA MARTA, GARCIA FRANCISCO MATIAS, GARCIA MARIANA", "Cuit": "33711239559", "Provincia": "SALTA", "Localidad": "ROSARIO DE LERMA", "CRM": "NO", "RELEVADO": "-" }
    },
    {
      "type": "Feature",
      "geometry": { "type": "Point", "coordinates": [-65.391, -24.595] },
      "properties": { "Cliente": "GRANJA AVICOLA LA CAÑADA S.A", "Cuit": "33708378769", "Provincia": "SALTA", "Localidad": "LA CALDERA", "CRM": "NO", "RELEVADO": "-" }
    },
    {
      "type": "Feature",
      "geometry": { "type": "Point", "coordinates": [-65.487, -24.897] },
      "properties": { "Cliente": "HUEVOS K S.R.L.", "Cuit": "30711575185", "Provincia": "SALTA", "Localidad": "CERRILLOS", "CRM": "SI", "RELEVADO": "NO" }
    },
    {
      "type": "Feature",
      "geometry": { "type": "Point", "coordinates": [-65.050, -24.670] },
      "properties": { "Cliente": "PRODUCTOS ALIMENTICIOS SOFIA S.A", "Cuit": "30710345992", "Provincia": "SALTA", "Localidad": "GENERAL GUEMES", "CRM": "NO", "RELEVADO": "-" }
    },
    {
      "type": "Feature",
      "geometry": { "type": "Point", "coordinates": [-65.581, -24.980] },
      "properties": { "Cliente": "SAYUS JAVIER ALEJANDRO", "Cuit": "20175805258", "Provincia": "SALTA", "Localidad": "ROSARIO DE LERMA", "CRM": "NO", "RELEVADO": "-" }
    },
    {
      "type": "Feature",
      "geometry": { "type": "Point", "coordinates": [-65.211, -24.256] },
      "properties": { "Cliente": "LA MAGALI S.R.L.", "Cuit": "30708889632", "Provincia": "JUJUY", "Localidad": "PALPALA", "CRM": "NO", "RELEVADO": "-" }
    },
    {
      "type": "Feature",
      "geometry": { "type": "Point", "coordinates": [-65.573, -27.770] },
      "properties": { "Cliente": "MESTRE JUAN JOSE", "Cuit": "20133248782", "Provincia": "TUCUMAN", "Localidad": "LA COCHA", "CRM": "NO", "RELEVADO": "-" }
    },
    {
      "type": "Feature",
      "geometry": { "type": "Point", "coordinates": [-64.800, -26.500] },
      "properties": { "Cliente": "GUYRA S.A.S", "Cuit": "30717074544", "Provincia": "TUCUMAN", "Localidad": "BURRUYACU", "CRM": "NO", "RELEVADO": "-" }
    },
    {
      "type": "Feature",
      "geometry": { "type": "Point", "coordinates": [-64.800, -26.500] },
      "properties": { "Cliente": "LA GRANJA DOÑA ISABEL SOCIEDAD DE RESPONSABILIDAD LIMITADA", "Cuit": "33711343429", "Provincia": "TUCUMAN", "Localidad": "BURRUYACU", "CRM": "NO", "RELEVADO": "-" }
    },
    {
      "type": "Feature",
      "geometry": { "type": "Point", "coordinates": [-65.250, -27.200] },
      "properties": { "Cliente": "LABORDA DELACROIX RODRIGO MARTIN", "Cuit": "20253807319", "Provincia": "TUCUMAN", "Localidad": "LEALES", "CRM": "NO", "RELEVADO": "-" }
    },
    {
      "type": "Feature",
      "geometry": { "type": "Point", "coordinates": [-65.250, -27.200] },
      "properties": { "Cliente": "RAMOS NORA ALICIA", "Cuit": "27149669545", "Provincia": "TUCUMAN", "Localidad": "LEALES", "CRM": "NO", "RELEVADO": "-" }
    },
    {
      "type": "Feature",
      "geometry": { "type": "Point", "coordinates": [-67.583, -39.033] },
      "properties": { "Cliente": "ORELL MARIANO TOMAS", "Cuit": "20308428835", "Provincia": "RIO NEGRO", "Localidad": "GENERAL ROCA", "CRM": "NO", "RELEVADO": "-" }
    },
    {
      "type": "Feature",
      "geometry": { "type": "Point", "coordinates": [-67.583, -39.033] },
      "properties": { "Cliente": "PALOMEQUE MARTIN ANDRES", "Cuit": "20303951890", "Provincia": "RIO NEGRO", "Localidad": "GENERAL ROCA", "CRM": "NO", "RELEVADO": "-" }
    },
    {
      "type": "Feature",
      "geometry": { "type": "Point", "coordinates": [-68.059, -38.951] },
      "properties": { "Cliente": "SUCESION DE TIEPPO ISIDORO CARLOS", "Cuit": "20051763379", "Provincia": "NEUQUEN", "Localidad": "CONFLUENCIA", "CRM": "NO", "RELEVADO": "-" }
    },
    {
      "type": "Feature",
      "geometry": { "type": "Point", "coordinates": [-65.492, -43.289] },
      "properties": { "Cliente": "CARPAT S.A.", "Cuit": "30707411089", "Provincia": "CHUBUT", "Localidad": "GAIMAN", "CRM": "NO", "RELEVADO": "-" }
    },
    {
      "type": "Feature",
      "geometry": { "type": "Point", "coordinates": [-61.306, -32.944] },
      "properties": { "Cliente": "DAINESI, EDUARDO L., ADRIAN H. Y CHRISTIAN, D. S.R.L.", "Cuit": "30621924423", "Provincia": "SANTA FE", "Localidad": "IRIONDO", "CRM": "NO", "RELEVADO": "-" }
    },
    {
      "type": "Feature",
      "geometry": { "type": "Point", "coordinates": [-61.168, -33.047] },
      "properties": { "Cliente": "AVICOLA LOS MOLINOS SRL.", "Cuit": "30710102933", "Provincia": "SANTA FE", "Localidad": "CASEROS", "CRM": "NO", "RELEVADO": "-" }
    },
    {
      "type": "Feature",
      "geometry": { "type": "Point", "coordinates": [-60.731, -31.744] },
      "properties": { "Cliente": "AVICOLA SAN AGUSTIN S.R.L.", "Cuit": "33714442339", "Provincia": "SANTA FE", "Localidad": "LAS COLONIAS", "CRM": "NO", "RELEVADO": "-" }
    },
    {
      "type": "Feature",
      "geometry": { "type": "Point", "coordinates": [-60.731, -31.744] },
      "properties": { "Cliente": "COMPAÑIA AVICOLA SA", "Cuit": "30686966417", "Provincia": "SANTA FE", "Localidad": "LAS COLONIAS", "CRM": "NO", "RELEVADO": "-" }
    },
    {
      "type": "Feature",
      "geometry": { "type": "Point", "coordinates": [-61.500, -31.250] },
      "properties": { "Cliente": "LUCERNA YARI NAHUEL", "Cuit": "20242366167", "Provincia": "SANTA FE", "Localidad": "CASTELLANOS", "CRM": "SI", "RELEVADO": "SI" }
    },
    {
      "type": "Feature",
      "geometry": { "type": "Point", "coordinates": [-60.700, -31.633] },
      "properties": { "Cliente": "SCHNEIDER DANIEL ATILIO", "Cuit": "20131184264", "Provincia": "SANTA FE", "Localidad": "LA CAPITAL", "CRM": "NO", "RELEVADO": "-" }
    }
  ]
}
