{
  "type": "FeatureCollection",
  "features": [
    {
      "type": "Feature",
      "properties": {
        "cliente": "Miguel Novello SRL",
        "direccion": "Mariano Moreno 167",
        "telefono": "'+54 9 353 569-8469",
        "email": "miguelnovellosrl@hotmail.com.ar",
        "maquinas": "CLAAS Jaguar 930, CLAAS Jaguar 960, CLAAS Jaguar 960, CLAAS Jaguar 960, CLAAS Jaguar 960, CLAAS Jaguar 960",
        "cantidad": "6",
        "crm": "NO"
      },
      "geometry": {
        "type": "Point",
        "coordinates": [
          -63.241,
          -32.407
        ]
      }
    },
    {
      "type": "Feature",
      "properties": {
        "cliente": "Duckas SRL",
        "direccion": "Lisandro de la Torre 125",
        "telefono": "'+54 9 2396 62-3266",
        "email": "patricio@duckas.com.ar",
        "maquinas": "CLAAS Jaguar 980, CLAAS Jaguar 980, CLAAS Jaguar 980, CLAAS Jaguar 960, CLAAS Jaguar 990",
        "cantidad": "5",
        "crm": "NO"
      },
      "geometry": {
        "type": "Point",
        "coordinates": [
          -61.365,
          -35.623
        ]
      }
    },
    {
      "type": "Feature",
      "properties": {
        "cliente": "Futuro Ganadero SRL",
        "direccion": "Alte Brown 1338",
        "telefono": "'+54 9 2284 50-6154",
        "email": "futuroganadero@yahoo.com.ar",
        "maquinas": "CLAAS Jaguar 950, CLAAS Jaguar 950, CLAAS Jaguar 950, CLAAS Jaguar 960, CLAAS Jaguar 980",
        "cantidad": "5",
        "crm": "SI"
      },
      "geometry": {
        "type": "Point",
        "coordinates": [
          -60.803,
          -37.545
        ]
      }
    },
    {
      "type": "Feature",
      "properties": {
        "cliente": "Agro La Merced SRL",
        "direccion": "Av. Smith 1138",
        "telefono": "'+54 9 2325 65-0924",
        "email": "mcirio@agrolamerced.com.ar",
        "maquinas": "CLAAS Jaguar 960, CLAAS Jaguar 950, CLAAS Jaguar 950, CLAAS Jaguar 940",
        "cantidad": "4",
        "crm": "NO"
      },
      "geometry": {
        "type": "Point",
        "coordinates": [
          -59.474,
          -34.255
        ]
      }
    },
    {
      "type": "Feature",
      "properties": {
        "cliente": "Cuenca Mediterránea SRL",
        "direccion": "Coronel Dominguez y Ruta Nac. 10",
        "telefono": "'+54 9 3404 52-8089",
        "email": "marianonioi@prosilo.com.ar",
        "maquinas": "CLAAS 940, CLAAS 940, CLAAS Jaguar 960, John Derre 8600",
        "cantidad": "4",
        "crm": "NO"
      },
      "geometry": {
        "type": "Point",
        "coordinates": [
          -60.997,
          -31.763
        ]
      }
    },
    {
      "type": "Feature",
      "properties": {
        "cliente": "Ikurriña SRL",
        "direccion": "Estrada 184",
        "telefono": "'+54 9 2324 69-1355",
        "email": "silajesikurrina@gmail.com",
        "maquinas": "CLAAS Jaguar 900, CLAAS Jaguar 890, CLAAS Jaguar 960, CLAAS Jaguar 960",
        "cantidad": "4",
        "crm": "NO"
      },
      "geometry": {
        "type": "Point",
        "coordinates": [
          -60.275,
          -34.745
        ]
      }
    },
    {
      "type": "Feature",
      "properties": {
        "cliente": "Martinelli y Asociados SRL",
        "direccion": "Necochea 2357",
        "telefono": "'+54 9 341 320-6448",
        "email": "jlmartinelli@martinellisilajes.com",
        "maquinas": "CLAAS 890, CLAAS 960, CLAAS 960, CLAAS Jaguar 930",
        "cantidad": "4",
        "crm": "SI"
      },
      "geometry": {
        "type": "Point",
        "coordinates": [
          -60.64,
          -32.947
        ]
      }
    },
    {
      "type": "Feature",
      "properties": {
        "cliente": "WRB Silaje",
        "direccion": "Ruta 188 km. 219.3",
        "telefono": "'+54 9 2355 57-1458",
        "email": "info@silajewrb.com.ar",
        "maquinas": "CLAAS Jaguar 930, CLAAS Jaguar 960, CLAAS Jaguar 960, CLAAS Jaguar 940",
        "cantidad": "4",
        "crm": "NO"
      },
      "geometry": {
        "type": "Point",
        "coordinates": [
          -61.53,
          -34.866
        ]
      }
    },
    {
      "type": "Feature",
      "properties": {
        "cliente": "22 La Melga SRL",
        "direccion": "Emilio V. Bunge 369",
        "telefono": "'+54 9 3388 45-7297",
        "email": "agrosilajesbunge1@gmail.com",
        "maquinas": "JOHN DEERE 8500i, JOHN DEERE 7550, JOHN DEERE 7550",
        "cantidad": "3",
        "crm": "SI"
      },
      "geometry": {
        "type": "Point",
        "coordinates": [
          -63.745,
          -34.695
        ]
      }
    },
    {
      "type": "Feature",
      "properties": {
        "cliente": "Agroyemel SA",
        "direccion": "Rivadavia 217",
        "telefono": "'+54 9 2337401094",
        "email": "belenscarellasilajes@hotmail.com",
        "maquinas": "JOHN DEERE 7450, JOHN DEERE 7450, JOHN DEERE 8400",
        "cantidad": "3",
        "crm": "SI"
      },
      "geometry": {
        "type": "Point",
        "coordinates": [
          -62.983,
          -35.493
        ]
      }
    },
    {
      "type": "Feature",
      "properties": {
        "cliente": "Buenar Hnos. Silajes",
        "direccion": "Colonia Villa Elisa",
        "telefono": "'+54 9 3447 43-7935",
        "email": "buenarhnossilajes@gmail.com",
        "maquinas": "JOHN DEERE 8500i, JOHN DEERE 8600, JOHN DEERE 8600",
        "cantidad": "3",
        "crm": "NO"
      },
      "geometry": {
        "type": "Point",
        "coordinates": [
          -58.4,
          -32.163
        ]
      }
    },
    {
      "type": "Feature",
      "properties": {
        "cliente": "Con Rural SRL",
        "direccion": "Av. Eva Perón 2457",
        "telefono": "'+54 9 2317 41-7410",
        "email": "conruralsrl@hotmail.com",
        "maquinas": "CLAAS Jaguar 950, CLAAS Jaguar 930, CLAAS Jaguar 950",
        "cantidad": "3",
        "crm": "SI"
      },
      "geometry": {
        "type": "Point",
        "coordinates": [
          -60.883,
          -35.444
        ]
      }
    },
    {
      "type": "Feature",
      "properties": {
        "cliente": "Cooperativa de Tamberos La Tordilla Ltda",
        "direccion": "Av. Libertador 1580",
        "telefono": "'+54 9 3576 52-6501",
        "email": "administracion@cooptordilla.com.ar",
        "maquinas": "CLAAS Jaguar 940, New Holland FR 600, New Holland FR 600",
        "cantidad": "3",
        "crm": "SI"
      },
      "geometry": {
        "type": "Point",
        "coordinates": [
          -62.883,
          -31.233
        ]
      }
    },
    {
      "type": "Feature",
      "properties": {
        "cliente": "Cooperativa Ltda. Union Villa Ana",
        "direccion": "Av. San Martin 193",
        "telefono": "'+54 9 3491 58-0225",
        "email": "coop@unionvillaana.com.ar",
        "maquinas": "CLAAS Jaguar 940, CLAAS Jaguar 940, JOHN DEERE 8600",
        "cantidad": "3",
        "crm": "NO"
      },
      "geometry": {
        "type": "Point",
        "coordinates": [
          -61.87,
          -30.214
        ]
      }
    },
    {
      "type": "Feature",
      "properties": {
        "cliente": "Dipaema SA",
        "direccion": "Catamarca 1696",
        "telefono": "'+54 9 353 414-1574",
        "email": "pablodestefanis@hotmail.com",
        "maquinas": "JOHN DEERE 8500i, JOHN DEERE 8500i, JOHN DEERE 8500i",
        "cantidad": "3",
        "crm": "NO"
      },
      "geometry": {
        "type": "Point",
        "coordinates": [
          -63.241,
          -32.407
        ]
      }
    },
    {
      "type": "Feature",
      "properties": {
        "cliente": "El Bepo SAS",
        "direccion": "Malvinas Argentinas 1964",
        "telefono": "'+54 9 353 419-1793",
        "email": "mariojosero@gmail.com",
        "maquinas": "CLAAS 930, New Holland FR600, New Holland FR 600",
        "cantidad": "3",
        "crm": "SI"
      },
      "geometry": {
        "type": "Point",
        "coordinates": [
          -63.241,
          -32.407
        ]
      }
    },
    {
      "type": "Feature",
      "properties": {
        "cliente": "ForCeres SRL",
        "direccion": "Mosconi 2274",
        "telefono": "'+54 9 249 435-0861",
        "email": "info@forceres.com.ar",
        "maquinas": "CLAAS Jaguar 950, CLAAS Jaguar 950, CLAAS Jaguar 950",
        "cantidad": "3",
        "crm": "NO"
      },
      "geometry": {
        "type": "Point",
        "coordinates": [
          -59.133,
          -37.321
        ]
      }
    },
    {
      "type": "Feature",
      "properties": {
        "cliente": "Los Pinos SRL",
        "direccion": "Garcia Montaño 234",
        "telefono": "'+54 9 353 657-4004",
        "email": "administración@lospinossrl.com.ar",
        "maquinas": "JOHN DEERE 8500i, JOHN DEERE 8500i, JOHN DEERE 8500i",
        "cantidad": "3",
        "crm": "SI"
      },
      "geometry": {
        "type": "Point",
        "coordinates": [
          -63.03,
          -32.1
        ]
      }
    },
    {
      "type": "Feature",
      "properties": {
        "cliente": "Lucas Gahan",
        "direccion": "Poderoso 943",
        "telefono": "'+54 9 249 455-8824",
        "email": "lucasgahan@hotmail.com",
        "maquinas": "JOHN DEERE 8600i, JOHN DEERE 8600i, JOHN DEERE 8500i",
        "cantidad": "3",
        "crm": "SI"
      },
      "geometry": {
        "type": "Point",
        "coordinates": [
          -58.487,
          -37.151
        ]
      }
    },
    {
      "type": "Feature",
      "properties": {
        "cliente": "MEJES MICHEO S.R.L",
        "direccion": "Villegas 777",
        "telefono": "'+54 9 2392 52-1445",
        "email": "escritorioem97@gmail.com",
        "maquinas": "CLAAS Jguar 960, CLAAS Jaguar 950, CLAAS 980",
        "cantidad": "3",
        "crm": "NO"
      },
      "geometry": {
        "type": "Point",
        "coordinates": [
          -62.734,
          -35.973
        ]
      }
    },
    {
      "type": "Feature",
      "properties": {
        "cliente": "Silajes La Esperanza",
        "direccion": "Pte Perón  253",
        "telefono": "'+54 9 353 411-4448",
        "email": "nasarenobailone@hotmail.com",
        "maquinas": "CLAAS Jaguar 890, CLAAS Jaguar 940, CLAAS Jaguar 980",
        "cantidad": "3",
        "crm": "NO"
      },
      "geometry": {
        "type": "Point",
        "coordinates": [
          -63.029,
          -32.543
        ]
      }
    },
    {
      "type": "Feature",
      "properties": {
        "cliente": "Agro Silajes",
        "direccion": "Ruta 2, km 122",
        "telefono": "'+54 9 2241 53-0280",
        "email": "agrosilajes@hotmail.com.ar",
        "maquinas": "CLAAS Jaguar 960, CLAAS Jaguar 900",
        "cantidad": "2",
        "crm": "NO"
      },
      "geometry": {
        "type": "Point",
        "coordinates": [
          -58.008,
          -35.572
        ]
      }
    },
    {
      "type": "Feature",
      "properties": {
        "cliente": "Agropecuaria Santa Ines SRL",
        "direccion": "Sarmiento 1036",
        "telefono": "'+54 9 3404 51-6215",
        "email": "matias@santaines.com",
        "maquinas": "CLAAS Jaguar 950, CLAAS Jaguar 870",
        "cantidad": "2",
        "crm": "SI"
      },
      "geometry": {
        "type": "Point",
        "coordinates": [
          -60.983,
          -31.683
        ]
      }
    },
    {
      "type": "Feature",
      "properties": {
        "cliente": "Agropecuaria Silvio Pellico SRL",
        "direccion": "Zona Rural",
        "telefono": "'+54 9 353 569-0666",
        "email": "ensiladoscordero@hotmail.com",
        "maquinas": "CLAAS Jaguar 950, CLAAS Jaguar 950",
        "cantidad": "2",
        "crm": "NO"
      },
      "geometry": {
        "type": "Point",
        "coordinates": [
          -62.991,
          -32.109
        ]
      }
    },
    {
      "type": "Feature",
      "properties": {
        "cliente": "Agroservicios Don Raúl SRL",
        "direccion": "25 de Mayo 421",
        "telefono": "'+54 9 3404 51-2747",
        "email": "fernandorey@live.com.ar",
        "maquinas": "New Holland FR600, New Holland FR600",
        "cantidad": "2",
        "crm": "SI"
      },
      "geometry": {
        "type": "Point",
        "coordinates": [
          -61.071,
          -31.675
        ]
      }
    },
    {
      "type": "Feature",
      "properties": {
        "cliente": "Agrotecnica Necochea SA",
        "direccion": "Av 79 Nº 237 Piso 2, depto A",
        "telefono": "'+54 9 2262 63-5038",
        "email": "agrotecnicanecochea@gmail.com",
        "maquinas": "CLAAS Jaguar 950, JOHN DEERE 8500",
        "cantidad": "2",
        "crm": "NO"
      },
      "geometry": {
        "type": "Point",
        "coordinates": [
          -58.739,
          -38.554
        ]
      }
    },
    {
      "type": "Feature",
      "properties": {
        "cliente": "Alejandro Bainotti",
        "direccion": "Ruta 7 km 156,5",
        "telefono": "'+54 9 2273 41-7346",
        "email": "a.bainottisilajes@hotmail.com",
        "maquinas": "CLAAS Jaguar 960, CLAAS Jaguar 960",
        "cantidad": "2",
        "crm": "SI"
      },
      "geometry": {
        "type": "Point",
        "coordinates": [
          -59.377,
          -34.471
        ]
      }
    },
    {
      "type": "Feature",
      "properties": {
        "cliente": "Arredug Servicios Agropecuarios SRL",
        "direccion": "Av. Vieyetes 726",
        "telefono": "'+54 9 2325 65-7085",
        "email": "elceibosilajes@gmail.com",
        "maquinas": "CLAAS Jaguar 950, CLAAS Jaguar 960",
        "cantidad": "2",
        "crm": "NO"
      },
      "geometry": {
        "type": "Point",
        "coordinates": [
          -59.474,
          -34.255
        ]
      }
    },
    {
      "type": "Feature",
      "properties": {
        "cliente": "Brescam Transportes SA",
        "direccion": "Rivadavia 580",
        "telefono": "'+54 9 3582 43-1177",
        "email": "emanuelbressan86@gmail.com",
        "maquinas": "CLAAS Jaguar 950, CLAAS Jaguar 950",
        "cantidad": "2",
        "crm": "SI"
      },
      "geometry": {
        "type": "Point",
        "coordinates": [
          -64.722,
          -33.385
        ]
      }
    },
    {
      "type": "Feature",
      "properties": {
        "cliente": "Cappucci Picado de Forrajes",
        "direccion": "Ferroviarios 23",
        "telefono": "'+54 9 2324 58-0698",
        "email": "silajecappucci@hotmail.com",
        "maquinas": "CLAAS 950, CLAAS 940",
        "cantidad": "2",
        "crm": "NO"
      },
      "geometry": {
        "type": "Point",
        "coordinates": [
          -59.689,
          -34.773
        ]
      }
    },
    {
      "type": "Feature",
      "properties": {
        "cliente": "Cappucci Silajes",
        "direccion": "H.Yrigoyen 44",
        "telefono": "'+54 9 2324 64-8624",
        "email": "negrocappucci@hotmail.com",
        "maquinas": "CLAAS Jaguar 950, CLAAS Jaguar 960",
        "cantidad": "2",
        "crm": "NO"
      },
      "geometry": {
        "type": "Point",
        "coordinates": [
          -59.689,
          -34.773
        ]
      }
    },
    {
      "type": "Feature",
      "properties": {
        "cliente": "Chapado Silajes SA",
        "direccion": "Europa 573",
        "telefono": "'+54 9 3388 45-9851",
        "email": "info@chapadosilajes.com",
        "maquinas": "JOHN DEERE 7450, New Holland FR 780",
        "cantidad": "2",
        "crm": "NO"
      },
      "geometry": {
        "type": "Point",
        "coordinates": [
          -63.745,
          -34.695
        ]
      }
    },
    {
      "type": "Feature",
      "properties": {
        "cliente": "Cooperativa Agropecuaria Limitada de Balnearia",
        "direccion": "Tristán Cornejo 200",
        "telefono": "'+54 9 3563 402679",
        "email": "coop052balnearia@redcoop.com.ar",
        "maquinas": "JOHN DEERE 8600, JOHN DEERE 8500i",
        "cantidad": "2",
        "crm": "NO"
      },
      "geometry": {
        "type": "Point",
        "coordinates": [
          -62.667,
          -30.864
        ]
      }
    },
    {
      "type": "Feature",
      "properties": {
        "cliente": "Cooperativa Limitada Agropecuaria Las dos provincias",
        "direccion": "Corrientes S/N",
        "telefono": "'+54 9 3562-439756",
        "email": "gerencia@lasdosprovincias.com.ar",
        "maquinas": "CLAAS Jaguar 940, CLAAS Jaguar 940",
        "cantidad": "2",
        "crm": "NO"
      },
      "geometry": {
        "type": "Point",
        "coordinates": [
          -61.933,
          -30.846
        ]
      }
    },
    {
      "type": "Feature",
      "properties": {
        "cliente": "Daniel Adrian Unrein",
        "direccion": "Urquiza 470",
        "telefono": "'+54 9 3564 62-6992",
        "email": "patitaunrein@hotmail.com",
        "maquinas": "CLAAS Jaguar 960, CLAAS Jaguar 960",
        "cantidad": "2",
        "crm": "NO"
      },
      "geometry": {
        "type": "Point",
        "coordinates": [
          -61.207,
          -31.553
        ]
      }
    },
    {
      "type": "Feature",
      "properties": {
        "cliente": "Del Litoral Forrajes SH",
        "direccion": "25 de Mayo 609",
        "telefono": "'+54 9 3401 64-4237",
        "email": "banchios@hotmail.com",
        "maquinas": "New Holland FR 650, New Holland FR 650",
        "cantidad": "2",
        "crm": "SI"
      },
      "geometry": {
        "type": "Point",
        "coordinates": [
          -61.602,
          -32.051
        ]
      }
    },
    {
      "type": "Feature",
      "properties": {
        "cliente": "Don Alfredo SRL",
        "direccion": "Leandro N. Alem 145",
        "telefono": "'+54 9 353 569-3293",
        "email": "lucaslovay@hotmail.com",
        "maquinas": "CLAAS 890, JOHN DEERE 7550",
        "cantidad": "2",
        "crm": "SI"
      },
      "geometry": {
        "type": "Point",
        "coordinates": [
          -63.506,
          -33.032
        ]
      }
    },
    {
      "type": "Feature",
      "properties": {
        "cliente": "Don Valentin SA",
        "direccion": "Ramón Cuerdo 506",
        "telefono": "'+54 9 3492 58-1289",
        "email": "oficina@toldoagroservicios.com.ar",
        "maquinas": "CLAAS Jaguar 940, JOHN DEERE 8500i",
        "cantidad": "2",
        "crm": "NO"
      },
      "geometry": {
        "type": "Point",
        "coordinates": [
          -61.645,
          -30.84
        ]
      }
    },
    {
      "type": "Feature",
      "properties": {
        "cliente": "El Jacarandá SA",
        "direccion": "Alberdi 811",
        "telefono": "'+54 9 3404 59-6395",
        "email": "fedesonego@hotmail.com",
        "maquinas": "CLAAS 940, CLAAS 960",
        "cantidad": "2",
        "crm": "NO"
      },
      "geometry": {
        "type": "Point",
        "coordinates": [
          -61.401,
          -32.135
        ]
      }
    },
    {
      "type": "Feature",
      "properties": {
        "cliente": "El Pasto SA",
        "direccion": "Monteverde 70",
        "telefono": "'+54 9 2392 40-4476",
        "email": "casantin58@hotmail.com",
        "maquinas": "CLAAS 960, CLAAS 950",
        "cantidad": "2",
        "crm": "NO"
      },
      "geometry": {
        "type": "Point",
        "coordinates": [
          -63.567,
          -36.459
        ]
      }
    },
    {
      "type": "Feature",
      "properties": {
        "cliente": "El Prado SA",
        "direccion": "Constitución S/N",
        "telefono": "'+54 9 3491 43-7631",
        "email": "elprado@vtcc.com.ar",
        "maquinas": "CLAAS Jaguar 960, JOHN DEERE 8600",
        "cantidad": "2",
        "crm": "NO"
      },
      "geometry": {
        "type": "Point",
        "coordinates": [
          -61.87,
          -30.214
        ]
      }
    },
    {
      "type": "Feature",
      "properties": {
        "cliente": "Enrici Servicios Agropecuarios",
        "direccion": "Moreno 50",
        "telefono": "'+54 9 3493 66-2066",
        "email": "enriciserviciosagropecuarios@hotmail.com.ar",
        "maquinas": "JOHN DEERE 8400, JOHN DEERE 8600",
        "cantidad": "2",
        "crm": "NO"
      },
      "geometry": {
        "type": "Point",
        "coordinates": [
          -61.421,
          -30.999
        ]
      }
    },
    {
      "type": "Feature",
      "properties": {
        "cliente": "Fass Agroservicios",
        "direccion": "Colonia La Llave",
        "telefono": "'+54 9 3435 61-1363",
        "email": "fassagroservicios@hotmail.com",
        "maquinas": "CLAAS Jaguar 960, CLAAS Jaguar 950",
        "cantidad": "2",
        "crm": "NO"
      },
      "geometry": {
        "type": "Point",
        "coordinates": [
          -59.53,
          -32.385
        ]
      }
    },
    {
      "type": "Feature",
      "properties": {
        "cliente": "Feed Green SA",
        "direccion": "L.N.Alem 508 1° \"A\"",
        "telefono": "'+54 9 2396 54-8758",
        "email": "carlosmalaspina@feedgreen.com.ar",
        "maquinas": "CLAAS Jaguar 960, CLAAS Jaguar 960",
        "cantidad": "2",
        "crm": "NO"
      },
      "geometry": {
        "type": "Point",
        "coordinates": [
          -61.899,
          -35.814
        ]
      }
    },
    {
      "type": "Feature",
      "properties": {
        "cliente": "Forrajes del Sur SA",
        "direccion": "Tucuman 596",
        "telefono": "'+54 9 2302 53-7322",
        "email": "eduardolopez@huincacoop.com.ar",
        "maquinas": "CLAAS Jaguar 840, New Holland FR 600",
        "cantidad": "2",
        "crm": "SI"
      },
      "geometry": {
        "type": "Point",
        "coordinates": [
          -64.374,
          -34.841
        ]
      }
    },
    {
      "type": "Feature",
      "properties": {
        "cliente": "Forrajes SA",
        "direccion": "Casilla de correo 32",
        "telefono": "'+54 9 11 5010-7552",
        "email": "facundosauton@forrajessa.com.ar",
        "maquinas": "CLAAS Jaguar 960, CLAAS Jaguar 960",
        "cantidad": "2",
        "crm": "NO"
      },
      "geometry": {
        "type": "Point",
        "coordinates": [
          -59.309,
          -33.142
        ]
      }
    },
    {
      "type": "Feature",
      "properties": {
        "cliente": "Grupo Picadora Progreso SA",
        "direccion": "Calle pública S/N",
        "telefono": "'+54 9 3496 54-7903",
        "email": "grupopicadora@yahoo.com.ar",
        "maquinas": "CLAAS Jaguar 960, New Holland FR 600",
        "cantidad": "2",
        "crm": "SI"
      },
      "geometry": {
        "type": "Point",
        "coordinates": [
          -61.315,
          -31.16
        ]
      }
    },
    {
      "type": "Feature",
      "properties": {
        "cliente": "Ing. Quiroga SA",
        "direccion": "Parra 351",
        "telefono": "'+54 9 3388 67-2744",
        "email": "ingenieroquirogasa@gmail.com",
        "maquinas": "CLAAS Jaguar 960, CLAAS Jaguar 960",
        "cantidad": "2",
        "crm": "NO"
      },
      "geometry": {
        "type": "Point",
        "coordinates": [
          -63.015,
          -35.031
        ]
      }
    },
    {
      "type": "Feature",
      "properties": {
        "cliente": "La Baya Silajes SA",
        "direccion": "Planta Urbana Bayauca",
        "telefono": "'+54 9 2355 46-3394",
        "email": "info@labayasilajes.com.ar",
        "maquinas": "CLAAS Jaguar 950, CLAAS Jaguar 950",
        "cantidad": "2",
        "crm": "NO"
      },
      "geometry": {
        "type": "Point",
        "coordinates": [
          -61.53,
          -34.866
        ]
      }
    },
    {
      "type": "Feature",
      "properties": {
        "cliente": "Las Colonias",
        "direccion": "Mingura 657",
        "telefono": "'+54 9 3404 40-9634",
        "email": "valeriacarabelli@hotmail.com",
        "maquinas": "CLAAS Jaguar 940, CLAAS Jaguar 890",
        "cantidad": "2",
        "crm": "NO"
      },
      "geometry": {
        "type": "Point",
        "coordinates": [
          -60.997,
          -31.763
        ]
      }
    },
    {
      "type": "Feature",
      "properties": {
        "cliente": "Lopez Seco SA",
        "direccion": "Alberti 551",
        "telefono": "'+54 9 2223 46-4583",
        "email": "lopezsecosa@scdplanet.com.ar",
        "maquinas": "CLAAS Jaguar 950, CLAAS Jaguar 950",
        "cantidad": "2",
        "crm": "NO"
      },
      "geometry": {
        "type": "Point",
        "coordinates": [
          -58.23,
          -35.168
        ]
      }
    },
    {
      "type": "Feature",
      "properties": {
        "cliente": "Los Diez SA",
        "direccion": "B. Rivadavia 33",
        "telefono": "'+54 9 3491 58-7403",
        "email": "mgflesia@yahoo.com.ar",
        "maquinas": "JOHN DEERE 8400, JOHN DEERE 8400",
        "cantidad": "2",
        "crm": "NO"
      },
      "geometry": {
        "type": "Point",
        "coordinates": [
          -61.946,
          -29.881
        ]
      }
    },
    {
      "type": "Feature",
      "properties": {
        "cliente": "Luna Rubén Alejandro",
        "direccion": "Bv. Bulgheroni 1381",
        "telefono": "'+54 9 352 5644951",
        "email": "rubenluna.adm@hotmail.com",
        "maquinas": "JOHN DEERE 8500i, JOHN DEERE 8600",
        "cantidad": "2",
        "crm": "SI"
      },
      "geometry": {
        "type": "Point",
        "coordinates": [
          -64.094,
          -30.981
        ]
      }
    },
    {
      "type": "Feature",
      "properties": {
        "cliente": "M3 SRL",
        "direccion": "Agustin P. Justo 671",
        "telefono": "'+54 9 3777 41-2079",
        "email": "m3srl@hotmail.com",
        "maquinas": "CLAAS Jaguar 960, CLAAS Jaguar 960",
        "cantidad": "2",
        "crm": "NO"
      },
      "geometry": {
        "type": "Point",
        "coordinates": [
          -59.26,
          -29.14
        ]
      }
    },
    {
      "type": "Feature",
      "properties": {
        "cliente": "Mediterranea Forrajes SRL",
        "direccion": "Alamos 159",
        "telefono": "'+54 9 3563 49-1949",
        "email": "mediterranea@redcoop.com.ar",
        "maquinas": "CLAAS Jaguar 960, JOHN DEERE 8400",
        "cantidad": "2",
        "crm": "SI"
      },
      "geometry": {
        "type": "Point",
        "coordinates": [
          -62.667,
          -30.864
        ]
      }
    },
    {
      "type": "Feature",
      "properties": {
        "cliente": "Nazareno Taus",
        "direccion": "Independencia 463",
        "telefono": "'+54 9 2241 54-7575",
        "email": "agroserviciosnaza@gmail.com",
        "maquinas": "CLAAS 950, CLAAS 950",
        "cantidad": "2",
        "crm": "NO"
      },
      "geometry": {
        "type": "Point",
        "coordinates": [
          -57.884,
          -35.868
        ]
      }
    },
    {
      "type": "Feature",
      "properties": {
        "cliente": "Nuevas Siembras de Lincoln SA",
        "direccion": "Av. Massey 138",
        "telefono": "'+54 9 2355 64-6187",
        "email": "tesoreria@danosilajes.com",
        "maquinas": "CLAAS Jaguar 980, CLAAS Jaguar 960",
        "cantidad": "2",
        "crm": "NO"
      },
      "geometry": {
        "type": "Point",
        "coordinates": [
          -61.53,
          -34.866
        ]
      }
    },
    {
      "type": "Feature",
      "properties": {
        "cliente": "Otac Servicios Agropecuarios SA",
        "direccion": "Presidente Arturo Illia 88",
        "telefono": "'+54 9 2395 42-2925",
        "email": "otac@serviciodepicado.com.ar",
        "maquinas": "CLAAS Jaguar 930, CLAAS Jaguar 930",
        "cantidad": "2",
        "crm": "NO"
      },
      "geometry": {
        "type": "Point",
        "coordinates": [
          -61.365,
          -35.623
        ]
      }
    },
    {
      "type": "Feature",
      "properties": {
        "cliente": "Piacenza Nelson Danilo",
        "direccion": "Mitre 554",
        "telefono": "'+54 9 343 611-2209",
        "email": "nlorecarp@gmail.com",
        "maquinas": "CLAAS 980, CLAAS 900",
        "cantidad": "2",
        "crm": "SI"
      },
      "geometry": {
        "type": "Point",
        "coordinates": [
          -60.433,
          -31.583
        ]
      }
    },
    {
      "type": "Feature",
      "properties": {
        "cliente": "PIC.AR SA",
        "direccion": "Alvarado 137",
        "telefono": "'+54 9 2395 40-7724",
        "email": "Picotto_3@hotmail.com",
        "maquinas": "CLAAS 950, CLAAS 870",
        "cantidad": "2",
        "crm": "NO"
      },
      "geometry": {
        "type": "Point",
        "coordinates": [
          -61.365,
          -35.623
        ]
      }
    },
    {
      "type": "Feature",
      "properties": {
        "cliente": "Picados La Verde SA",
        "direccion": "San Lorenzo 371",
        "telefono": "'+54 9 3532 67-9902",
        "email": "ahserangeli@arnet.com.ar",
        "maquinas": "CLAAS 870, JOHN DEERE 8500i",
        "cantidad": "2",
        "crm": "NO"
      },
      "geometry": {
        "type": "Point",
        "coordinates": [
          -63.569,
          -32.042
        ]
      }
    },
    {
      "type": "Feature",
      "properties": {
        "cliente": "Poncho Verde Noetinger SAS",
        "direccion": "Julian Araus 158",
        "telefono": "'+54 9 351 620-5137",
        "email": "ponchoverdesilajes@gmail.com",
        "maquinas": "CLAAS Jaguar 950, CLAAS Jaguar 960",
        "cantidad": "2",
        "crm": "NO"
      },
      "geometry": {
        "type": "Point",
        "coordinates": [
          -62.312,
          -32.367
        ]
      }
    },
    {
      "type": "Feature",
      "properties": {
        "cliente": "Roberto Lazaro",
        "direccion": "Sarmiento 622",
        "telefono": "'+54 9 2926 40-0199",
        "email": "silajesbenjamin@yahoo.com.ar",
        "maquinas": "CLAAS Jaguar 950, CLAAS Jaguar 950",
        "cantidad": "2",
        "crm": "NO"
      },
      "geometry": {
        "type": "Point",
        "coordinates": [
          -61.933,
          -37.454
        ]
      }
    },
    {
      "type": "Feature",
      "properties": {
        "cliente": "Sergio D. Y Sebastián R. Clausen S.H.",
        "direccion": "Catalina Blatter 450",
        "telefono": "'+54 9 3404 63-5996",
        "email": "agrosilossjn@gmail.com",
        "maquinas": "CLAAS Jaguar 930, CLAAS Jaguar 850",
        "cantidad": "2",
        "crm": "SI"
      },
      "geometry": {
        "type": "Point",
        "coordinates": [
          -61.088,
          -31.548
        ]
      }
    },
    {
      "type": "Feature",
      "properties": {
        "cliente": "ServiAgro",
        "direccion": "Paraná 100",
        "telefono": "'+54 9 3533 68-6024",
        "email": "administracion@serviagro.com.ar",
        "maquinas": "CLAAS Jaguar 960, CLAAS Jaguar 960",
        "cantidad": "2",
        "crm": "NO"
      },
      "geometry": {
        "type": "Point",
        "coordinates": [
          -62.719,
          -31.873
        ]
      }
    },
    {
      "type": "Feature",
      "properties": {
        "cliente": "Silajes Areco SA",
        "direccion": "Fitte 826",
        "telefono": "'+54 9 2325 65-8102",
        "email": "bouquet.jorge@gmail.com",
        "maquinas": "CLAAS Jaguar 950, CLAAS Jaguar 940",
        "cantidad": "2",
        "crm": "NO"
      },
      "geometry": {
        "type": "Point",
        "coordinates": [
          -59.474,
          -34.255
        ]
      }
    },
    {
      "type": "Feature",
      "properties": {
        "cliente": "Silajes La Promesa SA",
        "direccion": "Mozotegui 265",
        "telefono": "'+54 9 2226 52-0660",
        "email": "silajeslapromesa@hotmail.com",
        "maquinas": "CLAAS Jaguar 960, CLAAS Jaguar 890",
        "cantidad": "2",
        "crm": "SI"
      },
      "geometry": {
        "type": "Point",
        "coordinates": [
          -58.762,
          -35.052
        ]
      }
    },
    {
      "type": "Feature",
      "properties": {
        "cliente": "Sivori Silajes SRL",
        "direccion": "Entre Acceso Rawson y Bme. Mitre",
        "telefono": "'+54 9 2325 68-8970",
        "email": "sivorisilajes@hotmail.com",
        "maquinas": "CLAAS 950, Class 950",
        "cantidad": "2",
        "crm": "NO"
      },
      "geometry": {
        "type": "Point",
        "coordinates": [
          -59.827,
          -34.377
        ]
      }
    },
    {
      "type": "Feature",
      "properties": {
        "cliente": "Tamesar Silajes SA",
        "direccion": "Acceso Ruta 76",
        "telefono": "'+54 9 2923 50-3470",
        "email": "tamesarsilajes@gmail.com",
        "maquinas": "CLAAS Jaguar 940, CLAAS Jaguar 950",
        "cantidad": "2",
        "crm": "SI"
      },
      "geometry": {
        "type": "Point",
        "coordinates": [
          -63.158,
          -37.679
        ]
      }
    },
    {
      "type": "Feature",
      "properties": {
        "cliente": "The Friendship SA",
        "direccion": "Calle 21 Nº 76",
        "telefono": "'+54 9 2272 40-0381",
        "email": "marcos_dosanto@hotmail.com",
        "maquinas": "JOHN DEERE 7350, JOHN DEERE 8500i",
        "cantidad": "2",
        "crm": "SI"
      },
      "geometry": {
        "type": "Point",
        "coordinates": [
          -59.277,
          -35.024
        ]
      }
    },
    {
      "type": "Feature",
      "properties": {
        "cliente": "Valle de Choia SRL",
        "direccion": "San Martín 360",
        "telefono": "'+54 9 3533 43-4859",
        "email": "diarsrl2010@gmail.com",
        "maquinas": "CLAAS Jaguar 960, CLAAS 950",
        "cantidad": "2",
        "crm": "NO"
      },
      "geometry": {
        "type": "Point",
        "coordinates": [
          -62.483,
          -31.703
        ]
      }
    },
    {
      "type": "Feature",
      "properties": {
        "cliente": "Visconti Hermanos SA",
        "direccion": "Bv. Córdoba Esq. Entre Rios",
        "telefono": "'+54 9 3576 47-4247",
        "email": "info@viscontisa.com.ar",
        "maquinas": "JOHN DEERE 7350, JOHN DEERE 8500",
        "cantidad": "2",
        "crm": "SI"
      },
      "geometry": {
        "type": "Point",
        "coordinates": [
          -62.813,
          -31.324
        ]
      }
    },
    {
      "type": "Feature",
      "properties": {
        "cliente": "Zabalegui Hnos SH",
        "direccion": "San Martín 153",
        "telefono": "'+54 9 2355 57-0222",
        "email": "mariozabalegui@gmail.com",
        "maquinas": "JOHN DEERE , JOHN DEERE ",
        "cantidad": "2",
        "crm": "NO"
      },
      "geometry": {
        "type": "Point",
        "coordinates": [
          -62.417,
          -34.303
        ]
      }
    },
    {
      "type": "Feature",
      "properties": {
        "cliente": "ADA Silajes SA",
        "direccion": "Urquiza 445",
        "telefono": "'+54 9 3562 44-3446",
        "email": "agrounionsrl@hotmail.com",
        "maquinas": "CLAAS Jaguar 940",
        "cantidad": "1",
        "crm": "SI"
      },
      "geometry": {
        "type": "Point",
        "coordinates": [
          -61.917,
          -30.359
        ]
      }
    },
    {
      "type": "Feature",
      "properties": {
        "cliente": "AGRO 3.0 SA",
        "direccion": "Zona Rural SN Ruta E79 Km 26",
        "telefono": "'+54 9 3572 53-3109",
        "email": "hugo_cofa@hotmail.com; admagro3punto0@gmail.com",
        "maquinas": "CLAAS Jaguar 960",
        "cantidad": "1",
        "crm": "NO"
      },
      "geometry": {
        "type": "Point",
        "coordinates": [
          -63.125,
          -32.111
        ]
      }
    },
    {
      "type": "Feature",
      "properties": {
        "cliente": "Agro Dap SRL",
        "direccion": "12 de Octubre 1995",
        "telefono": "'+54 9 3462 59-5920",
        "email": "carlos.gutierrez@agrodap.com",
        "maquinas": "JOHN DEERE 7450",
        "cantidad": "1",
        "crm": "SI"
      },
      "geometry": {
        "type": "Point",
        "coordinates": [
          -61.969,
          -33.745
        ]
      }
    },
    {
      "type": "Feature",
      "properties": {
        "cliente": "Agro Ganadera Anchustegui SA",
        "direccion": "España 230",
        "telefono": "'+54 9 3385 44-4604",
        "email": "m-anchustegui@hotmail.com",
        "maquinas": "JOHN DEERE 8500",
        "cantidad": "1",
        "crm": "NO"
      },
      "geometry": {
        "type": "Point",
        "coordinates": [
          -63.537,
          -34.468
        ]
      }
    },
    {
      "type": "Feature",
      "properties": {
        "cliente": "Agro Gusmerini",
        "direccion": "Av. Flandes 430",
        "telefono": "'+54 9 2323 61-3688",
        "email": "agrogusmerini@gmail.com",
        "maquinas": "CLAAS Jaguar 960",
        "cantidad": "1",
        "crm": "NO"
      },
      "geometry": {
        "type": "Point",
        "coordinates": [
          -59.105,
          -34.57
        ]
      }
    },
    {
      "type": "Feature",
      "properties": {
        "cliente": "Agro Los Horneros SRL",
        "direccion": "Avellaneda 147",
        "telefono": "'+54 9 3585 49-5189",
        "email": "mensad@amaria.com.ar",
        "maquinas": "JOHN DEERE 8600",
        "cantidad": "1",
        "crm": "SI"
      },
      "geometry": {
        "type": "Point",
        "coordinates": [
          -64.02,
          -33.631
        ]
      }
    },
    {
      "type": "Feature",
      "properties": {
        "cliente": "Agrodirecto de Sinsacate SRL",
        "direccion": "Ruta Nacional 9 Km 757",
        "telefono": "'+54 9 3525 52-5252",
        "email": "tazzioli@agrodirectosrl.com.ar",
        "maquinas": "CLAAS 940",
        "cantidad": "1",
        "crm": "NO"
      },
      "geometry": {
        "type": "Point",
        "coordinates": [
          -64.083,
          -30.95
        ]
      }
    },
    {
      "type": "Feature",
      "properties": {
        "cliente": "Agropecuaria JB SA",
        "direccion": "Rivadavia 173",
        "telefono": "'+54 9 2923 42-5629",
        "email": "agroserviciosdonernesto@yahoo.es",
        "maquinas": "CLAAS 960",
        "cantidad": "1",
        "crm": "NO"
      },
      "geometry": {
        "type": "Point",
        "coordinates": [
          -63.237,
          -37.153
        ]
      }
    },
    {
      "type": "Feature",
      "properties": {
        "cliente": "Agropicado Lobos SRL",
        "direccion": "Manuel Caminos 185",
        "telefono": "'+54 9 2227 55-2743",
        "email": "agropicadolobos@infovia.com.ar",
        "maquinas": "Class 960",
        "cantidad": "1",
        "crm": "SI"
      },
      "geometry": {
        "type": "Point",
        "coordinates": [
          -59.094,
          -35.186
        ]
      }
    },
    {
      "type": "Feature",
      "properties": {
        "cliente": "Agroservicios del Este SRL",
        "direccion": "Calle 68 N° 1582 - 1900  La Plata  Buenos Aires",
        "telefono": "'+54 9 2241 53-0421",
        "email": "juancfuse@gmail.com",
        "maquinas": "CLAAS 870",
        "cantidad": "1",
        "crm": "NO"
      },
      "geometry": {
        "type": "Point",
        "coordinates": [
          -57.968,
          -35.145
        ]
      }
    },
    {
      "type": "Feature",
      "properties": {
        "cliente": "Agrosilos Patalagoity SA",
        "direccion": "Calle Juan XXIII  Nº 109",
        "telefono": "'+54 9 2324 64-3636",
        "email": "martin@silajespatalagoity.com.ar",
        "maquinas": "CLAAS Jaguar 960",
        "cantidad": "1",
        "crm": "NO"
      },
      "geometry": {
        "type": "Point",
        "coordinates": [
          -60.275,
          -34.745
        ]
      }
    },
    {
      "type": "Feature",
      "properties": {
        "cliente": "Agrototal Servicios Agropecuarios SRL",
        "direccion": "Av. R. Sáenz Peña 2929",
        "telefono": "'+54 9 3564 67-8100",
        "email": "hmatteucci@hotmail.com",
        "maquinas": "CLAAS 860",
        "cantidad": "1",
        "crm": "SI"
      },
      "geometry": {
        "type": "Point",
        "coordinates": [
          -62.083,
          -31.427
        ]
      }
    },
    {
      "type": "Feature",
      "properties": {
        "cliente": "AICOR",
        "direccion": "Saavedra 158",
        "telefono": "'+54 9 2923 64-2435",
        "email": "marcio@aisemberg.com",
        "maquinas": "New Holland FR 600",
        "cantidad": "1",
        "crm": "NO"
      },
      "geometry": {
        "type": "Point",
        "coordinates": [
          -63.237,
          -37.153
        ]
      }
    },
    {
      "type": "Feature",
      "properties": {
        "cliente": "Angel Genjo SRL",
        "direccion": "Rivadavia 157",
        "telefono": "'+54 9 2392 51-4790",
        "email": "angelgenjo@yahoo.com.ar",
        "maquinas": "CLAAS Jaguar 960",
        "cantidad": "1",
        "crm": "NO"
      },
      "geometry": {
        "type": "Point",
        "coordinates": [
          -63.39,
          -36.751
        ]
      }
    },
    {
      "type": "Feature",
      "properties": {
        "cliente": "Arina Santiago",
        "direccion": "Silverio Almiro 315",
        "telefono": "'+54 9 3388 46-6340",
        "email": "Santi_arina@yahoo.com.ar",
        "maquinas": "CLAAS Jaguar 940",
        "cantidad": "1",
        "crm": "NO"
      },
      "geometry": {
        "type": "Point",
        "coordinates": [
          -62.417,
          -34.303
        ]
      }
    },
    {
      "type": "Feature",
      "properties": {
        "cliente": "Arneodo Silajes",
        "direccion": "Cabrera 694",
        "telefono": "'+54 9 3582 64-9081",
        "email": "arneodosilajes@gmail.com",
        "maquinas": "CLAAS Jaguar 940",
        "cantidad": "1",
        "crm": "NO"
      },
      "geometry": {
        "type": "Point",
        "coordinates": [
          -64.597,
          -33.623
        ]
      }
    },
    {
      "type": "Feature",
      "properties": {
        "cliente": "ATP SA",
        "direccion": "Santa Fe 1417",
        "telefono": "'+54 9 3401 64-6159",
        "email": "atpsa@hotmail.com",
        "maquinas": "JOHN DEERE 8500",
        "cantidad": "1",
        "crm": "NO"
      },
      "geometry": {
        "type": "Point",
        "coordinates": [
          -61.412,
          -32.287
        ]
      }
    },
    {
      "type": "Feature",
      "properties": {
        "cliente": "BEEM Silajes SRL",
        "direccion": "Lavalle 77",
        "telefono": "'+54 9 3564 41-4448",
        "email": "silajesbeem@hotmail.com",
        "maquinas": "CLAAS Jaguar 950",
        "cantidad": "1",
        "crm": "NO"
      },
      "geometry": {
        "type": "Point",
        "coordinates": [
          -62.101,
          -31.165
        ]
      }
    },
    {
      "type": "Feature",
      "properties": {
        "cliente": "Berardo Franco",
        "direccion": "Moreno 370",
        "telefono": "'+54 9 358 654-1728",
        "email": "francoberardo@hotmail.com.ar",
        "maquinas": "CLAAS Jaguar 960",
        "cantidad": "1",
        "crm": "SI"
      },
      "geometry": {
        "type": "Point",
        "coordinates": [
          -64.315,
          -33.5
        ]
      }
    },
    {
      "type": "Feature",
      "properties": {
        "cliente": "Berpri SAS",
        "direccion": "Mendoza 145",
        "telefono": "'+54 9 353 569-6850",
        "email": "ceferinoberti@hotmail.com",
        "maquinas": "CLAAS Jaguar 950",
        "cantidad": "1",
        "crm": "NO"
      },
      "geometry": {
        "type": "Point",
        "coordinates": [
          -63.437,
          -32.692
        ]
      }
    },
    {
      "type": "Feature",
      "properties": {
        "cliente": "Brelis SRL",
        "direccion": "Casilla de Correo 12",
        "telefono": "'+54 9 343 621-1754",
        "email": "norbertb@brelis.com.ar",
        "maquinas": "CLAAS Jaguar 960",
        "cantidad": "1",
        "crm": "SI"
      },
      "geometry": {
        "type": "Point",
        "coordinates": [
          -60.011,
          -31.868
        ]
      }
    },
    {
      "type": "Feature",
      "properties": {
        "cliente": "Brunas Hermanos Agroservicios SRL",
        "direccion": "San José N°1426",
        "telefono": "'+54 9 3496 54-8267",
        "email": "marcelo-brunas@hotmail.com",
        "maquinas": "CLAAS Jaguar 960",
        "cantidad": "1",
        "crm": "SI"
      },
      "geometry": {
        "type": "Point",
        "coordinates": [
          -61.082,
          -31.427
        ]
      }
    },
    {
      "type": "Feature",
      "properties": {
        "cliente": "Coop. \"La Industrial Argentina\"",
        "direccion": "Av. San Martín 1059",
        "telefono": "'+54 9 3401 43-4600",
        "email": "martin.derico@coopcenteno.com.ar",
        "maquinas": "CLAAS Jaguar 950",
        "cantidad": "1",
        "crm": "NO"
      },
      "geometry": {
        "type": "Point",
        "coordinates": [
          -61.412,
          -32.287
        ]
      }
    },
    {
      "type": "Feature",
      "properties": {
        "cliente": "Cooperativa Ltda. \"Colonia Frias\"",
        "direccion": "Simon de Iriondo 502",
        "telefono": "'+54 9 3493 40-2697",
        "email": "coopfrias@gmail.com",
        "maquinas": "New Holland FR 600",
        "cantidad": "1",
        "crm": "NO"
      },
      "geometry": {
        "type": "Point",
        "coordinates": [
          -61.645,
          -30.84
        ]
      }
    },
    {
      "type": "Feature",
      "properties": {
        "cliente": "Don Andrés",
        "direccion": "Larrea 925",
        "telefono": "'+54 9 3582412964",
        "email": "renzoabressan@hotmail.com",
        "maquinas": "JOHN DEERE 7750",
        "cantidad": "1",
        "crm": "NO"
      },
      "geometry": {
        "type": "Point",
        "coordinates": [
          -64.722,
          -33.385
        ]
      }
    },
    {
      "type": "Feature",
      "properties": {
        "cliente": "Don Antonio SRL",
        "direccion": "Mitre 378",
        "telefono": "'+54 9 353 423-7384",
        "email": "donantoniovm@gmail.com",
        "maquinas": "CLAAS Jaguar 870",
        "cantidad": "1",
        "crm": "NO"
      },
      "geometry": {
        "type": "Point",
        "coordinates": [
          -63.241,
          -32.407
        ]
      }
    },
    {
      "type": "Feature",
      "properties": {
        "cliente": "Duggan Silajes SAS",
        "direccion": "Domingo F. Sarmiento 594",
        "telefono": "'+54 9 2326 42-0300",
        "email": "duggansilajes@gmail.com",
        "maquinas": "CLAAS Jaguar 950",
        "cantidad": "1",
        "crm": "NO"
      },
      "geometry": {
        "type": "Point",
        "coordinates": [
          -59.785,
          -34.167
        ]
      }
    },
    {
      "type": "Feature",
      "properties": {
        "cliente": "Duretti Miguel H.",
        "direccion": "Independencia 388",
        "telefono": "'+54 9 3533 40-8288",
        "email": "miguelduretti@gmail.com; durettidm@gmail.com",
        "maquinas": "CLAAS Jaguar 960",
        "cantidad": "1",
        "crm": "NO"
      },
      "geometry": {
        "type": "Point",
        "coordinates": [
          -63.047,
          -31.663
        ]
      }
    },
    {
      "type": "Feature",
      "properties": {
        "cliente": "El Buyico",
        "direccion": "Hipolito Yrigoyen 371",
        "telefono": "'+54 9 343 425-2567",
        "email": "adrianaudisio@gmail.com",
        "maquinas": "New Holland FR 600",
        "cantidad": "1",
        "crm": "NO"
      },
      "geometry": {
        "type": "Point",
        "coordinates": [
          -59.899,
          -31.665
        ]
      }
    },
    {
      "type": "Feature",
      "properties": {
        "cliente": "El Eucaliptus",
        "direccion": "Hipolito Irigoyen 371",
        "telefono": "'+54 9 342 548-5143",
        "email": "audisiojp@gmail.com",
        "maquinas": "CLAAS Jaguar 940",
        "cantidad": "1",
        "crm": "NO"
      },
      "geometry": {
        "type": "Point",
        "coordinates": [
          -59.899,
          -31.665
        ]
      }
    },
    {
      "type": "Feature",
      "properties": {
        "cliente": "El Mate de Ameghino SA",
        "direccion": "Calle 26 N°355",
        "telefono": "'+54 9 3388 67-8844",
        "email": "elmatedeameghino@gmail.com",
        "maquinas": "CLAAS Jaguar 940",
        "cantidad": "1",
        "crm": "SI"
      },
      "geometry": {
        "type": "Point",
        "coordinates": [
          -62.417,
          -34.303
        ]
      }
    },
    {
      "type": "Feature",
      "properties": {
        "cliente": "Ensilados BIACOT SRL",
        "direccion": "Calle 26 N° 105",
        "telefono": "'+54 9 2324 51-0541",
        "email": "guillermoacotto@gmail.com",
        "maquinas": "CLAAS Jaguar 940",
        "cantidad": "1",
        "crm": "NO"
      },
      "geometry": {
        "type": "Point",
        "coordinates": [
          -59.431,
          -34.651
        ]
      }
    },
    {
      "type": "Feature",
      "properties": {
        "cliente": "Fichetti Hnos SRL",
        "direccion": "Bv Mitre 1141",
        "telefono": "'+54 9 3533 43-4068",
        "email": "hfichetti@hotmail.com",
        "maquinas": "JOHN DEERE 8500i",
        "cantidad": "1",
        "crm": "SI"
      },
      "geometry": {
        "type": "Point",
        "coordinates": [
          -63.047,
          -31.663
        ]
      }
    },
    {
      "type": "Feature",
      "properties": {
        "cliente": "Fortaleza Serrana SRL",
        "direccion": "Rosales 1970",
        "telefono": "'+54 9 249 466-0433",
        "email": "serviciosagropecuariosserrano@hotmail.com",
        "maquinas": "JOHN DEERE 8600i",
        "cantidad": "1",
        "crm": "NO"
      },
      "geometry": {
        "type": "Point",
        "coordinates": [
          -59.133,
          -37.321
        ]
      }
    },
    {
      "type": "Feature",
      "properties": {
        "cliente": "Geosilar SA",
        "direccion": "Ruta Prov. N° 13, Km 87",
        "telefono": "'+54 9 3533 43-7945",
        "email": "geosilar@hotmail.com",
        "maquinas": "CLAAS Jaguar 960",
        "cantidad": "1",
        "crm": "NO"
      },
      "geometry": {
        "type": "Point",
        "coordinates": [
          -63.047,
          -31.663
        ]
      }
    },
    {
      "type": "Feature",
      "properties": {
        "cliente": "Gorgerino Cesar y Adrian SH",
        "direccion": "L.N. Alem 683",
        "telefono": "'+54 9 3562 50-1413",
        "email": "lucas_gorgerino@hotmail.com",
        "maquinas": "CLAAS Jaguar 960",
        "cantidad": "1",
        "crm": "NO"
      },
      "geometry": {
        "type": "Point",
        "coordinates": [
          -62.337,
          -30.955
        ]
      }
    },
    {
      "type": "Feature",
      "properties": {
        "cliente": "Grupo Proagro San Carlos SRL",
        "direccion": "Suipacha 552",
        "telefono": "'+54 9 3404 63-1929",
        "email": "grupoproagrosc@gmail.com",
        "maquinas": "JOHN DEERE 8600",
        "cantidad": "1",
        "crm": "SI"
      },
      "geometry": {
        "type": "Point",
        "coordinates": [
          -61.091,
          -31.728
        ]
      }
    },
    {
      "type": "Feature",
      "properties": {
        "cliente": "Grusemor SRL",
        "direccion": "Italia 1422",
        "telefono": "'+54 9 3562 55-0332",
        "email": "grusemorsrl@hotmail.com.ar",
        "maquinas": "CLAAS Jaguar 960",
        "cantidad": "1",
        "crm": "SI"
      },
      "geometry": {
        "type": "Point",
        "coordinates": [
          -61.998,
          -30.711
        ]
      }
    },
    {
      "type": "Feature",
      "properties": {
        "cliente": "Gustavo y Horacio Vescovo SH",
        "direccion": "Dardo Rocha 108 y Piedras",
        "telefono": "'+54 9 2396 62-4356",
        "email": "gyhvescovo@hotmail.com",
        "maquinas": "JOHN DEERE 8500",
        "cantidad": "1",
        "crm": "NO"
      },
      "geometry": {
        "type": "Point",
        "coordinates": [
          -62.571,
          -35.476
        ]
      }
    },
    {
      "type": "Feature",
      "properties": {
        "cliente": "Hecoser SA",
        "direccion": "Buenos Aires 379",
        "telefono": "'+54 9 2245 50-5727",
        "email": "hectoracha@hotmail.com",
        "maquinas": "JOHN DEERE 8500i",
        "cantidad": "1",
        "crm": "NO"
      },
      "geometry": {
        "type": "Point",
        "coordinates": [
          -57.806,
          -36.089
        ]
      }
    },
    {
      "type": "Feature",
      "properties": {
        "cliente": "Hugo Culaciati",
        "direccion": "Carlos Tejedor 22",
        "telefono": "'+54 9 236 459-5543",
        "email": "nitrum24@gmail.com",
        "maquinas": "New Holland FR600",
        "cantidad": "1",
        "crm": "NO"
      },
      "geometry": {
        "type": "Point",
        "coordinates": [
          -60.949,
          -34.588
        ]
      }
    },
    {
      "type": "Feature",
      "properties": {
        "cliente": "Jorge Luis Eizmendi",
        "direccion": "Zona Rural",
        "telefono": "'+54 9 3537 68-9830",
        "email": "losvasquitosjje@hotmail.com",
        "maquinas": "CLAAS Jaguar 940",
        "cantidad": "1",
        "crm": "SI"
      },
      "geometry": {
        "type": "Point",
        "coordinates": [
          -62.657,
          -32.305
        ]
      }
    },
    {
      "type": "Feature",
      "properties": {
        "cliente": "Juan José Capello",
        "direccion": "Sarmiento 807",
        "telefono": "'+54 9 2355 50-0887",
        "email": "juanjocappello@hotmail.com",
        "maquinas": "CLAAS Jaguar 900",
        "cantidad": "1",
        "crm": "NO"
      },
      "geometry": {
        "type": "Point",
        "coordinates": [
          -61.53,
          -34.866
        ]
      }
    },
    {
      "type": "Feature",
      "properties": {
        "cliente": "Kiernan SRL",
        "direccion": "Arellano 499",
        "telefono": "'+54 9 2326 42-0301",
        "email": "kiernansrl@yahoo.com.ar",
        "maquinas": "CLAAS Jaguar 960",
        "cantidad": "1",
        "crm": "NO"
      },
      "geometry": {
        "type": "Point",
        "coordinates": [
          -59.474,
          -34.255
        ]
      }
    },
    {
      "type": "Feature",
      "properties": {
        "cliente": "La Chacra S.R.L.",
        "direccion": "Rivadavia 445",
        "telefono": "(353) 4198811",
        "email": "rg.lachacra@gmail.com",
        "maquinas": "JOHN DEERE 730",
        "cantidad": "1",
        "crm": "NO"
      },
      "geometry": {
        "type": "Point",
        "coordinates": [
          -63.401,
          -32.492
        ]
      }
    },
    {
      "type": "Feature",
      "properties": {
        "cliente": "LAFLA SAS",
        "direccion": "Buenos Aires 789",
        "telefono": "'+54 9 353-4117267",
        "email": "laflasas@hotmail.com",
        "maquinas": "CLAAS 870",
        "cantidad": "1",
        "crm": "NO"
      },
      "geometry": {
        "type": "Point",
        "coordinates": [
          -63.569,
          -32.042
        ]
      }
    },
    {
      "type": "Feature",
      "properties": {
        "cliente": "Las Marías Agronegocios SAS",
        "direccion": "Zona Rural - Campo Las Marías",
        "telefono": "'+54 9 3585 43-5640",
        "email": "josebisotto@gmail.com",
        "maquinas": "CLAAS Jaguar 930",
        "cantidad": "1",
        "crm": "NO"
      },
      "geometry": {
        "type": "Point",
        "coordinates": [
          -64.02,
          -33.631
        ]
      }
    },
    {
      "type": "Feature",
      "properties": {
        "cliente": "Los Algarrobos Grandes SRL",
        "direccion": "José de Barberis 548",
        "telefono": "'+54 9 3576 658529",
        "email": "vicenteolocco20@hotmail.com",
        "maquinas": "JOHN DEERE 8500i",
        "cantidad": "1",
        "crm": "SI"
      },
      "geometry": {
        "type": "Point",
        "coordinates": [
          -63.05,
          -31.42
        ]
      }
    },
    {
      "type": "Feature",
      "properties": {
        "cliente": "Los Cauquenes Silajes",
        "direccion": "Av. Massey 673",
        "telefono": "'+54 9 2355 57-5109",
        "email": "loscauquenes@silajes.com.ar",
        "maquinas": "CLAAS Jaguar 960",
        "cantidad": "1",
        "crm": "NO"
      },
      "geometry": {
        "type": "Point",
        "coordinates": [
          -61.53,
          -34.866
        ]
      }
    },
    {
      "type": "Feature",
      "properties": {
        "cliente": "Los Laureles SRL",
        "direccion": "Pueyrredón 450",
        "telefono": "'+54 9 3388 67-1936",
        "email": "loslaureles.serviciosagro@gmail.com",
        "maquinas": "JOHN DEERE 8600",
        "cantidad": "1",
        "crm": "NO"
      },
      "geometry": {
        "type": "Point",
        "coordinates": [
          -63.015,
          -35.031
        ]
      }
    },
    {
      "type": "Feature",
      "properties": {
        "cliente": "Los Medanos Pampeanos SA",
        "direccion": "Belgrano 820",
        "telefono": "'+54 9 3388 43-0037",
        "email": "guillermo.tomaselli@gmail.com",
        "maquinas": "JOHN DEERE 7450",
        "cantidad": "1",
        "crm": "SI"
      },
      "geometry": {
        "type": "Point",
        "coordinates": [
          -63.015,
          -35.031
        ]
      }
    },
    {
      "type": "Feature",
      "properties": {
        "cliente": "Luis Wernli",
        "direccion": "RUTA 18, KM 38 DTO. QUEBRACHO",
        "telefono": "'+54 9 343 451-2627",
        "email": "administracion@elconcierto.com.ar",
        "maquinas": "CLAAS 930",
        "cantidad": "1",
        "crm": "NO"
      },
      "geometry": {
        "type": "Point",
        "coordinates": [
          -60.523,
          -31.731
        ]
      }
    },
    {
      "type": "Feature",
      "properties": {
        "cliente": "LyS Agro SA",
        "direccion": "Ricardo Simonini 381",
        "telefono": "'+54 9 353 417-0223",
        "email": "silverianor@hotmail.com",
        "maquinas": "New Holland FR 600",
        "cantidad": "1",
        "crm": "SI"
      },
      "geometry": {
        "type": "Point",
        "coordinates": [
          -63.437,
          -32.692
        ]
      }
    },
    {
      "type": "Feature",
      "properties": {
        "cliente": "MA Forrajes SA",
        "direccion": "Rivadavia 667",
        "telefono": "'+54 9 2325 41-1685",
        "email": "Maforrajes@hotmail.com",
        "maquinas": "CLAAS 890",
        "cantidad": "1",
        "crm": "NO"
      },
      "geometry": {
        "type": "Point",
        "coordinates": [
          -59.827,
          -34.377
        ]
      }
    },
    {
      "type": "Feature",
      "properties": {
        "cliente": "Meteo SRL",
        "direccion": "Los Caldenes 337",
        "telefono": "'+54 9 3385 59-5394",
        "email": "erikmarian2009@hotmail.com",
        "maquinas": "New Holland FR 600",
        "cantidad": "1",
        "crm": "NO"
      },
      "geometry": {
        "type": "Point",
        "coordinates": [
          -63.937,
          -34.518
        ]
      }
    },
    {
      "type": "Feature",
      "properties": {
        "cliente": "Nabaes Agrosilajes",
        "direccion": "Calle 8  N° 563",
        "telefono": "'+54 9 2923 48-5513",
        "email": "ohnabaes@yahoo.com.ar",
        "maquinas": "JOHN DEERE 7450",
        "cantidad": "1",
        "crm": "NO"
      },
      "geometry": {
        "type": "Point",
        "coordinates": [
          -62.765,
          -37.139
        ]
      }
    },
    {
      "type": "Feature",
      "properties": {
        "cliente": "Norberto Luján Concha",
        "direccion": "25 de Mayo 607",
        "telefono": "'+5493388454811",
        "email": "agropilares4@gmail.com",
        "maquinas": "CLAAS Jaguar 960",
        "cantidad": "1",
        "crm": "NO"
      },
      "geometry": {
        "type": "Point",
        "coordinates": [
          -62.997,
          -35.395
        ]
      }
    },
    {
      "type": "Feature",
      "properties": {
        "cliente": "Nuestra Tierra SRL",
        "direccion": "Calle 4 Lote 39 Parque Industrial",
        "telefono": "'+54 9 3482 50-1481",
        "email": "nuestratierra@playcomla.com.ar",
        "maquinas": "CLAAS Jaguar 980",
        "cantidad": "1",
        "crm": "SI"
      },
      "geometry": {
        "type": "Point",
        "coordinates": [
          -59.657,
          -29.118
        ]
      }
    },
    {
      "type": "Feature",
      "properties": {
        "cliente": "Pagos de Tresar SAS",
        "direccion": "Moreno 703",
        "telefono": "'+54 9 2325 68-9248",
        "email": "felipejbasanta@hotmail.com",
        "maquinas": "JOHN DEERE 7350",
        "cantidad": "1",
        "crm": "SI"
      },
      "geometry": {
        "type": "Point",
        "coordinates": [
          -59.827,
          -34.377
        ]
      }
    },
    {
      "type": "Feature",
      "properties": {
        "cliente": "POR FRE SRL",
        "direccion": "Alberdi 239",
        "telefono": "'+54 9 3564 58-8627",
        "email": "picadoporfre@gmail.com",
        "maquinas": "CLAAS 940",
        "cantidad": "1",
        "crm": "NO"
      },
      "geometry": {
        "type": "Point",
        "coordinates": [
          -62.101,
          -31.165
        ]
      }
    },
    {
      "type": "Feature",
      "properties": {
        "cliente": "Priotti Sergio Andres",
        "direccion": "Illia 332",
        "telefono": "'+54 9 3562 45-4497",
        "email": "oficina@camposlamorocha.com.ar",
        "maquinas": "JOHN DEERE 8400",
        "cantidad": "1",
        "crm": "SI"
      },
      "geometry": {
        "type": "Point",
        "coordinates": [
          -61.998,
          -30.711
        ]
      }
    },
    {
      "type": "Feature",
      "properties": {
        "cliente": "Rasino Fernando Daniel",
        "direccion": "Arturo Illia 565",
        "telefono": "'+54 9 353 401-1481",
        "email": "cabelarbolito@yahoo.com.ar",
        "maquinas": "JOHN DEERE 8400",
        "cantidad": "1",
        "crm": "SI"
      },
      "geometry": {
        "type": "Point",
        "coordinates": [
          -62.922,
          -32.02
        ]
      }
    },
    {
      "type": "Feature",
      "properties": {
        "cliente": "Ricordi Gonzalo Alejandro",
        "direccion": "Mariano Moreno 243",
        "telefono": "'+54 9 3533 45-9559",
        "email": "ricordigonzalo@gmail.com",
        "maquinas": "JOHN DEERE 7450",
        "cantidad": "1",
        "crm": "SI"
      },
      "geometry": {
        "type": "Point",
        "coordinates": [
          -62.719,
          -31.873
        ]
      }
    },
    {
      "type": "Feature",
      "properties": {
        "cliente": "Rome Agropecuaria SA",
        "direccion": "Ing. Dinkeldein 2758",
        "telefono": "'+54 9 358 507-9926",
        "email": "romeagropecuaria@live.com.ar",
        "maquinas": "CLAAS 940",
        "cantidad": "1",
        "crm": "NO"
      },
      "geometry": {
        "type": "Point",
        "coordinates": [
          -64.35,
          -33.13
        ]
      }
    },
    {
      "type": "Feature",
      "properties": {
        "cliente": "S y M servicios de Ensilado y Transporte",
        "direccion": "Valentín Entessano 559",
        "telefono": "'+54 9 2241 50-9183",
        "email": "taus_rural@hotmail.com; sil_lezama@hotmail.com",
        "maquinas": "CLAAS 850",
        "cantidad": "1",
        "crm": "NO"
      },
      "geometry": {
        "type": "Point",
        "coordinates": [
          -57.884,
          -35.868
        ]
      }
    },
    {
      "type": "Feature",
      "properties": {
        "cliente": "Saltea SRL",
        "direccion": "Las Heras 1312",
        "telefono": "'+54 9 3476 69-2346",
        "email": "tecnosilostotoras@gmail.com; rodolfoaccorsi@yahoo.com.ar",
        "maquinas": "CLAAS Jaguar 950",
        "cantidad": "1",
        "crm": "NO"
      },
      "geometry": {
        "type": "Point",
        "coordinates": [
          -61.169,
          -32.584
        ]
      }
    },
    {
      "type": "Feature",
      "properties": {
        "cliente": "Sapler SRL",
        "direccion": "Ruta Prov. Nº 6 Km. 202",
        "telefono": "'+54 9 3467 49-9867",
        "email": "saplersrl@gmail.com",
        "maquinas": "CLAAS Jaguar 950",
        "cantidad": "1",
        "crm": "NO"
      },
      "geometry": {
        "type": "Point",
        "coordinates": [
          -62.455,
          -32.914
        ]
      }
    },
    {
      "type": "Feature",
      "properties": {
        "cliente": "SB Forrajes",
        "direccion": "Ruta 33 y 67",
        "telefono": "'+54 9 2923 65-0890",
        "email": "sbforrajes@gmail.com",
        "maquinas": "CLAAS Jaguar 940",
        "cantidad": "1",
        "crm": "NO"
      },
      "geometry": {
        "type": "Point",
        "coordinates": [
          -62.405,
          -37.605
        ]
      }
    },
    {
      "type": "Feature",
      "properties": {
        "cliente": "Schmidt Nestor y Wisner Emanuel SH",
        "direccion": "Monseñor D Andrea 590",
        "telefono": "'+54 9 2923 57-0514",
        "email": "schmidtnestor@hotmail.com",
        "maquinas": "CLAAS Jaguar 940",
        "cantidad": "1",
        "crm": "NO"
      },
      "geometry": {
        "type": "Point",
        "coordinates": [
          -61.933,
          -37.454
        ]
      }
    },
    {
      "type": "Feature",
      "properties": {
        "cliente": "Servicios Ganaderos Silajes SA",
        "direccion": "San Antonio Norte 949",
        "telefono": "'+54 9 3444-629584",
        "email": "serviciosganaderossa@gmail.com",
        "maquinas": "CLAAS Jaguar 950",
        "cantidad": "1",
        "crm": "NO"
      },
      "geometry": {
        "type": "Point",
        "coordinates": [
          -59.309,
          -33.142
        ]
      }
    },
    {
      "type": "Feature",
      "properties": {
        "cliente": "Servicios Huanguelén",
        "direccion": "Calle 7 N° 1538",
        "telefono": "'+54 9 2923 40-9846",
        "email": "servicioshuanguelen@hotmail.com",
        "maquinas": "JOHN DEERE 7450",
        "cantidad": "1",
        "crm": "NO"
      },
      "geometry": {
        "type": "Point",
        "coordinates": [
          -62.765,
          -37.139
        ]
      }
    },
    {
      "type": "Feature",
      "properties": {
        "cliente": "Silaje Sacanta SA",
        "direccion": "Dr. Carlos Vivenza 181",
        "telefono": "'+54 9 3533 44-0904",
        "email": "silajesacanta@gmail.com",
        "maquinas": "JOHN DEERE 8500i",
        "cantidad": "1",
        "crm": "SI"
      },
      "geometry": {
        "type": "Point",
        "coordinates": [
          -63.047,
          -31.663
        ]
      }
    },
    {
      "type": "Feature",
      "properties": {
        "cliente": "Silajes Jovita",
        "direccion": "Pasaje Dr. Luis Rivero 276",
        "telefono": "'+54 9 3385 52-2523",
        "email": "sergiomontemerlo@hotmail.com",
        "maquinas": "JOHN DEERE 7550",
        "cantidad": "1",
        "crm": "NO"
      },
      "geometry": {
        "type": "Point",
        "coordinates": [
          -63.937,
          -34.518
        ]
      }
    },
    {
      "type": "Feature",
      "properties": {
        "cliente": "Silajes SAS",
        "direccion": "Urquiza 636",
        "telefono": "'+549 3534- 062441",
        "email": "silajessas@hotmail.com",
        "maquinas": "JOHN DEERE 8600",
        "cantidad": "1",
        "crm": "SI"
      },
      "geometry": {
        "type": "Point",
        "coordinates": [
          -63.117,
          -31.867
        ]
      }
    },
    {
      "type": "Feature",
      "properties": {
        "cliente": "Silosac SA",
        "direccion": "Bv. Mitre 1141",
        "telefono": "'+54 9 3533 43-4068",
        "email": "silosac@hotmail.com.ar",
        "maquinas": "CLAAS Jaguar 940",
        "cantidad": "1",
        "crm": "SI"
      },
      "geometry": {
        "type": "Point",
        "coordinates": [
          -63.047,
          -31.663
        ]
      }
    },
    {
      "type": "Feature",
      "properties": {
        "cliente": "Supertino Omar Alfredo",
        "direccion": "Diag. Arturo Illia 547",
        "telefono": "'+54 9 353-6577613",
        "email": "agrosupertino@gmail.com",
        "maquinas": "CLAAS 870",
        "cantidad": "1",
        "crm": "SI"
      },
      "geometry": {
        "type": "Point",
        "coordinates": [
          -62.922,
          -32.02
        ]
      }
    },
    {
      "type": "Feature",
      "properties": {
        "cliente": "Tecnosilos Totoras SRL",
        "direccion": "Arenales 1071",
        "telefono": "'+54 9 3476 69-3405",
        "email": "tecnosilostotoras@gmail.com",
        "maquinas": "CLAAS Jaguar 960",
        "cantidad": "1",
        "crm": "SI"
      },
      "geometry": {
        "type": "Point",
        "coordinates": [
          -61.169,
          -32.584
        ]
      }
    },
    {
      "type": "Feature",
      "properties": {
        "cliente": "Trecktor Silajes",
        "direccion": "Sarmiento 152",
        "telefono": "'+54 9 2392 45-9585",
        "email": "manucereigido@hotmail.com",
        "maquinas": "CLAAS Jaguar 960",
        "cantidad": "1",
        "crm": "NO"
      },
      "geometry": {
        "type": "Point",
        "coordinates": [
          -62.734,
          -35.973
        ]
      }
    },
    {
      "type": "Feature",
      "properties": {
        "cliente": "Vision Agropecuaria SA",
        "direccion": "Iacianci 187",
        "telefono": "'+54 9 2355 57-2851",
        "email": "lacteosdobles@germania.com.ar",
        "maquinas": "Gomselmash FS80-2",
        "cantidad": "1",
        "crm": "NO"
      },
      "geometry": {
        "type": "Point",
        "coordinates": [
          -61.037,
          -34.757
        ]
      }
    },
    {
      "type": "Feature",
      "properties": {
        "cliente": "Michelotti, Fernando Daniel",
        "direccion": "Sarmiento 98",
        "telefono": "'+54 9 3537 58-1280",
        "email": "",
        "maquinas": "",
        "cantidad": "",
        "crm": "NO"
      },
      "geometry": {
        "type": "Point",
        "coordinates": [
          -62.837,
          -32.595
        ]
      }
    },
    {
      "type": "Feature",
      "properties": {
        "cliente": "Servetto Juan Carlos",
        "direccion": "Sarmieento 0",
        "telefono": "'+54 9 3572 436444",
        "email": "",
        "maquinas": "",
        "cantidad": "",
        "crm": "NO"
      },
      "geometry": {
        "type": "Point",
        "coordinates": [
          -62.315,
          -31.214
        ]
      }
    }
  ]
}
