{
  "type": "FeatureCollection",
  "features": [
    {
      "type": "Feature",
      "geometry": { "type": "Point", "coordinates": [-60.7135, -31.6214] },
      "properties": { "Tipo": "Socios Plenarios", "Nombre": "ALAM-CO S.A.", "CUIT": 30708922214, "Dirección": "Av. López y Planes 3801, Santa Fe", "Localidad": "Santa Fe", "Provincia": "Santa Fe", "Teléfono": "(0342) 452-2820", "Correo": "adm@alamco.com.ar", "CRM": "NO", "Maquinas": "", "Sucursal": "", "delegacion": "Santa Fe" }
    },
    {
      "type": "Feature",
      "geometry": { "type": "Point", "coordinates": [-60.6923, -31.6068] },
      "properties": { "Tipo": "Socios Plenarios", "Nombre": "ANGEL BOSCARINO CNES. S.A.", "CUIT": 30709848298, "Dirección": "Marcial Candioti 5180, Santa Fe", "Localidad": "Santa Fe", "Provincia": "Santa Fe", "Teléfono": "(0342) 453-8585", "Correo": "adm@angelboscarino.com.ar", "CRM": "NO", "Maquinas": "", "Sucursal": "-", "delegacion": "Santa Fe" }
    },
    {
      "type": "Feature",
      "geometry": { "type": "Point", "coordinates": [-60.7118, -31.6521] },
      "properties": { "Tipo": "Socios Plenarios", "Nombre": "CAPITEL S.A.", "CUIT": 30627871348, "Dirección": "San Martín 1945, Santa Fe", "Localidad": "Santa Fe", "Provincia": "Santa Fe", "Teléfono": "(0342) 459-3693", "Correo": "recepcion@capitelsa.com.ar", "CRM": "SI", "Maquinas": "", "Sucursal": "", "delegacion": "Santa Fe" }
    },
    {
      "type": "Feature",
      "geometry": { "type": "Point", "coordinates": [-60.6865, -31.6012] },
      "properties": { "Tipo": "Socios Plenarios", "Nombre": "COEMYC S.A.", "CUIT": 30523468460, "Dirección": "Padre Genesio 888, Santa Fe", "Localidad": "Santa Fe", "Provincia": "Santa Fe", "Teléfono": "(0342) 469-1265", "Correo": "coemyc@coemyc.com", "CRM": "SI", "Maquinas": "MINICARGADORAS-OTRA MARCA-OTRO, MOTONIVELADORAS-XCMG-OTRO", "Sucursal": "SAN JUSTO", "delegacion": "Santa Fe" }
    },
    {
      "type": "Feature",
      "geometry": { "type": "Point", "coordinates": [-60.6841, -31.5954] },
      "properties": { "Tipo": "Socios Plenarios", "Nombre": "COCYAR S.A.", "CUIT": 30686971011, "Dirección": "Mitre 5960, Santa Fe", "Localidad": "Santa Fe", "Provincia": "Santa Fe", "Teléfono": "(0342) 460-1515", "Correo": "info@cocyar.com", "CRM": "SI", "Maquinas": "EXCAVADORAS-HYUNDAI-ROBEX 220 LC", "Sucursal": "SAN JUSTO", "delegacion": "Santa Fe" }
    },
    {
      "type": "Feature",
      "geometry": { "type": "Point", "coordinates": [-55.89926, -27.36539] },
      "properties": { "delegacion": "Misiones", "Nombre": "AL-VISERV S.R.L.", "Dirección": "Ramón García N° 189 4°B, Posadas", "Localidad": "Posadas", "Correo": "Quarksoluciones@gmail.com", "CUIT": "30708854294", "CRM": "NO", "idCliente": "-", "Maquinas": "-", "Sucursal": "-" }
    },
    {
      "type": "Feature",
      "geometry": { "type": "Point", "coordinates": [-55.923836, -27.361284] },
      "properties": { "delegacion": "Misiones", "Nombre": "HIDRELCO S.R.L.", "Teléfono": "4460350-4469067", "Dirección": "Av.Leandro N. ALem N° 4948", "Localidad": "Posadas", "Correo": "nicodeica@hotmail.com", "CUIT": 30572634651, "CRM": "SI", "idCliente": 31800, "Maquinas": "-", "Sucursal": "-" }
    },
    {
      "type": "Feature",
      "geometry": { "type": "Point", "coordinates": [-58.2262256, -32.1983289] },
      "properties": { "delegacion": "Entre Rios", "Nombre": "AGUARÁ CONSTRUCCIONES S.A.", "Dirección": "Urquiza 411", "Localidad": "COLÓN", "Teléfono": "03447-15413219", "Correo": "info@aguaraingenieria.com", "CUIT": 30715514148, "CRM": "SI", "idCliente": 49906, "Maquinas": "MINICARGADORAS-BOBCAT-S510", "Sucursal": "CONCORDIA" }
    },
    {
      "type": "Feature",
      "geometry": { "type": "Point", "coordinates": [-58.15, -32.2167] },
      "properties": { "delegacion": "Entre Rios", "Nombre": "GRUPO BOUVIER", "Dirección": "RN14 km 158", "Localidad": "San José", "Teléfono": "+54 9 3447 503640", "Correo": "martinbouvier@grupobouvier.com.ar", "CUIT": 33717732079, "CRM": "SI", "idCliente": 35244, "Maquinas": "MOTONIVELADORAS-SANY-SMG200", "Sucursal": "CONCORDIA" }
    },
    {
      "type": "Feature",
      "geometry": { "type": "Point", "coordinates": [-60.5400868, -31.7165055] },
      "properties": { "delegacion": "Entre Rios", "Nombre": "ANTOLIN FERNADEZ SA", "Dirección": "Av. Estrada 1748", "Localidad": "PARANÁ", "Teléfono": "0343-4223305", "Correo": "antolinfer@arnet.com.ar", "CUIT": 30506740513, "CRM": "SI", "idCliente": 14233, "Maquinas": "-", "Sucursal": "PARANA" }
    },
    {
      "type": "Feature",
      "geometry": { "type": "Point", "coordinates": [-60.4950356, -31.7183993] },
      "properties": { "delegacion": "Entre Rios", "Nombre": "ARENERA TOMA NUEVA S.R.L.", "Dirección": "Rondeau al final", "Localidad": "PARANÁ", "Teléfono": "0343-4331233", "Correo": "areneratomanuevasrl@hotmail.com", "CUIT": 30710156766, "CRM": "SI", "idCliente": 14260, "Maquinas": "CARGADOR FRONTAL-KOMATSU-WA320", "Sucursal": "PARANA" }
    },
    {
      "type": "Feature",
      "geometry": { "type": "Point", "coordinates": [-60.499896, -31.7141594] },
      "properties": { "delegacion": "Entre Rios", "Nombre": "BEST S.A.", "Dirección": "Ayacucho 912", "Localidad": "PARANÁ", "Teléfono": "0343-4346191", "Correo": "administracion@bestsa.com.ar", "CUIT": 30710012365, "CRM": "SI", "idCliente": 30598, "Maquinas": "-", "Sucursal": "PARANA" }
    },
    {
      "type": "Feature",
      "geometry": { "type": "Point", "coordinates": [-60.4916564, -31.7301586] },
      "properties": { "delegacion": "Entre Rios", "Nombre": "MC CONSTRUCCIONES S.R.L.", "Dirección": "Blas Parera 651", "Localidad": "Paraná", "Teléfono": "0343-4244980", "Correo": "chauvetricardo@hotmail.com.ar", "CUIT": 30710290748, "CRM": "SI", "idCliente": 16711, "Maquinas": "-", "Sucursal": "PARANA" }
    },
    {
      "type": "Feature",
      "geometry": { "type": "Point", "coordinates": [-60.521433, -31.7582036] },
      "properties": { "delegacion": "Entre Rios", "Nombre": "SERVICIOS PEDRIN S.A.", "Dirección": "Av. Ramírez 4050", "Localidad": "Paraná", "Teléfono": "0343-4350561", "Correo": "serviciospedrin@yahoo.com.ar", "CUIT": 30709177733, "CRM": "SI", "idCliente": 17701, "Maquinas": "MINICARGADORAS-BOBCAT-S530", "Sucursal": "PARANA" }
    },
    {
      "type": "Feature",
      "geometry": { "type": "Point", "coordinates": [-58.2292, -32.4847] },
      "properties": { "delegacion": "Entre Rios", "Nombre": "TRAZA S.A.", "Dirección": "Blvd. Hipolito Irigoyen 1522", "Localidad": "Concepción del Uruguay", "Teléfono": "03442-430079", "Correo": "mpietroboni@trazasa.com", "CUIT": 30708409886, "CRM": "SI", "idCliente": 18070, "Maquinas": "-", "Sucursal": "CONCORDIA" }
    },
    {
      "type": "Feature",
      "geometry": { "type": "Point", "coordinates": [-59.0233, -31.8678] },
      "properties": { "delegacion": "Entre Rios", "Nombre": "VERCO S.A.", "Dirección": "RN18 KM 149,70", "Localidad": "Villaguay", "Teléfono": "03455-484773", "Correo": "hormigonesverco@gmail.com", "CUIT": 30707504192, "CRM": "SI", "idCliente": 49180, "Maquinas": "EXCAVADORAS-SANY-SY215C", "Sucursal": "PARANA" }
    }
  ]
}
