{
  "type": "FeatureCollection",
  "name": "Sucursales Corregidas",
  "features": [
    {
      "type": "Feature",
      "properties": {
        "Name": "CERES",
        "description": null
      },
      "geometry": {
        "type": "Polygon",
        "coordinates": [
          [
            [-61.67811351367067, -28.010217964222, 0.0],
            [-61.64900561456884, -28.0098503581668, 0.0],
            [-61.61409689468481, -28.00938915267609, 0.0],
            [-61.59083148214926, -28.00907528993476, 0.0],
            [-61.5675696603979, -28.00875707676051, 0.0],
            [-61.5443109821954, -28.00843543048946, 0.0],
            [-61.52686972646816, -28.00819134969234, 0.0],
            [-61.49780874407265, -28.0077788245955, 0.0],
            [-61.4629435050073, -28.00726975137232, 0.0],
            [-61.44551344291396, -28.00701179825439, 0.0],
            [-61.41631495752995, -28.0117186952351, 0.0],
            [-61.39308196124982, -28.01136420726275, 0.0],
            [-61.36954720464747, -28.0212862813766, 0.0],
            [-61.3405194497208, -28.02082383971221, 0.0],
            [-61.31135280824841, -28.025484311002, 0.0],
            [-61.2765446735277, -28.02490234690155, 0.0],
            [-61.25334232780874, -28.02450961247373, 0.0],
            [-61.23014381386193, -28.02411506202161, 0.0],
            [-61.20694645697721, -28.02371500585136, 0.0],
            [-61.18375163555219, -28.02331133015645, 0.0],
            [-61.15477119063897, -28.0227919228007, 0.0],
            [-61.12595986631793, -28.01711978866554, 0.0],
            [-61.09715373512602, -28.01144191141027, 0.0],
            [-61.07398390789768, -28.01100469841728, 0.0],
            [-61.05081210675126, -28.01055907793857, 0.0],
            [-61.02780838520555, -28.0049767960693, 0.0],
            [-60.99901751440001, -27.99927795848097, 0.0],
            [-60.96428982011668, -27.9985773811521, 0.0],
            [-60.93535185752781, -27.99798614925579, 0.0],
            [-60.91220667086383, -27.99750611747737, 0.0],
            [-60.88906348783679, -27.99702190973549, 0.0],
            [-60.86013682735815, -27.99641149322721, 0.0],
            [-60.83699764807692, -27.99591879993662, 0.0],
            [-60.81964463553825, -27.99554367691579, 0.0],
            [-60.78494960760722, -27.99477107902381, 0.0],
            [-60.76743523534278, -27.99951451569748, 0.0],
            [-60.73835669180228, -28.00399365325261, 0.0],
            [-60.7152302538979, -28.00346576490977, 0.0],
            [-60.72101178072377, -28.00359784814528, 0.0],
            [-60.74413883003219, -28.00412525317982, 0.0],
            [-60.78461433268139, -28.00503785699307, 0.0],
            [-60.81931091491729, -28.00581117068411, 0.0],
            [-60.85980496618811, -28.00667979205826, 0.0],
            [-60.88873300168568, -28.0072908324678, 0.0],
            [-60.91187756976943, -28.00777504795171, 0.0],
            [-60.9408135377205, -28.00837249533941, 0.0],
            [-60.96975125134109, -28.00896520236505, 0.0],
            [-60.98711508687085, -28.00931837852911, 0.0],
            [-61.02185561087771, -28.0100003458338, 0.0],
            [-61.05660423246405, -28.01066988379107, 0.0],
            [-61.08572898843585, -28.0060874211176, 0.0],
            [-61.11469234500356, -28.00663079018205, 0.0],
            [-61.14945345378114, -28.00727510288927, 0.0],
            [-61.17842829267802, -28.00779761910074, 0.0],
            [-61.20162068860904, -28.00820105643776, 0.0],
            [-61.2248159174508, -28.00860098117304, 0.0],
            [-61.2538113559575, -28.00909519353501, 0.0],
            [-61.27716755179538, -28.00434804593414, 0.0],
            [-61.30617158428278, -28.00483200545449, 0.0],
            [-61.32937821751401, -28.00521502225067, 0.0],
            [-61.35854929168664, -28.00054504531683, 0.0],
            [-61.38177439349716, -28.00090414354342, 0.0],
            [-61.40500439539687, -28.00126000575616, 0.0],
            [-61.42823784653352, -28.00160957676569, 0.0],
            [-61.45147504616191, -28.00195548597134, 0.0],
            [-61.48052629347281, -28.00238243052535, 0.0],
            [-61.5095827863975, -28.0028034402113, 0.0],
            [-61.53283341084249, -28.00312932146806, 0.0],
            [-61.56190407657225, -28.00353305499125, 0.0],
            [-61.58516450329564, -28.00385149851315, 0.0],
            [-61.60842860141923, -28.00416630287816, 0.0],
            [-61.63169603670256, -28.00447724233799, 0.0],
            [-61.66064812461423, -28.00999811915399, 0.0],
            [-61.68393604925811, -28.01029087623912, 0.0],
            [-61.70708941819866, -28.01571762775549, 0.0],
            [-61.71234268444568, -28.03636237858369, 0.0],
            [-61.71176835075357, -28.05693550714851, 0.0],
            [-61.71702343713483, -28.07757432702721, 0.0],
            [-61.72227995206312, -28.09821033631903, 0.0],
            [-61.72753776290905, -28.11884337860639, 0.0],
            [-61.73280356020364, -28.13946862435114, 0.0],
            [-61.73210001595325, -28.16515500677388, 0.0],
            [-61.73139663108449, -28.1908360550465, 0.0],
            [-61.73666828081274, -28.21144906449345, 0.0],
            [-61.74194159336128, -28.23205928382468, 0.0],
            [-61.75305450018795, -28.25273659157175, 0.0],
            [-61.76416869642112, -28.27341332194993, 0.0],
            [-61.76944778192337, -28.29401548672536, 0.0],
            [-61.77460089330184, -28.31973426410447, 0.0],
            [-61.77419687952938, -28.33511749283025, 0.0],
            [-61.78520771677857, -28.36089908376721, 0.0],
            [-61.78453619506394, -28.38653137735501, 0.0],
            [-61.78984662678867, -28.4071042004294, 0.0],
            [-61.7951558823332, -28.42767810640667, 0.0],
            [-61.79462003060409, -28.4481758887244, 0.0],
            [-61.79408447150715, -28.46867071283948, 0.0],
            [-61.79317731487679, -28.50451503050239, 0.0],
            [-61.79838296822303, -28.5301865689211, 0.0],
            [-61.79773984583305, -28.55577981790899, 0.0],
            [-61.80294884952485, -28.58144418104536, 0.0],
            [-61.8082879810864, -28.60198956131036, 0.0],
            [-61.81375677406825, -28.61741664654249, 0.0],
            [-61.81897170188457, -28.64307540505642, 0.0],
            [-61.81847022805711, -28.66353360637162, 0.0],
            [-61.82969336299646, -28.68414235625561, 0.0],
            [-61.82895888313637, -28.71481935735163, 0.0],
            [-61.83420592208422, -28.74045977498063, 0.0],
            [-61.83957789883922, -28.76098612473513, 0.0],
            [-61.83908965962651, -28.78143284000699, 0.0],
            [-61.84446368774354, -28.80195757270154, 0.0],
            [-61.8497191395664, -28.82759286646996, 0.0],
            [-61.84913790353785, -28.85314043278695, 0.0],
            [-61.85430745997201, -28.88387294064484, 0.0],
            [-61.85936432435332, -28.91971139352311, 0.0],
            [-61.8648866704908, -28.93511728041977, 0.0],
            [-61.87605447042038, -28.96082037676145, 0.0],
            [-61.88158638863003, -28.97622420781037, 0.0],
            [-61.88112538984586, -28.99665373748365, 0.0],
            [-61.89232864364024, -29.02235053724521, 0.0],
            [-61.90343994354572, -29.05315310218409, 0.0],
            [-61.90889001431573, -29.07366121675831, 0.0],
            [-61.90845509424977, -29.09408598354266, 0.0],
            [-61.91379961285594, -29.11970036796743, 0.0],
            [-61.91325899622406, -29.14522875436125, 0.0],
            [-61.91282610537621, -29.16565222243891, 0.0],
            [-61.91239564245554, -29.18607418268477, 0.0],
            [-61.91198418140757, -29.20649525415499, 0.0],
            [-61.91746928436926, -29.22700387822659, 0.0],
            [-61.91695704172127, -29.25252949740582, 0.0],
            [-61.92213736165632, -29.28835271008133, 0.0],
            [-61.92162590864855, -29.31387844834888, 0.0],
            [-61.93291648644009, -29.33958174086033, 0.0],
            [-61.93832027575056, -29.3651983157488, 0.0],
            [-61.93793371343492, -29.38562184064681, 0.0],
            [-61.94345383727301, -29.40613581697258, 0.0],
            [-61.94887811706176, -29.43175567040077, 0.0],
            [-61.94849200373469, -29.45218091321106, 0.0],
            [-61.95401695713601, -29.47269794186993, 0.0],
            [-61.95363158084068, -29.49312442860067, 0.0],
            [-61.95906413320913, -29.5187502957032, 0.0],
            [-61.95878410684231, -29.53407104500144, 0.0],
            [-61.97007546978827, -29.56490417025178, 0.0],
            [-61.96962510021208, -29.59044611100618, 0.0],
            [-61.97518532308803, -29.61097446494275, 0.0],
            [-61.97491579903672, -29.62630128126582, 0.0],
            [-61.99213016654549, -29.66832922887163, 0.0],
            [-62.0225044918832, -30.08849213097863, 0.0],
            [-62.02460490177225, -30.12764449579397, 0.0],
            [-62.02620648865703, -30.16141750767062, 0.0],
            [-62.03202102692531, -30.17321534898178, 0.0],
            [-62.03981401983341, -30.17267626193862, 0.0],
            [-62.04313855331696, -30.1752218376925, 0.0],
            [-62.06966971756051, -30.20725068290194, 0.0],
            [-62.10491751961253, -30.24816691712551, 0.0],
            [-62.12320041942812, -30.27536314497886, 0.0],
            [-62.13953700318614, -30.31490896280675, 0.0],
            [-62.1529033118186, -30.35603481925566, 0.0],
            [-62.17645024430456, -30.40461765597035, 0.0],
            [-62.18407500475572, -30.3602239670922, 0.0],
            [-62.19031691645311, -30.33992643950763, 0.0],
            [-62.21400675912581, -30.33514790330653, 0.0],
            [-62.23761465515832, -30.33546173712477, 0.0],
            [-62.261225094363, -30.33577119543302, 0.0],
            [-62.2848371988797, -30.33607628441988, 0.0],
            [-62.30845154052783, -30.33637722088502, 0.0],
            [-62.33796987021981, -30.33674597186711, 0.0],
            [-62.36158764933348, -30.33703717206774, 0.0],
            [-62.3970175985984, -30.33746635938679, 0.0],
            [-62.42064519459389, -30.33774923346373, 0.0],
            [-62.45018480238173, -30.33810084297172, 0.0],
            [-62.4679102123568, -30.33830866053481, 0.0],
            [-62.50336477346784, -30.33871729923534, 0.0],
            [-62.53291577973948, -30.33905190977575, 0.0],
            [-62.52129053395184, -30.32362937645162, 0.0],
            [-62.52745798823128, -30.30330942868801, 0.0],
            [-62.53946515304277, -30.28815153194392, 0.0],
            [-62.5574374186607, -30.2679608899495, 0.0],
            [-62.563593192085, -30.2476409754112, 0.0],
            [-62.57565050002772, -30.2273806087548, 0.0],
            [-62.58181493079654, -30.20706900514709, 0.0],
            [-62.58207059549594, -30.18669187891225, 0.0],
            [-62.58245469527979, -30.15612776642082, 0.0],
            [-62.57091045541996, -30.13562797011914, 0.0],
            [-62.55937706248947, -30.11513073553298, 0.0],
            [-62.54784927811405, -30.09463392809771, 0.0],
            [-62.55400546117234, -30.0743251762668, 0.0],
            [-62.57770614752626, -30.06438569213676, 0.0],
            [-62.60142145000299, -30.05444351367187, 0.0],
            [-62.6251321889516, -30.0444966737022, 0.0],
            [-62.6488405366861, -30.03454436236928, 0.0],
            [-62.66671417415702, -30.01943694611557, 0.0],
            [-62.6787504437354, -29.99917673035818, 0.0],
            [-62.6966133056296, -29.98406057390514, 0.0],
            [-62.72024904841419, -29.9791847933639, 0.0],
            [-62.74394289594267, -29.9692098969331, 0.0],
            [-62.76764122562436, -29.95923191382465, 0.0],
            [-62.77966136525508, -29.93895651163143, 0.0],
            [-62.78578210666456, -29.91862857615137, 0.0],
            [-62.79779419021897, -29.89834981599196, 0.0],
            [-62.81570134445602, -29.87811687308854, 0.0],
            [-62.82182502704943, -29.85778419786895, 0.0],
            [-62.82205452248332, -29.83740329507219, 0.0],
            [-62.81038758185282, -29.82711784152769, 0.0],
            [-62.80964101208654, -29.81227273024884, 0.0],
            [-62.81129473526811, -29.80649400811897, 0.0],
            [-62.81294873679335, -29.80071382582666, 0.0],
            [-62.81627102563432, -29.79492486267747, 0.0],
            [-62.82126967340943, -29.79201551268282, 0.0],
            [-62.8279342289484, -29.78765409011528, 0.0],
            [-62.83459994834423, -29.78329145986211, 0.0],
            [-62.8412639779389, -29.7774826495546, 0.0],
            [-62.8479297390523, -29.77167199405117, 0.0],
            [-62.8495913754964, -29.76732780397275, 0.0],
            [-62.85292755464204, -29.76586679158446, 0.0],
            [-62.85791922149541, -29.75572067552815, 0.0],
            [-62.86291675673258, -29.74846349802402, 0.0],
            [-62.86958337087914, -29.739747970652, 0.0],
            [-62.87291729302436, -29.73538850619707, 0.0],
            [-62.87959036141684, -29.72956370625197, 0.0],
            [-62.88459595159078, -29.72519375877471, 0.0],
            [-62.88793351715508, -29.72227978150655, 0.0],
            [-62.89127118986502, -29.71936528671743, 0.0],
            [-62.89627535502778, -29.71209357397908, 0.0],
            [-62.90295219928441, -29.70481049919857, 0.0],
            [-62.90796141018513, -29.69898352535265, 0.0],
            [-62.91464297352072, -29.69314587713513, 0.0],
            [-62.91798312384057, -29.68877451272722, 0.0],
            [-62.92299572150296, -29.68439396079314, 0.0],
            [-62.93135243566656, -29.67709052969048, 0.0],
            [-62.9363681506426, -29.67125365834831, 0.0],
            [-62.94305766251106, -29.66540560569838, 0.0],
            [-62.94974822865613, -29.65664783529263, 0.0],
            [-62.95476758145671, -29.6508037921441, 0.0],
            [-62.95978776590744, -29.64641220556113, 0.0],
            [-62.96815675330522, -29.64054517444653, 0.0],
            [-62.97485324453292, -29.63614087340357, 0.0],
            [-62.9815514959914, -29.63027924266637, 0.0],
            [-62.98657755472004, -29.62296905275061, 0.0],
            [-62.98825766626101, -29.61421843045867, 0.0],
            [-62.98826296532319, -29.60838888356006, 0.0],
            [-62.98826817133755, -29.60255763886765, 0.0],
            [-62.98827471491887, -29.59526607796874, 0.0],
            [-62.98660791997875, -29.58652361193595, 0.0],
            [-62.98661247567349, -29.58068599519748, 0.0],
            [-62.98661692990591, -29.57484660772613, 0.0],
            [-62.98662257751674, -29.56754490924613, 0.0],
            [-62.98997868162379, -29.56168106904183, 0.0],
            [-62.9950129577221, -29.55434334409458, 0.0],
            [-62.99669306288241, -29.54994756034622, 0.0],
            [-62.99837757557281, -29.5411634057995, 0.0],
            [-63.00006129520639, -29.53383831181371, 0.0],
            [-63.00510559648414, -29.52355959836883, 0.0],
            [-63.00846638919881, -29.51914455311632, 0.0],
            [-63.01351010564795, -29.51178723927782, 0.0],
            [-63.01855292073285, -29.50589203966102, 0.0],
            [-63.02359854737935, -29.49999390091133, 0.0],
            [-63.02696384663027, -29.49557168534204, 0.0],
            [-63.03368734931244, -29.49112508490946, 0.0],
            [-63.0387332871085, -29.48668857319053, 0.0],
            [-63.0454592992799, -29.48223891553814, 0.0],
            [-63.04882782009179, -29.47781124070007, 0.0],
            [-63.0555546979806, -29.47335875969927, 0.0],
            [-63.06060331420346, -29.46891719251637, 0.0],
            [-63.06564938083035, -29.46594335108869, 0.0],
            [-63.07238345272414, -29.46001774684683, 0.0],
            [-63.07743499439111, -29.4555719934875, 0.0],
            [-63.08248757873856, -29.45112484978467, 0.0],
            [-63.08755446230961, -29.44226332654185, 0.0],
            [-63.09261689519081, -29.4363385592905, 0.0],
            [-63.09600053401014, -29.43042424850604, 0.0],
            [-63.0993907852646, -29.42303322496399, 0.0],
            [-63.10277660956007, -29.41711277884685, 0.0],
            [-63.10616334596421, -29.41118988993378, 0.0],
            [-63.10786914707373, -29.40527780644261, 0.0],
            [-63.11126421878734, -29.39787449588074, 0.0],
            [-63.11297684446767, -29.39048166178409, 0.0],
            [-63.1146898936445, -29.38308553764768, 0.0],
            [-63.11808149986228, -29.37714963778482, 0.0],
            [-63.12147336704177, -29.37121092966762, 0.0],
            [-63.12485834021268, -29.36675022995146, 0.0],
            [-63.12825577069648, -29.35933150170215, 0.0],
            [-63.13164948505564, -29.35338772052893, 0.0],
            [-63.13505309103088, -29.34595957657848, 0.0],
            [-63.14013578479268, -29.33999472805592, 0.0],
            [-63.14353454821405, -29.3340417548, 0.0],
            [-63.14861977539964, -29.32807204462328, 0.0],
            [-63.15202037374648, -29.32211441770298, 0.0],
            [-63.15710802947152, -29.31613984991298, 0.0],
            [-63.1621893159181, -29.31164638477569, 0.0],
            [-63.16727160505803, -29.30715120625879, 0.0],
            [-63.17236297188293, -29.30117032673755, 0.0],
            [-63.17913458504778, -29.29665677571979, 0.0],
            [-63.1859075727146, -29.29214150183492, 0.0],
            [-63.19267364387362, -29.28911001233163, 0.0],
            [-63.19944460427784, -29.28607348827783, 0.0],
            [-63.20453732347229, -29.28156649151297, 0.0],
            [-63.21132182148448, -29.27704203589744, 0.0],
            [-63.21472828233104, -29.27254785367496, 0.0],
            [-63.22151493667336, -29.26801896397862, 0.0],
            [-63.22662608479263, -29.26201377067683, 0.0],
            [-63.23172868450951, -29.2574952518554, 0.0],
            [-63.23514202508554, -29.25299219077571, 0.0],
            [-63.23856719493994, -29.24699725929326, 0.0],
            [-63.24200425090057, -29.23950860364642, 0.0],
            [-63.24712288127531, -29.23349092146132, 0.0],
            [-63.25224184349631, -29.22747123833646, 0.0],
            [-63.25565915981243, -29.22295911876177, 0.0],
            [-63.2607806754355, -29.21693477308782, 0.0],
            [-63.26589202432496, -29.21240145980083, 0.0],
            [-63.26423474031439, -29.20793765937019, 0.0],
            [-63.25747681316623, -29.20651438967128, 0.0],
            [-63.25239999479415, -29.20656735398056, 0.0],
            [-63.24225803872657, -29.20517844635866, 0.0],
            [-63.23380874055244, -29.20377165558607, 0.0],
            [-63.2253489755133, -29.20385831656519, 0.0],
            [-63.21858172184279, -29.20392730485945, 0.0],
            [-63.21181449727693, -29.20399634145829, 0.0],
            [-63.20673936590093, -29.20404798770553, 0.0],
            [-63.19659003606191, -29.20415061723712, 0.0],
            [-63.18981686304921, -29.20571027227717, 0.0],
            [-63.18135599614295, -29.20728381526324, 0.0],
            [-63.17627647404344, -29.20882487108892, 0.0],
            [-63.1678176784694, -29.21039704287612, 0.0],
            [-63.15936001040344, -29.21196843470238, 0.0],
            [-63.15259296461284, -29.21352356158615, 0.0],
            [-63.14414556375924, -29.21360070991287, 0.0],
            [-63.1356999648895, -29.2136781002661, 0.0],
            [-63.13063261160425, -29.21372345490354, 0.0],
            [-63.11880947595321, -29.21382864992574, 0.0],
            [-63.11204690303992, -29.21538056511197, 0.0],
            [-63.10698066243512, -29.21542498441549, 0.0],
            [-63.09684382764101, -29.21700193145421, 0.0],
            [-63.08840309733828, -29.2170728944579, 0.0],
            [-63.07826885015269, -29.21864919350159, 0.0],
            [-63.06814175804133, -29.21873283826918, 0.0],
            [-63.0597025177621, -29.21880253779823, 0.0],
            [-63.04957677580073, -29.2188850974823, 0.0],
            [-63.0394517844048, -29.21896689992789, 0.0],
            [-63.03270225365134, -29.21902106374683, 0.0],
            [-63.02594848455927, -29.22056612828986, 0.0],
            [-63.01751285546409, -29.22063362900303, 0.0],
            [-63.0107593231558, -29.22366463489314, 0.0],
            [-63.00232453159198, -29.2252161205993, 0.0],
            [-62.99895233953891, -29.2252402642484, 0.0],
            [-62.98883277177337, -29.22680261625277, 0.0],
            [-62.98040323765044, -29.22686175967694, 0.0],
            [-62.9702874210244, -29.22693220732097, 0.0],
            [-62.96522718852422, -29.22845810973364, 0.0],
            [-62.958484298325, -29.22850499968152, 0.0],
            [-62.95005598660652, -29.22856315025493, 0.0],
            [-62.94499930048023, -29.22859763476177, 0.0],
            [-62.93320077866273, -29.22867770442698, 0.0],
            [-62.91972000402426, -29.22876406061653, 0.0],
            [-62.91129544258445, -29.22881579003876, 0.0],
            [-62.9028711638457, -29.22886730280481, 0.0],
            [-62.89444715406496, -29.22891805889784, 0.0],
            [-62.88770771228609, -29.23044853215525, 0.0],
            [-62.88096898907299, -29.23048846769058, 0.0],
            [-62.87422987058537, -29.23052901928776, 0.0],
            [-62.86749118336512, -29.23056914722794, 0.0],
            [-62.86075201062607, -29.22911923108694, 0.0],
            [-62.85401346042251, -29.22915874424082, 0.0],
            [-62.84727508650257, -29.22919807765455, 0.0],
            [-62.84053723266069, -29.22923560660755, 0.0],
            [-62.83211690040482, -29.22927823576283, 0.0],
            [-62.82369518969339, -29.22783041948172, 0.0],
            [-62.81695718815801, -29.2263736267146, 0.0],
            [-62.81190298270757, -29.22490832465077, 0.0],
            [-62.80348023089303, -29.22345884300338, 0.0],
            [-62.79674377863377, -29.22349140809679, 0.0],
            [-62.79000709761556, -29.22352384749682, 0.0],
            [-62.7832732198071, -29.22504618320887, 0.0],
            [-62.77654283353277, -29.2280582385358, 0.0],
            [-62.76981338763436, -29.2310692223077, 0.0],
            [-62.76307812652168, -29.23110026413134, 0.0],
            [-62.75634649745247, -29.23262050265926, 0.0],
            [-62.74961567754276, -29.23413834248669, 0.0],
            [-62.73783096562286, -29.23418628487395, 0.0],
            [-62.73278035174584, -29.2342064545745, 0.0],
            [-62.72100001633855, -29.23574202581018, 0.0],
            [-62.7142708754392, -29.23725806040671, 0.0],
            [-62.70753718951609, -29.23728456223096, 0.0],
            [-62.70080875068538, -29.23879987730393, 0.0],
            [-62.69240298706403, -29.24180989165043, 0.0],
            [-62.68399826007045, -29.24481886360891, 0.0],
            [-62.67727765539989, -29.24782057273699, 0.0],
            [-62.67224679357672, -29.25230324435201, 0.0],
            [-62.665534276245, -29.25679065724461, 0.0],
            [-62.66049910634396, -29.25978148311076, 0.0],
            [-62.65378800817731, -29.26426068575968, 0.0],
            [-62.64876901202998, -29.27021922713233, 0.0],
            [-62.64374970846958, -29.27617495251782, 0.0],
            [-62.63872443628306, -29.28064385610964, 0.0],
            [-62.63370720597485, -29.28659570318056, 0.0],
            [-62.62869841332673, -29.2940289724899, 0.0],
            [-62.62536487997743, -29.29997147592252, 0.0],
            [-62.62033587110309, -29.30295087497013, 0.0],
            [-62.61529970904041, -29.30444694663362, 0.0],
            [-62.60858259108485, -29.30594698554862, 0.0],
            [-62.59851152356282, -29.30893742341349, 0.0],
            [-62.58675193452702, -29.31044859599097, 0.0],
            [-62.58171716893055, -29.31194281370546, 0.0],
            [-62.57501019908737, -29.31492209213745, 0.0],
            [-62.56662277284916, -29.3179025585776, 0.0],
            [-62.56328817230943, -29.32235342078771, 0.0],
            [-62.55660191320086, -29.32829047446722, 0.0],
            [-62.55159769773879, -29.33422203082011, 0.0],
            [-62.54659442881805, -29.34015155237066, 0.0],
            [-62.53990220798411, -29.3446026105434, 0.0],
            [-62.53658126238618, -29.35052523166832, 0.0],
            [-62.5298910352125, -29.35497326429964, 0.0],
            [-62.52488070334539, -29.3594147430021, 0.0],
            [-62.51987110538705, -29.36385485870056, 0.0],
            [-62.51318242041683, -29.36829639926214, 0.0],
            [-62.50985390897748, -29.3727312480688, 0.0],
            [-62.50148815297629, -29.37717384345622, 0.0],
            [-62.49815057135287, -29.38013096382274, 0.0],
            [-62.48980788279159, -29.38752138346314, 0.0],
            [-62.48314511393583, -29.39490395602397, 0.0],
            [-62.47814067268884, -29.39933310359131, 0.0],
            [-62.47315958092504, -29.4067086889452, 0.0],
            [-62.46983566596414, -29.4111330475647, 0.0],
            [-62.46146399067004, -29.41408866980579, 0.0],
            [-62.454783950941, -29.41851508332669, 0.0],
            [-62.44642634924563, -29.42294217951138, 0.0],
            [-62.43973618611643, -29.42589387211726, 0.0],
            [-62.4330589358514, -29.4303168425708, 0.0],
            [-62.42638248352337, -29.43473853778909, 0.0],
            [-62.42137265886933, -29.43768608864479, 0.0],
            [-62.41638882949461, -29.44357497014878, 0.0],
            [-62.41139186629763, -29.44799020659533, 0.0],
            [-62.40640819113245, -29.45387390790781, 0.0],
            [-62.4047681857579, -29.45828331836116, 0.0],
            [-62.39979783772608, -29.46563116210765, 0.0],
            [-62.39481531072663, -29.47150801155722, 0.0],
            [-62.39487999338574, -29.47884779299876, 0.0],
            [-62.39493173752921, -29.48471760340118, 0.0],
            [-62.39498340724609, -29.4905855729647, 0.0],
            [-62.39504813135963, -29.49791787034238, 0.0],
            [-62.39509979727333, -29.50378166235415, 0.0],
            [-62.39516442162252, -29.511108782571, 0.0],
            [-62.39520318066276, -29.5155036830876, 0.0],
            [-62.39526779128668, -29.52282625093744, 0.0],
            [-62.39196668828992, -29.52868466023664, 0.0],
            [-62.38697619236152, -29.53307913503288, 0.0],
            [-62.38034849443952, -29.54186135509896, 0.0],
            [-62.38036146724043, -29.54332385810086, 0.0],
            [-62.37374871162693, -29.55356316373835, 0.0],
            [-62.3687870829529, -29.5608739143849, 0.0],
            [-62.36548876558876, -29.56672001867186, 0.0],
            [-62.36220435087755, -29.57402469808755, 0.0],
            [-62.36058245502817, -29.57986588237015, 0.0],
            [-62.35896060606084, -29.58570511523448, 0.0],
            [-62.35566395811809, -29.59154372201513, 0.0],
            [-62.35571777163617, -29.59737848330613, 0.0],
            [-62.35411020026531, -29.60467063604937, 0.0],
            [-62.35413714597032, -29.60758629017348, 0.0],
            [-62.35254357737907, -29.61633176251702, 0.0],
            [-62.35093492561662, -29.62361625234005, 0.0],
            [-62.35099960072154, -29.63089681065465, 0.0],
            [-62.35106430105142, -29.63817471211976, 0.0],
            [-62.34778143073495, -29.64545239598901, 0.0],
            [-62.34449911614581, -29.65272763770779, 0.0],
            [-62.3428905983339, -29.65999896749144, 0.0],
            [-62.34126931803309, -29.66581445675708, 0.0],
            [-62.33461509343272, -29.67017879094083, 0.0],
            [-62.32458772166405, -29.67163824131768, 0.0],
            [-62.31622017879459, -29.67164300397604, 0.0],
            [-62.30952532909272, -29.67164630286348, 0.0],
            [-62.3028300886564, -29.67164934553189, 0.0],
            [-62.29446059248118, -29.67165269879501, 0.0],
            [-62.28609068328733, -29.67165545429344, 0.0],
            [-62.28106848648031, -29.6716568407419, 0.0],
            [-62.27269783397919, -29.67165880225627, 0.0],
            [-62.26934939573623, -29.6716594578797, 0.0],
            [-62.26097779089773, -29.67166073201793, 0.0],
            [-62.2492549548798, -29.67166130940809, 0.0],
            [-62.23249064169466, -29.67020675827517, 0.0],
            [-62.22411459722457, -29.67020536615438, 0.0],
            [-62.21741141677055, -29.67020375961703, 0.0],
            [-62.21238378289256, -29.67020224387119, 0.0],
            [-62.20232775386387, -29.67019881795971, 0.0],
            [-62.19562328170157, -29.67019604652837, 0.0],
            [-62.18556765896587, -29.67019145536293, 0.0],
            [-62.17886533669918, -29.67018813371944, 0.0],
            [-62.17048694260931, -29.6701835380897, 0.0],
            [-62.16378392255244, -29.67017942490205, 0.0],
            [-62.15372868518049, -29.67017265012201, 0.0],
            [-62.14536709894687, -29.67162066027628, 0.0],
            [-62.13698580230226, -29.67161394940069, 0.0],
            [-62.12863707157295, -29.67451452061213, 0.0],
            [-62.12192799454464, -29.6745080665261, 0.0],
            [-62.11184447634789, -29.67304368886263, 0.0],
            [-62.10511489037477, -29.67158216080412, 0.0],
            [-62.09504458346039, -29.67157020667942, 0.0],
            [-62.09000852415591, -29.67156396186436, 0.0],
            [-62.0782376316611, -29.6700939400185, 0.0],
            [-62.06984233268032, -29.67008232842618, 0.0],
            [-62.05976697936127, -29.67006758707101, 0.0],
            [-62.04969008134181, -29.67005200449969, 0.0],
            [-62.04296888902913, -29.67004110415397, 0.0],
            [-62.03624706079847, -29.67002985134883, 0.0],
            [-62.02952472043003, -29.67001826861237, 0.0],
            [-62.0228222614299, -29.67146140178173, 0.0],
            [-62.01609891547141, -29.67144921102392, 0.0],
            [-62.00937559879524, -29.67143658564811, 0.0],
            [-62.0009708593583, -29.67142043394933, 0.0],
            [-61.99426754045563, -29.67286241313913, 0.0],
            [-61.99258640771596, -29.67285903686109, 0.0],
            [-62.02792141043213, -30.16999019364647, 0.0],
            [-62.00810080946835, -30.16940245458694, 0.0],
            [-61.98418026938617, -30.17409769972723, 0.0],
            [-61.96033530039031, -30.17366132427843, 0.0],
            [-61.93634549583081, -30.18347153647018, 0.0],
            [-61.91250769558162, -30.1830254820987, 0.0],
            [-61.88859738203278, -30.1876997455263, 0.0],
            [-61.85882456325243, -30.18713648654269, 0.0],
            [-61.8349391341618, -30.19181094222564, 0.0],
            [-61.81105645887514, -30.19648050860004, 0.0],
            [-61.78717505636801, -30.20114516325468, 0.0],
            [-61.76329506148177, -30.20580450550484, 0.0],
            [-61.73950466268419, -30.20533650897857, 0.0],
            [-61.72157576180555, -30.21010473137211, 0.0],
            [-61.69185219851038, -30.20951339880314, 0.0],
            [-61.66790680137537, -30.21928536179074, 0.0],
            [-61.63820850812811, -30.2186914494714, 0.0],
            [-61.61435908109199, -30.22333182089482, 0.0],
            [-61.59051045069561, -30.22796755100821, 0.0],
            [-61.56666291574088, -30.23259820116481, 0.0],
            [-61.54291691812379, -30.23210418940397, 0.0],
            [-61.5249133020386, -30.24197455725828, 0.0],
            [-61.50108571104535, -30.24660684013332, 0.0],
            [-61.4713293528289, -30.25110930925021, 0.0],
            [-61.44167722036122, -30.2504826888796, 0.0],
            [-61.417749955, -30.26022005737839, 0.0],
            [-61.39392640905518, -30.26483051325753, 0.0],
            [-61.3701027539228, -30.26943624619847, 0.0],
            [-61.34628084890749, -30.27403912824185, 0.0],
            [-61.31654564654222, -30.27851871842595, 0.0],
            [-61.29273539327601, -30.28312146745626, 0.0],
            [-61.26311673862022, -30.28246718927976, 0.0],
            [-61.23930773882361, -30.28705943395815, 0.0],
            [-61.21585597276254, -30.27628672754276, 0.0],
            [-61.21633181377792, -30.25580913072199, 0.0],
            [-61.21680786463878, -30.23533445406403, 0.0],
            [-61.21729339718129, -30.21487349677064, 0.0],
            [-61.21186749078703, -30.19428504780119, 0.0],
            [-61.20053190617038, -30.17356693645572, 0.0],
            [-61.19511356985043, -30.15298430843387, 0.0],
            [-61.18378964428152, -30.13227202549713, 0.0],
            [-61.17247269332011, -30.11156256001038, 0.0],
            [-61.16707006600989, -30.09099435710075, 0.0],
            [-61.15577094432026, -30.07029681484333, 0.0],
            [-61.13204511994545, -30.07488350655663, 0.0],
            [-61.10254905083423, -30.07422478061226, 0.0],
            [-61.09114240103563, -30.05863468469679, 0.0],
            [-61.09181092293439, -30.03311129707343, 0.0],
            [-61.09247820701913, -30.00759072857768, 0.0],
            [-61.09314440496599, -29.98207300465742, 0.0],
            [-61.09367753389868, -29.96166094661926, 0.0],
            [-61.09420659285301, -29.94124774299635, 0.0],
            [-61.09473627724659, -29.92083620514087, 0.0],
            [-61.09526480750167, -29.90042656630832, 0.0],
            [-61.09579504176678, -29.88002023575991, 0.0],
            [-61.09647027626942, -29.85452429948739, 0.0],
            [-61.08524605223506, -29.83386762842273, 0.0],
            [-61.08605948379596, -29.80327845659286, 0.0],
            [-61.08058710938036, -29.78785460177797, 0.0],
            [-61.08112983481807, -29.76746456879059, 0.0],
            [-61.08167272037604, -29.74707617779211, 0.0],
            [-61.08207938104152, -29.73178579211027, 0.0],
            [-61.0768837233472, -29.70617446759664, 0.0],
            [-61.07757639616044, -29.68070219323125, 0.0],
            [-61.07826840327275, -29.65523161671493, 0.0],
            [-61.07896004246568, -29.62976210969532, 0.0],
            [-61.07951495935823, -29.60938628840402, 0.0],
            [-61.08006845223819, -29.5890132636816, 0.0],
            [-61.08062193838317, -29.56864097377821, 0.0],
            [-61.08117444444494, -29.54826994849999, 0.0],
            [-61.08172601735729, -29.52789792292428, 0.0],
            [-61.07056927355264, -29.50727637100129, 0.0],
            [-61.07113458901127, -29.48690996373634, 0.0],
            [-61.0658426981061, -29.46641695082069, 0.0],
            [-61.06055313355463, -29.44592473103014, 0.0],
            [-61.05526596205638, -29.42543421583859, 0.0],
            [-61.05583360296661, -29.40507078922697, 0.0],
            [-61.0505493650104, -29.38458141031875, 0.0],
            [-61.04526764543817, -29.36409281664092, 0.0],
            [-61.04584227581619, -29.34373126069909, 0.0],
            [-61.04057423388367, -29.32324295960476, 0.0],
            [-61.03531113619258, -29.30275248584416, 0.0],
            [-61.03589290123494, -29.28239184722263, 0.0],
            [-61.03062998577057, -29.26190536886216, 0.0],
            [-61.02536933783522, -29.24141874654507, 0.0],
            [-61.02011082551674, -29.22093252381591, 0.0],
            [-61.02084088973822, -29.19548229704496, 0.0],
            [-61.02142785431875, -29.17512161920068, 0.0],
            [-61.01618371461932, -29.15463321836613, 0.0],
            [-61.01677872262357, -29.13426938107337, 0.0],
            [-61.00570183935381, -29.11365517998442, 0.0],
            [-61.00614889293125, -29.09838170096451, 0.0],
            [-61.00106123758314, -29.07280101674744, 0.0],
            [-60.99597582983728, -29.04721992315419, 0.0],
            [-60.99104413216858, -29.01654667048, 0.0],
            [-60.98581823319505, -28.99605041204261, 0.0],
            [-60.98060056997505, -28.97555304386341, 0.0],
            [-60.97538563121147, -28.9550552259837, 0.0],
            [-60.97032545181553, -28.92946323294732, 0.0],
            [-60.96511451735396, -28.9089634125882, 0.0],
            [-60.96587915508237, -28.88349440602338, 0.0],
            [-60.96067094395255, -28.86299249999805, 0.0],
            [-60.95546473821365, -28.84248939968089, 0.0],
            [-60.95042018335364, -28.81688642523468, 0.0],
            [-60.9510424170203, -28.79650004669237, 0.0],
            [-60.94584979847696, -28.77598702775492, 0.0],
            [-60.94065850215306, -28.75547157916166, 0.0],
            [-60.93546850470395, -28.73495450390736, 0.0],
            [-60.93028037150204, -28.71443582427446, 0.0],
            [-60.92509394578106, -28.693916195186, 0.0],
            [-60.92587603513715, -28.66842097410283, 0.0],
            [-60.92053563428268, -28.65299762202525, 0.0],
            [-60.90955162796825, -28.63233946444439, 0.0],
            [-60.91002888820192, -28.61703298727959, 0.0],
            [-60.91082399052049, -28.59151923164141, 0.0],
            [-60.90549521569701, -28.57608441444683, 0.0],
            [-60.90629053221387, -28.55056509388664, 0.0],
            [-60.90128287026531, -28.52491670975999, 0.0],
            [-60.89611687346229, -28.5043707094521, 0.0],
            [-60.890952722222, -28.48382304975544, 0.0],
            [-60.88579373101379, -28.4632658805668, 0.0],
            [-60.88080217047821, -28.43759275680377, 0.0],
            [-60.86985459418723, -28.41689729438222, 0.0],
            [-60.8705030142814, -28.39645410290324, 0.0],
            [-60.86535421081512, -28.37588240488359, 0.0],
            [-60.86036922204768, -28.35019563567312, 0.0],
            [-60.85522304920751, -28.32961825653413, 0.0],
            [-60.84428387336802, -28.30891294036229, 0.0],
            [-60.83914124424078, -28.28832182652534, 0.0],
            [-60.83980048231168, -28.26784861891704, 0.0],
            [-60.8229172769448, -28.25211343803895, 0.0],
            [-60.80025299654163, -28.23624015115747, 0.0],
            [-60.77742831211589, -28.22547877966882, 0.0],
            [-60.75477432411638, -28.20959332288834, 0.0],
            [-60.74386924798012, -28.18884578898714, 0.0],
            [-60.74470583381073, -28.16323789511214, 0.0],
            [-60.74554277606458, -28.13762495961238, 0.0],
            [-60.75199716603345, -28.11725688220434, 0.0],
            [-60.75267127941774, -28.09674405875351, 0.0],
            [-60.75334542388596, -28.07622729918743, 0.0],
            [-60.75401772245611, -28.05570556477054, 0.0],
            [-60.75469189646187, -28.03518061151983, 0.0],
            [-60.75553433299019, -28.00951985151335, 0.0],
            [-61.67811351367067, -28.010217964222, 0.0]
          ]
        ]
      }
    },
    {
      "type": "Feature",
      "properties": {
        "Name": "MORTEROS",
        "description": null
      },
      "geometry": {
        "type": "Polygon",
        "coordinates": [
          [
            [-62.06608605389958, -30.19810702555085, 0.0],
            [-62.07452369198827, -30.2121579696953, 0.0],
            [-62.08670254399816, -30.22613462225997, 0.0],
            [-62.09885591291656, -30.24007341379333, 0.0],
            [-62.10723395694728, -30.25401665379193, 0.0],
            [-62.11559817099439, -30.26793224290918, 0.0],
            [-62.12394847042021, -30.28182047951142, 0.0],
            [-62.13228483201073, -30.29568124278548, 0.0],
            [-62.1368712247179, -30.30956274519929, 0.0],
            [-62.1414501088101, -30.32341744470989, 0.0],
            [-62.14975133404002, -30.33719636243862, 0.0],
            [-62.1505849963883, -30.35104582089943, 0.0],
            [-62.15907150137484, -30.36822280459495, 0.0],
            [-62.16361610631239, -30.38196409965181, 0.0],
            [-62.16815340487331, -30.39567886218477, 0.0],
            [-62.18011097230148, -30.40926784427339, 0.0],
            [-62.18461910991929, -30.42291219334976, 0.0],
            [-62.192827503787, -30.43647954599201, 0.0],
            [-62.19731803726351, -30.45007137997557, 0.0],
            [-62.20019281401952, -30.48482196452981, 0.0],
            [-62.20001292648172, -30.49110812475367, 0.0],
            [-62.20321065106688, -30.50379702167267, 0.0],
            [-62.20285040813627, -30.51635621130855, 0.0],
            [-62.20240024196143, -30.53204473852578, 0.0],
            [-62.2020403347632, -30.54458736989018, 0.0],
            [-62.19812553919138, -30.55700105719701, 0.0],
            [-62.19421350692834, -30.56940978721488, 0.0],
            [-62.1866587085317, -30.58481822001394, 0.0],
            [-62.18274090533063, -30.59719562571201, 0.0],
            [-62.17518011418929, -30.61256531209898, 0.0],
            [-62.17481699391124, -30.62504735301319, 0.0],
            [-62.17436329389023, -30.64064018731743, 0.0],
            [-62.1811024208174, -30.6533487621211, 0.0],
            [-62.18401584115782, -30.67526905153655, 0.0],
            [-62.19075052160531, -30.68795680517389, 0.0],
            [-62.19038548690876, -30.7003968358837, 0.0],
            [-62.19338605520661, -30.71916380783931, 0.0],
            [-62.19302079907858, -30.7315864704019, 0.0],
            [-62.19265562992003, -30.74400226199795, 0.0],
            [-62.19219935697871, -30.75951222793399, 0.0],
            [-62.19183157940435, -30.7719083656614, 0.0],
            [-62.1912798412114, -30.79048903483605, 0.0],
            [-62.19082014860358, -30.80596120942829, 0.0],
            [-62.19753996379546, -30.81856837702712, 0.0],
            [-62.20062242679066, -30.83413960949386, 0.0],
            [-62.18971782197985, -30.84305125006317, 0.0],
            [-62.17191221787541, -30.8455459328527, 0.0],
            [-62.16464453144532, -30.85148316398109, 0.0],
            [-62.17872351198002, -30.85504564217531, 0.0],
            [-62.19280076074021, -30.8586057669579, 0.0],
            [-62.21041789459889, -30.86228132841795, 0.0],
            [-62.22458417266602, -30.86275145111513, 0.0],
            [-62.23865077706436, -30.86629650258615, 0.0],
            [-62.25634860026194, -30.86686773635244, 0.0],
            [-62.27050624021734, -30.86732285585856, 0.0],
            [-62.2882027366858, -30.86788969804243, 0.0],
            [-62.305898379342, -30.86845405409547, 0.0],
            [-62.3201509608825, -30.86581895258005, 0.0],
            [-62.33440517547467, -30.86318481604646, 0.0],
            [-62.34856431405944, -30.86363767269048, 0.0],
            [-62.36272271864074, -30.86408889420797, 0.0],
            [-62.37688055202911, -30.86453867158718, 0.0],
            [-62.3910376328739, -30.8649869332421, 0.0],
            [-62.40873130635191, -30.86554145718536, 0.0],
            [-62.42995908945627, -30.86619511897606, 0.0],
            [-62.44411049512686, -30.86662877029557, 0.0],
            [-62.46533679883115, -30.86727671566783, 0.0],
            [-62.47594964766186, -30.86759932178456, 0.0],
            [-62.49363717461208, -30.86813494645271, 0.0],
            [-62.511324078081, -30.86866785682504, 0.0],
            [-62.52911463491897, -30.86611524668394, 0.0],
            [-62.54336843350863, -30.86345439887853, 0.0],
            [-62.55762273608533, -30.8607919873393, 0.0],
            [-62.57541511898167, -30.85823210645809, 0.0],
            [-62.58956279873553, -30.85864282272117, 0.0],
            [-62.60724682721651, -30.85915157478081, 0.0],
            [-62.62128654202102, -30.86264066232647, 0.0],
            [-62.63510930633467, -30.87229370661304, 0.0],
            [-62.64185777068376, -30.88174010723794, 0.0],
            [-62.63092682786031, -30.89068014490951, 0.0],
            [-62.61656965731488, -30.89643609409605, 0.0],
            [-62.60221490633174, -30.90218848241896, 0.0],
            [-62.58754309023215, -30.91716942163912, 0.0],
            [-62.59086503592441, -30.9234231357203, 0.0],
            [-62.60864369758899, -30.92085425603987, 0.0],
            [-62.62299605493575, -30.91510580063851, 0.0],
            [-62.63724214649345, -30.91243172887674, 0.0],
            [-62.65159751777507, -30.9066781280746, 0.0],
            [-62.66573710463367, -30.9070778993034, 0.0],
            [-62.67998592536386, -30.90439821593476, 0.0],
            [-62.69423561258181, -30.90171663523548, 0.0],
            [-62.70870700155479, -30.89287418106838, 0.0],
            [-62.72295951522672, -30.89018828862808, 0.0],
            [-62.73389989171042, -30.8812402306617, 0.0],
            [-62.74826685587878, -30.87546800277765, 0.0],
            [-62.76252359513544, -30.87277071437058, 0.0],
            [-62.77678140107475, -30.87006907055455, 0.0],
            [-62.79104037365738, -30.86736580921119, 0.0],
            [-62.80541428615092, -30.86157621269329, 0.0],
            [-62.81648166201493, -30.84951848336695, 0.0],
            [-62.83086065095194, -30.84372144760354, 0.0],
            [-62.84820366745618, -30.85344763131143, 0.0],
            [-62.85493107603791, -30.86288839575261, 0.0],
            [-62.87215218677945, -30.87568614711699, 0.0],
            [-62.87899259267521, -30.88203531565251, 0.0],
            [-62.88913466632172, -30.89463612547234, 0.0],
            [-62.89950824931783, -30.90107077179658, 0.0],
            [-62.9096456044805, -30.91365994389886, 0.0],
            [-62.91989792735953, -30.92316517128812, 0.0],
            [-62.9336832031053, -30.93275406555367, 0.0],
            [-62.95088539778288, -30.94549422452913, 0.0],
            [-62.96125193982201, -30.95190270646449, 0.0],
            [-62.97856671241375, -30.96155482513698, 0.0],
            [-62.98904989786013, -30.96488807155602, 0.0],
            [-63.00282680996532, -30.97444439774837, 0.0],
            [-63.01660156130816, -30.98399604440214, 0.0],
            [-63.02684061093465, -30.99345597818269, 0.0],
            [-63.04036917052534, -31.00912678151368, 0.0],
            [-63.05048248337246, -31.02163822295342, 0.0],
            [-63.06753589471376, -31.03737477784433, 0.0],
            [-63.07435596360384, -31.04366599695022, 0.0],
            [-63.09128011446651, -31.06244330260027, 0.0],
            [-63.09797433488329, -31.07178369797529, 0.0],
            [-63.1148933063701, -31.09053258803447, 0.0],
            [-63.12158604001569, -31.09985815077716, 0.0],
            [-63.13168407395086, -31.11231499582853, 0.0],
            [-63.13837733458652, -31.12162794773993, 0.0],
            [-63.15200758194539, -31.13414804223465, 0.0],
            [-63.16563536028355, -31.146661239283, 0.0],
            [-63.17585486537011, -31.15604162722046, 0.0],
            [-63.18960263681625, -31.16549898775229, 0.0],
            [-63.20334866028429, -31.17495176919616, 0.0],
            [-63.21368849262804, -31.18127800594663, 0.0],
            [-63.22377683533577, -31.19368366466453, 0.0],
            [-63.22680463326769, -31.20592303378744, 0.0],
            [-63.2333608707116, -31.21823636617462, 0.0],
            [-63.23638712730979, -31.23046378412847, 0.0],
            [-63.24294080798982, -31.24276498092873, 0.0],
            [-63.25289481211668, -31.25817305946385, 0.0],
            [-63.25969786733795, -31.26439698175022, 0.0],
            [-63.26977465504019, -31.27676063765148, 0.0],
            [-63.27997639125407, -31.28608868598393, 0.0],
            [-63.29005858969231, -31.2984346266036, 0.0],
            [-63.30026826906708, -31.30774914389495, 0.0],
            [-63.31047547289679, -31.31705887823732, 0.0],
            [-63.32068143395556, -31.32636472635421, 0.0],
            [-63.32723158967074, -31.33861171409764, 0.0],
            [-63.33378195595034, -31.35085442458339, 0.0],
            [-63.33327740398804, -31.36293711572737, 0.0],
            [-63.33617326041819, -31.37810999547441, 0.0],
            [-63.3355421783406, -31.39319685456073, 0.0],
            [-63.33503772980308, -31.40526020460625, 0.0],
            [-63.33453327650876, -31.41731811560428, 0.0],
            [-63.33402872801096, -31.42937024009792, 0.0],
            [-63.32987390611497, -31.44435020412407, 0.0],
            [-63.32244799197213, -31.45322458652647, 0.0],
            [-63.31829840473203, -31.46818918232103, 0.0],
            [-63.31063478302707, -31.48306414234471, 0.0],
            [-63.29945021959053, -31.497850693285, 0.0],
            [-63.29203651538321, -31.50670281012221, 0.0],
            [-63.2772151731328, -31.52439654575602, 0.0],
            [-63.2661658788461, -31.5361569417832, 0.0],
            [-63.25499683237049, -31.55090878566565, 0.0],
            [-63.2474710429049, -31.56273594475874, 0.0],
            [-63.23994680319195, -31.57455762076621, 0.0],
            [-63.23242406340057, -31.58637352992567, 0.0],
            [-63.22466014018906, -31.60416839287452, 0.0],
            [-63.22077891246, -31.61306112991328, 0.0],
            [-63.21689851810004, -31.62195090878235, 0.0],
            [-63.20938057133751, -31.63374466911694, 0.0],
            [-63.20186625984627, -31.64553289239048, 0.0],
            [-63.19775410498157, -31.66038409221719, 0.0],
            [-63.18684943694036, -31.66909247110222, 0.0],
            [-63.17934274618177, -31.68086404784393, 0.0],
            [-63.17183743574936, -31.69263029681519, 0.0],
            [-63.16433316448316, -31.70439119353211, 0.0],
            [-63.15683033335713, -31.7161468638615, 0.0],
            [-63.14932876312781, -31.72789697594022, 0.0],
            [-63.14182844824614, -31.73964166497029, 0.0],
            [-63.13081576968023, -31.75129655044867, 0.0],
            [-63.11980541646292, -31.76294539503797, 0.0],
            [-63.10867938543304, -31.77756208455299, 0.0],
            [-63.10130343381607, -31.78631206242074, 0.0],
            [-63.09369483226259, -31.80100169451056, 0.0],
            [-63.08246055324211, -31.81856709548078, 0.0],
            [-63.07509267711816, -31.82730462434235, 0.0],
            [-63.07100418793216, -31.84206210629964, 0.0],
            [-63.06703214665817, -31.8538458283085, 0.0],
            [-63.0629451801142, -31.86859058264215, 0.0],
            [-63.05558000305471, -31.87731272573306, 0.0],
            [-63.04798509430843, -31.89195916481366, 0.0],
            [-63.04062154886515, -31.90067409616369, 0.0],
            [-63.03665263780979, -31.91243460595069, 0.0],
            [-63.02917607531442, -31.92410376472309, 0.0],
            [-63.02170010733727, -31.9357673065139, 0.0],
            [-63.01399574773956, -31.95334160574702, 0.0],
            [-63.01014407532178, -31.96212490534047, 0.0],
            [-63.00255638181191, -31.97672858688038, 0.0],
            [-62.99497001252256, -31.99132473061206, 0.0],
            [-62.99112125607332, -32.00009983947855, 0.0],
            [-62.98014688186317, -32.01164868384093, 0.0],
            [-62.96928684474583, -32.0202400712807, 0.0],
            [-62.95831411202596, -32.03177909048553, 0.0],
            [-62.94745610655456, -32.04036289909779, 0.0],
            [-62.93309293160807, -32.04885295852823, 0.0],
            [-62.91884535785599, -32.05439441618016, 0.0],
            [-62.90459874858301, -32.05993336221746, 0.0],
            [-62.8939707774653, -32.06261153990802, 0.0],
            [-62.87972558142989, -32.06814599810762, 0.0],
            [-62.86898609922871, -32.0737690901066, 0.0],
            [-62.85463043366407, -32.08224560645596, 0.0],
            [-62.84038761599625, -32.08777242857433, 0.0],
            [-62.82275278921715, -32.09025837084413, 0.0],
            [-62.80851125833344, -32.09578013228765, 0.0],
            [-62.79438202355777, -32.09835424804209, 0.0],
            [-62.77685986378032, -32.09788797684783, 0.0],
            [-62.76284251317801, -32.09751313709577, 0.0],
            [-62.74882512202951, -32.09713847076454, 0.0],
            [-62.73480777055459, -32.09676515805076, 0.0],
            [-62.7207904995242, -32.09639049550983, 0.0],
            [-62.70688349853985, -32.09306859364707, 0.0],
            [-62.69308626157958, -32.08679877643681, 0.0],
            [-62.67917812347947, -32.08347321014755, 0.0],
            [-62.6651596082886, -32.08309207322203, 0.0],
            [-62.65114106955798, -32.08270952866321, 0.0],
            [-62.63712218605555, -32.08232541495818, 0.0],
            [-62.62299380176556, -32.08488637032086, 0.0],
            [-62.60886547231804, -32.08744539833867, 0.0],
            [-62.59473736580341, -32.0900027719739, 0.0],
            [-62.58060961861011, -32.09255841577683, 0.0],
            [-62.55947044821801, -32.09492211661849, 0.0],
            [-62.55246009676886, -32.09472757128729, 0.0],
            [-62.53833021280668, -32.09728273634306, 0.0],
            [-62.52430888871704, -32.09689101527565, 0.0],
            [-62.50667340071138, -32.09934440530323, 0.0],
            [-62.49615678257829, -32.09904826350213, 0.0],
            [-62.48202650846063, -32.10159698950829, 0.0],
            [-62.46800400182778, -32.10119900100241, 0.0],
            [-62.45387337475338, -32.10374457513695, 0.0],
            [-62.4395273718802, -32.11217734557779, 0.0],
            [-62.42178368961316, -32.11756238309821, 0.0],
            [-62.40425458608689, -32.11705670572631, 0.0],
            [-62.38321342624109, -32.11645439318643, 0.0],
            [-62.37609217253488, -32.11919690843742, 0.0],
            [-62.35494178478906, -32.1215342237798, 0.0],
            [-62.34091178443165, -32.1211281813974, 0.0],
            [-62.31954642945066, -32.12934728280002, 0.0],
            [-62.30540890423523, -32.13188084002092, 0.0],
            [-62.28765692467098, -32.13725275076971, 0.0],
            [-62.27001051627644, -32.1396791136635, 0.0],
            [-62.25597765974766, -32.1392643666906, 0.0],
            [-62.24183835707949, -32.14179056105144, 0.0],
            [-62.22418988255416, -32.14421117351321, 0.0],
            [-62.21004877006998, -32.14673480679374, 0.0],
            [-62.19590682766722, -32.14925685897964, 0.0],
            [-62.18165969483319, -32.15471893871558, 0.0],
            [-62.17134153350118, -32.14851763089291, 0.0],
            [-62.17878048976173, -32.1369583694558, 0.0],
            [-62.18972937861245, -32.12550081077367, 0.0],
            [-62.1936595465926, -32.11382774444676, 0.0],
            [-62.19758996611692, -32.10215084349657, 0.0],
            [-62.19811606864642, -32.08741704188245, 0.0],
            [-62.19853694866193, -32.07562552763183, 0.0],
            [-62.19895788063445, -32.06382994514497, 0.0],
            [-62.19235808417817, -32.05181812093367, 0.0],
            [-62.18575750660775, -32.03980147748532, 0.0],
            [-62.17915548313644, -32.0277805459977, 0.0],
            [-62.17616877797802, -32.01290828802775, 0.0],
            [-62.17648354949158, -32.00404592489168, 0.0],
            [-62.18030954140829, -31.99528840640039, 0.0],
            [-62.18774729191567, -31.98368279086453, 0.0],
            [-62.17666491157778, -31.97874459454467, 0.0],
            [-62.17941192013509, -31.96759911763861, 0.0],
            [-62.18556910220887, -31.95638278671792, 0.0],
            [-62.1883258744278, -31.94520491452255, 0.0],
            [-62.19108629401733, -31.9340105919798, 0.0],
            [-62.19710178877326, -31.91995354829232, 0.0],
            [-62.20003229192186, -31.91151822014458, 0.0],
            [-62.20280466313071, -31.90027570019707, 0.0],
            [-62.20558015451046, -31.88901695023257, 0.0],
            [-62.2116204821303, -31.87487906065352, 0.0],
            [-62.21456435789599, -31.86639548488243, 0.0],
            [-62.21392666414585, -31.85514369147746, 0.0],
            [-62.213288301628, -31.84387569141021, 0.0],
            [-62.21248923938813, -31.82976757988359, 0.0],
            [-62.21544047791673, -31.8212350112352, 0.0],
            [-62.21806843947192, -31.80703245410839, 0.0],
            [-62.22413691235556, -31.79274886257808, 0.0],
            [-62.23053164498258, -31.78412236163324, 0.0],
            [-62.23333403770528, -31.7726975675434, 0.0],
            [-62.23598136506682, -31.75840680727061, 0.0],
            [-62.23550579248489, -31.74985296598466, 0.0],
            [-62.2383163996445, -31.73837758788889, 0.0],
            [-62.23752441020058, -31.72407886074251, 0.0],
            [-62.23704865241871, -31.71548690740333, 0.0],
            [-62.2364136080784, -31.70401603796676, 0.0],
            [-62.23232396629499, -31.69258329057266, 0.0],
            [-62.22493305870987, -31.68406736717835, 0.0],
            [-62.21407455891522, -31.67559501807635, 0.0],
            [-62.19990971135645, -31.6700494433995, 0.0],
            [-62.1854005269192, -31.65872537893414, 0.0],
            [-62.17450599893354, -31.65021970223972, 0.0],
            [-62.16377141149885, -31.64459629593936, 0.0],
            [-62.1495621893666, -31.63901973383214, 0.0],
            [-62.13863117692078, -31.63048722685861, 0.0],
            [-62.13445279677871, -31.61893706534317, 0.0],
            [-62.13026923470213, -31.60736882093937, 0.0],
            [-62.1260799274405, -31.59578277027074, 0.0],
            [-62.12188534305439, -31.58417867538232, 0.0],
            [-62.11402388100738, -31.56968660624993, 0.0],
            [-62.1099973873087, -31.56096748230541, 0.0],
            [-62.10560133473002, -31.54637870820347, 0.0],
            [-62.10156542675666, -31.53763207966405, 0.0],
            [-62.0973413293779, -31.52593710417077, 0.0],
            [-62.08906254931437, -31.50543962891114, 0.0],
            [-62.08850515856646, -31.49659564275418, 0.0],
            [-62.08057737304246, -31.48193152627605, 0.0],
            [-62.07963807483612, -31.46713856894364, 0.0],
            [-62.07499204965703, -31.44939596448891, 0.0],
            [-62.07052805631258, -31.43458475805927, 0.0],
            [-62.06975737650416, -31.42267554999647, 0.0],
            [-62.06527951202077, -31.40781168496921, 0.0],
            [-62.060599665233, -31.38992593697377, 0.0],
            [-62.05669229953817, -31.38398695282485, 0.0],
            [-62.05239011205764, -31.37204576901439, 0.0],
            [-62.04788365003155, -31.35707985679244, 0.0],
            [-62.04336899221079, -31.34208330424696, 0.0],
            [-62.03531568197208, -31.3271034776083, 0.0],
            [-62.02765077494313, -31.31813823342702, 0.0],
            [-62.02310904906621, -31.30306217471342, 0.0],
            [-62.01876231462246, -31.29098875889247, 0.0],
            [-62.01440307987031, -31.27889254229284, 0.0],
            [-62.00649322582941, -31.26682141701477, 0.0],
            [-62.00211823715457, -31.25468425013664, 0.0],
            [-61.99397924671074, -31.23951853696508, 0.0],
            [-61.98603709233663, -31.22738077123022, 0.0],
            [-61.98184995527619, -31.21824172214926, 0.0],
            [-61.97388956307355, -31.20606794521381, 0.0],
            [-61.96947656971408, -31.19382953609226, 0.0],
            [-61.96505663500581, -31.1815704920594, 0.0],
            [-61.96063060474237, -31.16929074437711, 0.0],
            [-61.95933173484443, -31.15076843752993, 0.0],
            [-61.95489401575446, -31.13843810451308, 0.0],
            [-61.95380498810104, -31.12294309309943, 0.0],
            [-61.9455563004323, -31.10749796418687, 0.0],
            [-61.94444408116731, -31.0919298795131, 0.0],
            [-61.93974685667704, -31.07637150849365, 0.0],
            [-61.93549063414212, -31.06703766141015, 0.0],
            [-61.93122988137041, -31.0576914316941, 0.0],
            [-61.93032762838286, -31.04515618968905, 0.0],
            [-61.92583220147196, -31.03264115830448, 0.0],
            [-61.92133024006588, -31.02010514409052, 0.0],
            [-61.91659341766567, -31.00439436429062, 0.0],
            [-61.9123072861204, -30.99496831335454, 0.0],
            [-61.9077860722564, -30.98236783680673, 0.0],
            [-61.90302698266958, -30.96657679837148, 0.0],
            [-61.89825755796081, -30.95075084300913, 0.0],
            [-61.89709012198402, -30.93485034738995, 0.0],
            [-61.89253060256201, -30.92213685619846, 0.0],
            [-61.88796362420177, -30.90940094995767, 0.0],
            [-61.88315057117706, -30.89344007462218, 0.0],
            [-61.8824322294249, -30.88382366700612, 0.0],
            [-61.87784783401029, -30.87102110784963, 0.0],
            [-61.87301347942939, -30.85497556343524, 0.0],
            [-61.8684110773642, -30.84211932995782, 0.0],
            [-61.86404564112972, -30.83247082700468, 0.0],
            [-61.85918574863823, -30.81633852647732, 0.0],
            [-61.85480871118346, -30.80665600933682, 0.0],
            [-61.85017990026796, -30.7937144322703, 0.0],
            [-61.84869711657481, -30.77420810781534, 0.0],
            [-61.84405483680111, -30.76120925669034, 0.0],
            [-61.82944806998558, -30.76134306483891, 0.0],
            [-61.81483925416691, -30.7614755835141, 0.0],
            [-61.80048528113842, -30.76486724614385, 0.0],
            [-61.7861343097525, -30.76825598221712, 0.0],
            [-61.7683972362477, -30.77493100334329, 0.0],
            [-61.75405606882551, -30.77831313426804, 0.0],
            [-61.7397182531653, -30.78169247155875, 0.0],
            [-61.725113899374, -30.78181565527828, 0.0],
            [-61.70320445704042, -30.78199790325813, 0.0],
            [-61.68492966241302, -30.7821354201295, 0.0],
            [-61.66664750511214, -30.78226757299674, 0.0],
            [-61.64470422748897, -30.78242267265613, 0.0],
            [-61.63373084232696, -30.78249860996246, 0.0],
            [-61.61880786506065, -30.77934202207881, 0.0],
            [-61.60416973525201, -30.77944025020971, 0.0],
            [-61.5822085393015, -30.77958437281844, 0.0],
            [-61.5602423996518, -30.77972508110048, 0.0],
            [-61.5422371918546, -30.78309771559585, 0.0],
            [-61.52423537984714, -30.78646672483355, 0.0],
            [-61.50957069910375, -30.78654237104022, 0.0],
            [-61.49154913379246, -30.78989140294386, 0.0],
            [-61.4735333623793, -30.79323912911827, 0.0],
            [-61.45918645183428, -30.79656553943268, 0.0],
            [-61.44117604479128, -30.7999072390344, 0.0],
            [-61.42316850617371, -30.80324565635619, 0.0],
            [-61.41216915817565, -30.80329656476013, 0.0],
            [-61.3901661057076, -30.80339600789175, 0.0],
            [-61.37549431290969, -30.80346026562925, 0.0],
            [-61.3601474861467, -30.79701496443497, 0.0],
            [-61.35145453745923, -30.78401297080553, 0.0],
            [-61.34976161276954, -30.76769075656674, 0.0],
            [-61.3477017889656, -30.74804224538111, 0.0],
            [-61.34597117646327, -30.73162137401476, 0.0],
            [-61.34089278306221, -30.71846908827904, 0.0],
            [-61.33915275933555, -30.70198247235609, 0.0],
            [-61.33441001124348, -30.69208230633991, 0.0],
            [-61.32931107210061, -30.67885773653292, 0.0],
            [-61.32420409837473, -30.66560902476525, 0.0],
            [-61.32209046317049, -30.6456779582113, 0.0],
            [-61.31590601838388, -30.62236525011541, 0.0],
            [-61.31077213487076, -30.60901337332469, 0.0],
            [-61.30970497311414, -30.59897845967626, 0.0],
            [-61.30828025939765, -30.58557706971239, 0.0],
            [-61.30274654869748, -30.56877863477096, 0.0],
            [-61.30056609843925, -30.54856289615763, 0.0],
            [-61.29647253811504, -30.54519310049058, 0.0],
            [-61.29464644390016, -30.52829542388896, 0.0],
            [-61.28944697138904, -30.51475401759235, 0.0],
            [-61.28724342786171, -30.49438869459156, 0.0],
            [-61.28239681190834, -30.4841883231503, 0.0],
            [-61.27680411839728, -30.46715320828665, 0.0],
            [-61.27119998774617, -30.45007807699604, 0.0],
            [-61.27008414517477, -30.4398129620512, 0.0],
            [-61.26409099632756, -30.41924118634296, 0.0],
            [-61.26296697884936, -30.40893154226362, 0.0],
            [-61.26144716886255, -30.3951467628317, 0.0],
            [-61.25539539986751, -30.37442114998043, 0.0],
            [-61.24101323806889, -30.34669168080427, 0.0],
            [-61.23569310243992, -30.33278687840274, 0.0],
            [-61.23491919925381, -30.32582553863516, 0.0],
            [-61.24024215272823, -30.33974358534751, 0.0],
            [-61.24594068472366, -30.35710279084959, 0.0],
            [-61.25086198202245, -30.36749867395639, 0.0],
            [-61.26068629080221, -30.38824484213772, 0.0],
            [-61.26182727535269, -30.39859547283308, 0.0],
            [-61.26710210549079, -30.41236988602495, 0.0],
            [-61.26933943351025, -30.43296159680986, 0.0],
            [-61.27119998774617, -30.45007807699604, 0.0],
            [-61.27305703074758, -30.46715568018036, 0.0],
            [-61.27079565943291, -30.48079196156671, 0.0],
            [-61.26890912704781, -30.49780293998919, 0.0],
            [-61.27039302549742, -30.51138210311737, 0.0],
            [-61.27187373745322, -30.52493545357921, 0.0],
            [-61.27409050116474, -30.54521945705028, 0.0],
            [-61.27703813838186, -30.57217916273017, 0.0],
            [-61.27814127855054, -30.58226375489908, 0.0],
            [-61.27814127855054, -30.58226375489908, 0.0],
            [-61.26921816788676, -30.56882392292231, 0.0],
            [-61.26363921845974, -30.5519810262453, 0.0],
            [-61.2546881060819, -30.53848283919672, 0.0],
            [-61.24609726766705, -30.52834289455997, 0.0],
            [-61.24422124553118, -30.51140164402867, 0.0],
            [-61.23935200957132, -30.50122016548652, 0.0],
            [-61.23784381913008, -30.48762048916636, 0.0],
            [-61.22807858987446, -30.4671756122807, 0.0],
            [-61.22655799348568, -30.45351232635226, 0.0],
            [-61.22127995591984, -30.43982421555836, 0.0],
            [-61.21599305246284, -30.42611005489246, 0.0],
            [-61.2136840233771, -30.40548525414368, 0.0],
            [-61.20835827213237, -30.39168763569056, 0.0],
            [-61.20640131226391, -30.37440554948664, 0.0],
            [-61.20066670232291, -30.35708071503556, 0.0],
            [-61.19869811383888, -30.33971722729055, 0.0],
            [-61.19333959665886, -30.32579376501373, 0.0],
            [-61.19136023836388, -30.30835624905265, 0.0],
            [-61.20492397952273, -30.29439371477089, 0.0],
            [-61.22346687735756, -30.29091410466745, 0.0],
            [-61.24201339846825, -30.28743178515273, 0.0],
            [-61.25677640950125, -30.28394365938649, 0.0],
            [-61.27532885617552, -30.28045534167407, 0.0],
            [-61.29047442293916, -30.2804642126021, 0.0],
            [-61.30902878288612, -30.27697098670086, 0.0],
            [-61.33137154466022, -30.27347519105197, 0.0],
            [-61.35029305524563, -30.27347547001576, 0.0],
            [-61.36504993304292, -30.26995488121776, 0.0],
            [-61.38736984292776, -30.26642195877847, 0.0],
            [-61.40969281159565, -30.26288465661462, 0.0],
            [-61.42068009354005, -30.25936050507524, 0.0],
            [-61.4392300393381, -30.25582190096568, 0.0],
            [-61.44987898379234, -30.24878142899416, 0.0],
            [-61.46465852544287, -30.24524255729108, 0.0],
            [-61.47978030430404, -30.24521485783566, 0.0],
            [-61.49867891594128, -30.24517779221918, 0.0],
            [-61.51346257562096, -30.24163300448803, 0.0],
            [-61.53201983816586, -30.23806709392226, 0.0],
            [-61.55466952554796, -30.23798658528844, 0.0],
            [-61.5807686625535, -30.2343724423739, 0.0],
            [-61.59554400944909, -30.23079169145213, 0.0],
            [-61.61409770545146, -30.22719302124929, 0.0],
            [-61.63674178396001, -30.22709951752907, 0.0],
            [-61.64397825254583, -30.22354286567889, 0.0],
            [-61.66631397189359, -30.21991897026324, 0.0],
            [-61.68140881297127, -30.21985142751846, 0.0],
            [-61.70721668528818, -30.21266477513044, 0.0],
            [-61.73331509492069, -30.20897564848658, 0.0],
            [-61.75941809791698, -30.20528063753877, 0.0],
            [-61.7858076670607, -30.20511105005343, 0.0],
            [-61.79683609046047, -30.20150525944623, 0.0],
            [-61.82699164058189, -30.20130293677706, 0.0],
            [-61.84206640085046, -30.20119910659296, 0.0],
            [-61.87220919396917, -30.20098505666381, 0.0],
            [-61.87947787335596, -30.19739271951237, 0.0],
            [-61.9055746996116, -30.19363367367635, 0.0],
            [-61.91661499917633, -30.19000065448802, 0.0],
            [-61.93519123140587, -30.18629858807314, 0.0],
            [-61.95753900556956, -30.18255898917866, 0.0],
            [-61.972359224455, -30.17888289826244, 0.0],
            [-61.98742467947586, -30.17874467401056, 0.0],
            [-62.00248879945248, -30.17860455604366, 0.0],
            [-62.01755103610326, -30.17846249376394, 0.0],
            [-62.0363767167438, -30.17828256767962, 0.0],
            [-62.0476709534082, -30.17817342283232, 0.0],
            [-62.06608605389958, -30.19810702555085, 0.0]
          ]
        ]
      }
    }
  ]
}
